{"type":"FeatureCollection","features":[{"type":"Feature","properties":{"cislo":56008,"mco":"Praha-Zbraslav"},"geometry":{"type":"Polygon","coordinates":[[[14.38483,49.96458],[14.38348,49.96504],[14.38179,49.96263],[14.37785,49.96225],[14.37909,49.95669],[14.37458,49.95419],[14.37327,49.9472],[14.37688,49.9467],[14.37982,49.94929],[14.38804,49.94986],[14.38919,49.95442],[14.38802,49.96216],[14.38437,49.96212],[14.38483,49.96458]]]}},{"type":"Feature","properties":{"cislo":56009,"mco":"Praha-Zbraslav"},"geometry":{"type":"Polygon","coordinates":[[[14.38348,49.96504],[14.38483,49.96458],[14.38721,49.96618],[14.38542,49.96657],[14.38348,49.96504]]]}},{"type":"Feature","properties":{"cislo":56010,"mco":"Praha-Zbraslav"},"geometry":{"type":"Polygon","coordinates":[[[14.39843,50.00897],[14.39688,50.00864],[14.3987,50.00622],[14.39603,50.00612],[14.39564,50.00444],[14.39789,50.00349],[14.39644,50.0023],[14.38964,50.00228],[14.38643,49.99888],[14.39454,49.99495],[14.38588,49.98948],[14.39866,49.98446],[14.40213,49.99642],[14.40283,49.99856],[14.40186,50.00344],[14.40087,50.00513],[14.39843,50.00897]]]}},{"type":"Feature","properties":{"cislo":56001,"mco":"Praha-Zbraslav"},"geometry":{"type":"Polygon","coordinates":[[[14.38588,49.98948],[14.38121,49.98472],[14.37072,49.98506],[14.36461,49.9819],[14.36239,49.981],[14.37162,49.97364],[14.37413,49.97292],[14.38991,49.97579],[14.3914,49.9727],[14.38995,49.97138],[14.39166,49.97205],[14.39184,49.97104],[14.39729,49.97501],[14.39866,49.98446],[14.38588,49.98948]]]}},{"type":"Feature","properties":{"cislo":56002,"mco":"Praha-Zbraslav"},"geometry":{"type":"Polygon","coordinates":[[[14.40735,49.97562],[14.4067,49.97733],[14.40354,49.97683],[14.39729,49.97501],[14.39184,49.97104],[14.38919,49.95442],[14.38804,49.94986],[14.38911,49.94525],[14.39563,49.94198],[14.39552,49.94793],[14.39515,49.95717],[14.40042,49.9704],[14.40254,49.97064],[14.40282,49.97259],[14.40576,49.97222],[14.40551,49.97521],[14.40735,49.97562]]]}},{"type":"Feature","properties":{"cislo":56003,"mco":"Praha-Zbraslav"},"geometry":{"type":"Polygon","coordinates":[[[14.39184,49.97104],[14.39166,49.97205],[14.38995,49.97138],[14.38684,49.97067],[14.38582,49.96779],[14.38609,49.96712],[14.38542,49.96657],[14.38721,49.96618],[14.38483,49.96458],[14.38437,49.96212],[14.38802,49.96216],[14.38919,49.95442],[14.39184,49.97104]]]}},{"type":"Feature","properties":{"cislo":56004,"mco":"Praha-Zbraslav"},"geometry":{"type":"Polygon","coordinates":[[[14.38995,49.97138],[14.3914,49.9727],[14.38991,49.97579],[14.37413,49.97292],[14.37851,49.96919],[14.38349,49.9698],[14.38582,49.96779],[14.38684,49.97067],[14.38995,49.97138]]]}},{"type":"Feature","properties":{"cislo":56005,"mco":"Praha-Zbraslav"},"geometry":{"type":"Polygon","coordinates":[[[14.37413,49.97292],[14.37162,49.97364],[14.36971,49.96593],[14.37343,49.96387],[14.37942,49.96682],[14.38218,49.96565],[14.38609,49.96712],[14.38582,49.96779],[14.38349,49.9698],[14.37851,49.96919],[14.37413,49.97292]]]}},{"type":"Feature","properties":{"cislo":56006,"mco":"Praha-Zbraslav"},"geometry":{"type":"Polygon","coordinates":[[[14.38218,49.96565],[14.37717,49.96338],[14.37785,49.96225],[14.38179,49.96263],[14.38348,49.96504],[14.38609,49.96712],[14.38218,49.96565]]]}},{"type":"Feature","properties":{"cislo":56007,"mco":"Praha-Zbraslav"},"geometry":{"type":"Polygon","coordinates":[[[14.37343,49.96387],[14.37717,49.96338],[14.38218,49.96565],[14.37942,49.96682],[14.37343,49.96387]]]}}]}