{"type":"FeatureCollection","features":[{"type":"Feature","properties":{"cislo":23001,"mco":"Praha-Běchovice"},"geometry":{"type":"Polygon","coordinates":[[[14.63323,50.09166],[14.62447,50.09565],[14.62263,50.09359],[14.60418,50.09225],[14.60521,50.08684],[14.60142,50.08601],[14.60151,50.08349],[14.60191,50.08203],[14.60659,50.0806],[14.60769,50.07729],[14.60975,50.07322],[14.61201,50.07258],[14.61355,50.06697],[14.61776,50.06796],[14.62443,50.07049],[14.62275,50.07485],[14.62531,50.07466],[14.62648,50.0718],[14.62914,50.0727],[14.63153,50.07047],[14.63941,50.07255],[14.64192,50.0741],[14.64078,50.07939],[14.63506,50.08009],[14.63453,50.08262],[14.63683,50.08503],[14.63323,50.09166]]]}},{"type":"Feature","properties":{"cislo":23002,"mco":"Praha-Běchovice"},"geometry":{"type":"Polygon","coordinates":[[[14.58557,50.08256],[14.59211,50.07175],[14.59622,50.07265],[14.59781,50.07501],[14.60286,50.07557],[14.60769,50.07729],[14.60659,50.0806],[14.60191,50.08203],[14.60151,50.08349],[14.59313,50.08155],[14.58557,50.08256]]]}}]}