{"type":"FeatureCollection","features":[{"type":"Feature","properties":{"cislo":1001,"mco":"Praha 1"},"geometry":{"type":"Polygon","coordinates":[[[14.38908,50.09217],[14.3881,50.08878],[14.38818,50.08723],[14.38563,50.08644],[14.38809,50.08305],[14.39259,50.08243],[14.39332,50.08485],[14.39061,50.08704],[14.39851,50.08855],[14.40683,50.09257],[14.40577,50.09444],[14.39842,50.09338],[14.38908,50.09217]]]}},{"type":"Feature","properties":{"cislo":1002,"mco":"Praha 1"},"geometry":{"type":"Polygon","coordinates":[[[14.41656,50.09397],[14.4115,50.09229],[14.41118,50.0955],[14.40914,50.09523],[14.40577,50.09444],[14.40683,50.09257],[14.39851,50.08855],[14.39936,50.08735],[14.40625,50.08738],[14.41146,50.08657],[14.41712,50.09312],[14.41656,50.09397]]]}},{"type":"Feature","properties":{"cislo":1003,"mco":"Praha 1"},"geometry":{"type":"Polygon","coordinates":[[[14.39332,50.08485],[14.40428,50.08597],[14.40625,50.08738],[14.39936,50.08735],[14.39851,50.08855],[14.39061,50.08704],[14.39332,50.08485]]]}},{"type":"Feature","properties":{"cislo":1004,"mco":"Praha 1"},"geometry":{"type":"Polygon","coordinates":[[[14.40428,50.08597],[14.39332,50.08485],[14.39259,50.08243],[14.39765,50.08],[14.40322,50.08083],[14.40704,50.08131],[14.40428,50.08597]]]}},{"type":"Feature","properties":{"cislo":1005,"mco":"Praha 1"},"geometry":{"type":"Polygon","coordinates":[[[14.40625,50.08738],[14.40428,50.08597],[14.40704,50.08131],[14.40917,50.08135],[14.40976,50.08376],[14.41146,50.08657],[14.40625,50.08738]]]}},{"type":"Feature","properties":{"cislo":1006,"mco":"Praha 1"},"geometry":{"type":"Polygon","coordinates":[[[14.40917,50.08135],[14.41096,50.07875],[14.41181,50.08131],[14.41527,50.07918],[14.41849,50.0798],[14.41924,50.08242],[14.41852,50.08401],[14.40976,50.08376],[14.40917,50.08135]]]}},{"type":"Feature","properties":{"cislo":1007,"mco":"Praha 1"},"geometry":{"type":"Polygon","coordinates":[[[14.42207,50.08733],[14.41852,50.08401],[14.41924,50.08242],[14.42199,50.08315],[14.42366,50.08436],[14.42808,50.08713],[14.42604,50.0873],[14.42207,50.08733]]]}},{"type":"Feature","properties":{"cislo":1008,"mco":"Praha 1"},"geometry":{"type":"Polygon","coordinates":[[[14.41146,50.08658],[14.40976,50.08376],[14.41852,50.08401],[14.42207,50.08733],[14.41641,50.08859],[14.41447,50.08615],[14.41146,50.08658]]]}},{"type":"Feature","properties":{"cislo":1009,"mco":"Praha 1"},"geometry":{"type":"Polygon","coordinates":[[[14.41712,50.09312],[14.41146,50.08658],[14.41447,50.08615],[14.41641,50.08859],[14.42073,50.08761],[14.41712,50.09312]]]}},{"type":"Feature","properties":{"cislo":1010,"mco":"Praha 1"},"geometry":{"type":"Polygon","coordinates":[[[14.42253,50.09408],[14.41712,50.09312],[14.41863,50.09082],[14.42249,50.09073],[14.42284,50.09065],[14.42492,50.09121],[14.42502,50.09425],[14.42253,50.09408]]]}},{"type":"Feature","properties":{"cislo":1011,"mco":"Praha 1"},"geometry":{"type":"Polygon","coordinates":[[[14.42284,50.09065],[14.4227,50.08952],[14.42585,50.09064],[14.42399,50.0893],[14.42604,50.0873],[14.42808,50.08713],[14.42784,50.09081],[14.42684,50.09437],[14.42502,50.09425],[14.42492,50.09121],[14.42284,50.09065]]]}},{"type":"Feature","properties":{"cislo":1012,"mco":"Praha 1"},"geometry":{"type":"Polygon","coordinates":[[[14.41946,50.08951],[14.42073,50.08761],[14.42207,50.08733],[14.42604,50.0873],[14.42399,50.0893],[14.42585,50.09064],[14.4227,50.08952],[14.42284,50.09065],[14.42249,50.09073],[14.41946,50.08951]]]}},{"type":"Feature","properties":{"cislo":1013,"mco":"Praha 1"},"geometry":{"type":"Polygon","coordinates":[[[14.42249,50.09073],[14.41863,50.09082],[14.41946,50.08951],[14.42249,50.09073]]]}},{"type":"Feature","properties":{"cislo":1014,"mco":"Praha 1"},"geometry":{"type":"Polygon","coordinates":[[[14.43114,50.09425],[14.42684,50.09437],[14.42784,50.09081],[14.43673,50.09197],[14.43669,50.09437],[14.43114,50.09425]]]}},{"type":"Feature","properties":{"cislo":1015,"mco":"Praha 1"},"geometry":{"type":"Polygon","coordinates":[[[14.43673,50.09197],[14.42784,50.09081],[14.42808,50.08713],[14.43726,50.08666],[14.43753,50.08658],[14.43673,50.09197]]]}},{"type":"Feature","properties":{"cislo":1016,"mco":"Praha 1"},"geometry":{"type":"Polygon","coordinates":[[[14.42808,50.08713],[14.42366,50.08436],[14.42625,50.08257],[14.42927,50.0846],[14.43284,50.08109],[14.43726,50.08666],[14.42808,50.08713]]]}},{"type":"Feature","properties":{"cislo":1017,"mco":"Praha 1"},"geometry":{"type":"Polygon","coordinates":[[[14.43284,50.08109],[14.42927,50.0846],[14.42625,50.08257],[14.42876,50.08074],[14.42671,50.07732],[14.43051,50.07716],[14.43159,50.07849],[14.43288,50.07928],[14.43284,50.08109]]]}},{"type":"Feature","properties":{"cislo":1018,"mco":"Praha 1"},"geometry":{"type":"Polygon","coordinates":[[[14.42366,50.08436],[14.42199,50.08315],[14.424,50.0806],[14.42599,50.07981],[14.42479,50.0774],[14.42671,50.07732],[14.42876,50.08074],[14.42625,50.08257],[14.42366,50.08436]]]}},{"type":"Feature","properties":{"cislo":1019,"mco":"Praha 1"},"geometry":{"type":"Polygon","coordinates":[[[14.424,50.0806],[14.42208,50.07916],[14.42184,50.0788],[14.42134,50.07758],[14.42479,50.0774],[14.42599,50.07981],[14.424,50.0806]]]}},{"type":"Feature","properties":{"cislo":1020,"mco":"Praha 1"},"geometry":{"type":"Polygon","coordinates":[[[14.42199,50.08315],[14.41924,50.08242],[14.41968,50.07924],[14.42208,50.07916],[14.424,50.0806],[14.42199,50.08315]]]}},{"type":"Feature","properties":{"cislo":1021,"mco":"Praha 1"},"geometry":{"type":"Polygon","coordinates":[[[14.41924,50.08242],[14.41849,50.0798],[14.41527,50.07918],[14.41181,50.08131],[14.41096,50.07875],[14.41158,50.07567],[14.41417,50.0764],[14.41968,50.07924],[14.41924,50.08242]]]}}]}