{"type":"FeatureCollection","features":[{"type":"Feature","properties":{"cislo":26001,"mco":"Praha-Čakovice"},"geometry":{"type":"Polygon","coordinates":[[[14.51644,50.15826],[14.50465,50.15328],[14.49718,50.14879],[14.50437,50.14447],[14.50891,50.14756],[14.50968,50.14971],[14.51373,50.14844],[14.51741,50.14955],[14.52176,50.14718],[14.52361,50.14799],[14.52397,50.1512],[14.51974,50.15185],[14.51967,50.15552],[14.5161,50.15526],[14.51617,50.1562],[14.51651,50.15724],[14.51644,50.15826]]]}},{"type":"Feature","properties":{"cislo":26002,"mco":"Praha-Čakovice"},"geometry":{"type":"Polygon","coordinates":[[[14.51617,50.1562],[14.5161,50.15526],[14.51967,50.15552],[14.51974,50.15185],[14.52397,50.1512],[14.52361,50.14799],[14.5263,50.14787],[14.52656,50.14991],[14.52522,50.15129],[14.52665,50.15115],[14.52789,50.15278],[14.52611,50.15162],[14.52642,50.15285],[14.52273,50.15298],[14.52373,50.15537],[14.51617,50.1562]]]}},{"type":"Feature","properties":{"cislo":26003,"mco":"Praha-Čakovice"},"geometry":{"type":"Polygon","coordinates":[[[14.53723,50.15092],[14.52656,50.14991],[14.5263,50.14787],[14.52361,50.14799],[14.52176,50.14718],[14.52824,50.14324],[14.5302,50.14034],[14.53512,50.14022],[14.54055,50.14041],[14.54061,50.14295],[14.54407,50.14242],[14.54375,50.14705],[14.54598,50.14725],[14.54438,50.14905],[14.54244,50.15113],[14.53723,50.15092]]]}},{"type":"Feature","properties":{"cislo":26004,"mco":"Praha-Čakovice"},"geometry":{"type":"Polygon","coordinates":[[[14.52693,50.1775],[14.51966,50.17495],[14.50915,50.17423],[14.50698,50.17151],[14.50536,50.16387],[14.50245,50.16409],[14.50281,50.15928],[14.50562,50.15875],[14.5065,50.15581],[14.50361,50.15551],[14.50465,50.15328],[14.51644,50.15826],[14.53054,50.15992],[14.53431,50.16164],[14.53059,50.16626],[14.53269,50.16755],[14.53256,50.17726],[14.52693,50.1775]]]}},{"type":"Feature","properties":{"cislo":26005,"mco":"Praha-Čakovice"},"geometry":{"type":"Polygon","coordinates":[[[14.53431,50.16164],[14.53054,50.15992],[14.53723,50.15092],[14.54244,50.15113],[14.54438,50.14905],[14.56056,50.15544],[14.56282,50.1561],[14.5607,50.16167],[14.55052,50.1649],[14.55062,50.16619],[14.54246,50.16265],[14.54041,50.16516],[14.53431,50.16164]]]}},{"type":"Feature","properties":{"cislo":26006,"mco":"Praha-Čakovice"},"geometry":{"type":"Polygon","coordinates":[[[14.51644,50.15826],[14.51651,50.15724],[14.52262,50.15603],[14.52352,50.15698],[14.52377,50.15573],[14.52715,50.1572],[14.52762,50.15604],[14.53115,50.15686],[14.53501,50.15088],[14.53723,50.15092],[14.53054,50.15992],[14.51644,50.15826]]]}},{"type":"Feature","properties":{"cislo":26007,"mco":"Praha-Čakovice"},"geometry":{"type":"Polygon","coordinates":[[[14.51651,50.15724],[14.51617,50.1562],[14.52373,50.15537],[14.52273,50.15298],[14.52642,50.15285],[14.52611,50.15162],[14.52789,50.15278],[14.52762,50.15604],[14.52715,50.1572],[14.52377,50.15573],[14.52352,50.15698],[14.52262,50.15603],[14.51651,50.15724]]]}},{"type":"Feature","properties":{"cislo":26008,"mco":"Praha-Čakovice"},"geometry":{"type":"Polygon","coordinates":[[[14.52762,50.15604],[14.52789,50.15278],[14.52665,50.15115],[14.52522,50.15129],[14.52656,50.14991],[14.53723,50.15092],[14.53501,50.15088],[14.53115,50.15686],[14.52762,50.15604]]]}}]}