{"type":"FeatureCollection","features":[{"type":"Feature","properties":{"cislo":52001,"mco":"Praha-Troja"},"geometry":{"type":"Polygon","coordinates":[[[14.40547,50.13027],[14.40095,50.12946],[14.40086,50.12722],[14.39503,50.12188],[14.40542,50.11394],[14.41673,50.11459],[14.42623,50.11223],[14.43446,50.11209],[14.43817,50.11273],[14.43735,50.11557],[14.43345,50.11648],[14.43416,50.12342],[14.42387,50.12046],[14.42373,50.12385],[14.41645,50.12461],[14.41149,50.12494],[14.40824,50.12682],[14.40824,50.12703],[14.40547,50.13027]]]}}]}