{"type":"FeatureCollection","features":[{"type":"Feature","properties":{"cislo":42001,"mco":"Praha-Nebušice"},"geometry":{"type":"Polygon","coordinates":[[[14.31765,50.11894],[14.3042,50.10907],[14.29525,50.10693],[14.29925,50.10424],[14.30112,50.10291],[14.30558,50.10319],[14.32168,50.10659],[14.32469,50.10667],[14.32916,50.10835],[14.32991,50.11103],[14.32407,50.1107],[14.32208,50.11191],[14.3235,50.11468],[14.3207,50.11532],[14.31805,50.11898],[14.31765,50.11894]]]}},{"type":"Feature","properties":{"cislo":42002,"mco":"Praha-Nebušice"},"geometry":{"type":"Polygon","coordinates":[[[14.3207,50.11532],[14.3235,50.11468],[14.32208,50.11191],[14.32407,50.1107],[14.32991,50.11103],[14.32916,50.10835],[14.33136,50.109],[14.35269,50.1092],[14.35449,50.11236],[14.35194,50.11455],[14.35529,50.11508],[14.35427,50.11623],[14.32772,50.11683],[14.3207,50.11532]]]}}]}