{"type":"FeatureCollection","features":[{"type":"Feature","properties":{"cislo":49001,"mco":"Praha-Suchdol"},"geometry":{"type":"Polygon","coordinates":[[[14.35771,50.14067],[14.3542,50.1376],[14.35449,50.13633],[14.35623,50.13671],[14.35716,50.13136],[14.36506,50.13159],[14.37616,50.13362],[14.36789,50.1381],[14.35771,50.14067]]]}},{"type":"Feature","properties":{"cislo":49002,"mco":"Praha-Suchdol"},"geometry":{"type":"Polygon","coordinates":[[[14.35612,50.14071],[14.35771,50.14067],[14.36789,50.1381],[14.37073,50.13933],[14.37491,50.13734],[14.37846,50.13837],[14.37986,50.13954],[14.37788,50.14027],[14.38015,50.13989],[14.38479,50.14222],[14.38708,50.14154],[14.38485,50.14279],[14.38747,50.14556],[14.38495,50.147],[14.37246,50.14757],[14.36578,50.14811],[14.3622,50.14668],[14.35612,50.14071]]]}},{"type":"Feature","properties":{"cislo":49003,"mco":"Praha-Suchdol"},"geometry":{"type":"Polygon","coordinates":[[[14.38747,50.14556],[14.38485,50.14279],[14.38708,50.14154],[14.38479,50.14222],[14.38015,50.13989],[14.37788,50.14027],[14.37986,50.13954],[14.37846,50.13837],[14.3838,50.13431],[14.38394,50.13178],[14.38201,50.13095],[14.38546,50.12837],[14.38908,50.12719],[14.38874,50.12462],[14.39395,50.12274],[14.39651,50.1248],[14.39541,50.12826],[14.3923,50.12899],[14.38846,50.13511],[14.39162,50.13847],[14.39386,50.13835],[14.39817,50.14352],[14.39314,50.14142],[14.38747,50.14556]]]}},{"type":"Feature","properties":{"cislo":49004,"mco":"Praha-Suchdol"},"geometry":{"type":"Polygon","coordinates":[[[14.36789,50.1381],[14.37616,50.13362],[14.38201,50.13095],[14.38394,50.13178],[14.3838,50.13431],[14.37846,50.13837],[14.37491,50.13734],[14.37073,50.13933],[14.36789,50.1381]]]}},{"type":"Feature","properties":{"cislo":49005,"mco":"Praha-Suchdol"},"geometry":{"type":"Polygon","coordinates":[[[14.36506,50.13159],[14.36685,50.1316],[14.36728,50.12899],[14.37601,50.12594],[14.38182,50.12996],[14.38546,50.12837],[14.38201,50.13095],[14.37616,50.13362],[14.36506,50.13159]]]}}]}