{"type":"FeatureCollection","features":[{"type":"Feature","properties":{"cislo":37001,"mco":"Praha-Kunratice"},"geometry":{"type":"Polygon","coordinates":[[[14.46846,50.01696],[14.46443,50.01606],[14.46953,50.00711],[14.4718,50.00385],[14.4759,50.00444],[14.47635,50.00191],[14.47357,50.0017],[14.4759,49.99842],[14.47822,49.99539],[14.48315,49.99488],[14.484,49.99249],[14.49698,49.99534],[14.49701,49.99913],[14.4923,49.99966],[14.48561,50.00336],[14.4821,50.00278],[14.47639,50.0121],[14.48235,50.01407],[14.48126,50.0163],[14.48612,50.01655],[14.47816,50.02164],[14.46846,50.01696]]]}},{"type":"Feature","properties":{"cislo":37002,"mco":"Praha-Kunratice"},"geometry":{"type":"Polygon","coordinates":[[[14.50068,50.0058],[14.49399,50.00876],[14.48766,50.00713],[14.48465,50.00944],[14.4867,50.01342],[14.48235,50.01407],[14.47639,50.0121],[14.4821,50.00278],[14.48561,50.00336],[14.4923,49.99966],[14.49701,49.99913],[14.49774,50.00112],[14.49443,50.00116],[14.4991,50.00282],[14.50068,50.0058]]]}},{"type":"Feature","properties":{"cislo":37003,"mco":"Praha-Kunratice"},"geometry":{"type":"Polygon","coordinates":[[[14.48235,50.01407],[14.4867,50.01342],[14.48465,50.00944],[14.48766,50.00713],[14.49399,50.00876],[14.50068,50.0058],[14.50296,50.01281],[14.50105,50.01198],[14.48905,50.01708],[14.48612,50.01655],[14.48126,50.0163],[14.48235,50.01407]]]}},{"type":"Feature","properties":{"cislo":37004,"mco":"Praha-Kunratice"},"geometry":{"type":"Polygon","coordinates":[[[14.47723,50.02983],[14.4641,50.03099],[14.462,50.0298],[14.45965,50.02651],[14.46381,50.02443],[14.46626,50.02349],[14.4621,50.02177],[14.46268,50.02119],[14.46846,50.01696],[14.47816,50.02164],[14.47723,50.02983]]]}},{"type":"Feature","properties":{"cislo":37005,"mco":"Praha-Kunratice"},"geometry":{"type":"Polygon","coordinates":[[[14.47816,50.02164],[14.48612,50.01655],[14.48905,50.01708],[14.4902,50.02012],[14.48703,50.02204],[14.48912,50.02268],[14.48898,50.0228],[14.48802,50.02617],[14.48776,50.02902],[14.48457,50.02885],[14.48106,50.02912],[14.47723,50.02983],[14.47816,50.02164]]]}},{"type":"Feature","properties":{"cislo":37006,"mco":"Praha-Kunratice"},"geometry":{"type":"Polygon","coordinates":[[[14.48912,50.02268],[14.48703,50.02204],[14.4902,50.02012],[14.48905,50.01708],[14.50105,50.01198],[14.50296,50.01281],[14.50037,50.02024],[14.49607,50.02125],[14.49312,50.02158],[14.48912,50.02268]]]}}]}