{"type":"FeatureCollection","features":[{"type":"Feature","properties":{"cislo":34001,"mco":"Praha-Kolovraty"},"geometry":{"type":"Polygon","coordinates":[[[14.63664,50.02607],[14.63593,50.0271],[14.63093,50.02668],[14.62952,50.02482],[14.61862,50.02498],[14.62157,50.02202],[14.60975,50.02111],[14.62958,50.01229],[14.6423,50.00935],[14.64622,50.00565],[14.64884,50.00788],[14.64317,50.01077],[14.64316,50.0143],[14.63915,50.01435],[14.63796,50.02192],[14.64138,50.02302],[14.63827,50.02354],[14.63664,50.02607]]]}},{"type":"Feature","properties":{"cislo":34002,"mco":"Praha-Kolovraty"},"geometry":{"type":"Polygon","coordinates":[[[14.60975,50.02111],[14.60972,50.0209],[14.60871,50.01979],[14.61175,50.01896],[14.61168,50.01624],[14.61445,50.01548],[14.61353,50.01427],[14.61634,50.01232],[14.61334,50.00769],[14.61393,50.00398],[14.61686,50.00236],[14.62402,50.00385],[14.62691,49.99981],[14.62385,49.9991],[14.6254,49.99741],[14.62923,49.99561],[14.63794,49.99538],[14.64022,49.99451],[14.64699,49.99883],[14.63836,50.00585],[14.64622,50.00565],[14.6423,50.00935],[14.62958,50.01229],[14.60975,50.02111]]]}},{"type":"Feature","properties":{"cislo":34003,"mco":"Praha-Kolovraty"},"geometry":{"type":"Polygon","coordinates":[[[14.61393,50.00398],[14.6091,50.00299],[14.60931,50.0019],[14.60866,50.00018],[14.6123,49.99896],[14.61308,50.00014],[14.61926,49.9976],[14.62148,49.99877],[14.6254,49.99741],[14.62385,49.9991],[14.62691,49.99981],[14.62402,50.00385],[14.61686,50.00236],[14.61393,50.00398]]]}}]}