{"type":"FeatureCollection","features":[{"type":"Feature","properties":{"cislo":7001,"mco":"Praha 7"},"geometry":{"type":"Polygon","coordinates":[[[14.43771,50.11586],[14.43735,50.11557],[14.43817,50.11273],[14.43446,50.11209],[14.43759,50.1099],[14.43643,50.10716],[14.43702,50.10672],[14.44143,50.10685],[14.44209,50.10815],[14.44426,50.1096],[14.44727,50.10873],[14.44886,50.11325],[14.44539,50.11349],[14.44545,50.11494],[14.44184,50.11589],[14.43771,50.11586]]]}},{"type":"Feature","properties":{"cislo":7002,"mco":"Praha 7"},"geometry":{"type":"Polygon","coordinates":[[[14.44209,50.10815],[14.4499,50.10765],[14.45111,50.10729],[14.45723,50.11101],[14.44956,50.1132],[14.44886,50.11325],[14.44727,50.10873],[14.44426,50.1096],[14.44209,50.10815]]]}},{"type":"Feature","properties":{"cislo":7003,"mco":"Praha 7"},"geometry":{"type":"Polygon","coordinates":[[[14.44209,50.10815],[14.44143,50.10685],[14.44317,50.10506],[14.4469,50.10511],[14.44682,50.10676],[14.4499,50.10765],[14.44209,50.10815]]]}},{"type":"Feature","properties":{"cislo":7004,"mco":"Praha 7"},"geometry":{"type":"Polygon","coordinates":[[[14.4469,50.10511],[14.45248,50.10519],[14.45244,50.10679],[14.45111,50.10729],[14.4499,50.10765],[14.44682,50.10676],[14.4469,50.10511]]]}},{"type":"Feature","properties":{"cislo":7005,"mco":"Praha 7"},"geometry":{"type":"Polygon","coordinates":[[[14.45244,50.10679],[14.45248,50.10519],[14.45593,50.10437],[14.45595,50.1053],[14.45244,50.10679]]]}},{"type":"Feature","properties":{"cislo":7006,"mco":"Praha 7"},"geometry":{"type":"Polygon","coordinates":[[[14.46004,50.10343],[14.4606,50.10621],[14.45595,50.1053],[14.45593,50.10437],[14.45248,50.10519],[14.4542,50.10338],[14.46004,50.10343]]]}},{"type":"Feature","properties":{"cislo":7007,"mco":"Praha 7"},"geometry":{"type":"Polygon","coordinates":[[[14.45004,50.10333],[14.45425,50.10199],[14.45433,50.09919],[14.45493,50.09941],[14.45866,50.10161],[14.46004,50.10342],[14.4542,50.10338],[14.45248,50.10519],[14.44998,50.10516],[14.45004,50.10333]]]}},{"type":"Feature","properties":{"cislo":7008,"mco":"Praha 7"},"geometry":{"type":"Polygon","coordinates":[[[14.45433,50.09919],[14.45425,50.10199],[14.45004,50.10333],[14.45014,50.1007],[14.44707,50.1008],[14.44492,50.10184],[14.44311,50.10193],[14.44044,50.09897],[14.44147,50.09477],[14.4475,50.09643],[14.45433,50.09919]]]}},{"type":"Feature","properties":{"cislo":7009,"mco":"Praha 7"},"geometry":{"type":"Polygon","coordinates":[[[14.44698,50.10328],[14.44707,50.1008],[14.45014,50.1007],[14.45004,50.10333],[14.44698,50.10328]]]}},{"type":"Feature","properties":{"cislo":7010,"mco":"Praha 7"},"geometry":{"type":"Polygon","coordinates":[[[14.44492,50.10184],[14.44707,50.1008],[14.44702,50.10189],[14.44492,50.10184]]]}},{"type":"Feature","properties":{"cislo":7011,"mco":"Praha 7"},"geometry":{"type":"Polygon","coordinates":[[[14.44314,50.10323],[14.44311,50.10193],[14.44492,50.10184],[14.44702,50.10189],[14.44698,50.10328],[14.44314,50.10323]]]}},{"type":"Feature","properties":{"cislo":7012,"mco":"Praha 7"},"geometry":{"type":"Polygon","coordinates":[[[14.44317,50.10506],[14.44314,50.10323],[14.45004,50.10333],[14.44998,50.10516],[14.44317,50.10506]]]}},{"type":"Feature","properties":{"cislo":7013,"mco":"Praha 7"},"geometry":{"type":"Polygon","coordinates":[[[14.43643,50.10716],[14.43164,50.10416],[14.43407,50.10467],[14.43474,50.10338],[14.43677,50.10366],[14.43702,50.10672],[14.43643,50.10716]]]}},{"type":"Feature","properties":{"cislo":7014,"mco":"Praha 7"},"geometry":{"type":"Polygon","coordinates":[[[14.43474,50.10338],[14.43407,50.10467],[14.43164,50.10416],[14.43306,50.10211],[14.43404,50.10229],[14.43474,50.10338]]]}},{"type":"Feature","properties":{"cislo":7015,"mco":"Praha 7"},"geometry":{"type":"Polygon","coordinates":[[[14.43404,50.10229],[14.43677,50.10366],[14.43474,50.10338],[14.43404,50.10229]]]}},{"type":"Feature","properties":{"cislo":7016,"mco":"Praha 7"},"geometry":{"type":"Polygon","coordinates":[[[14.43702,50.10672],[14.43677,50.10366],[14.43404,50.10229],[14.43542,50.10151],[14.43722,50.10167],[14.43968,50.10203],[14.43702,50.10672]]]}},{"type":"Feature","properties":{"cislo":7017,"mco":"Praha 7"},"geometry":{"type":"Polygon","coordinates":[[[14.43404,50.10229],[14.43306,50.10211],[14.43343,50.10059],[14.43561,50.10062],[14.43542,50.10151],[14.43404,50.10229]]]}},{"type":"Feature","properties":{"cislo":7018,"mco":"Praha 7"},"geometry":{"type":"Polygon","coordinates":[[[14.43722,50.10167],[14.43542,50.10151],[14.43561,50.10062],[14.43594,50.09992],[14.43722,50.10167]]]}},{"type":"Feature","properties":{"cislo":7019,"mco":"Praha 7"},"geometry":{"type":"Polygon","coordinates":[[[14.43197,50.09921],[14.43594,50.09992],[14.43561,50.10062],[14.43343,50.10059],[14.43197,50.09921]]]}},{"type":"Feature","properties":{"cislo":7020,"mco":"Praha 7"},"geometry":{"type":"Polygon","coordinates":[[[14.43306,50.10211],[14.43235,50.10315],[14.43029,50.10167],[14.43057,50.09943],[14.43197,50.09921],[14.43343,50.10059],[14.43306,50.10211]]]}},{"type":"Feature","properties":{"cislo":7021,"mco":"Praha 7"},"geometry":{"type":"Polygon","coordinates":[[[14.43029,50.10167],[14.42805,50.10128],[14.42847,50.09976],[14.43057,50.09943],[14.43029,50.10167]]]}},{"type":"Feature","properties":{"cislo":7022,"mco":"Praha 7"},"geometry":{"type":"Polygon","coordinates":[[[14.42805,50.10128],[14.42401,50.10062],[14.42446,50.1001],[14.4275,50.0999],[14.42847,50.09976],[14.42805,50.10128]]]}},{"type":"Feature","properties":{"cislo":7023,"mco":"Praha 7"},"geometry":{"type":"Polygon","coordinates":[[[14.42549,50.10188],[14.42588,50.10091],[14.43029,50.10167],[14.43235,50.10315],[14.43164,50.10416],[14.42549,50.10188]]]}},{"type":"Feature","properties":{"cislo":7024,"mco":"Praha 7"},"geometry":{"type":"Polygon","coordinates":[[[14.43446,50.11209],[14.42623,50.11223],[14.41673,50.11459],[14.40542,50.11394],[14.40555,50.11147],[14.40844,50.11087],[14.40584,50.10846],[14.40664,50.10705],[14.40597,50.10646],[14.40754,50.10472],[14.41823,50.10322],[14.42286,50.10283],[14.42549,50.10188],[14.43164,50.10416],[14.43643,50.10716],[14.43759,50.1099],[14.43446,50.11209]]]}},{"type":"Feature","properties":{"cislo":7025,"mco":"Praha 7"},"geometry":{"type":"Polygon","coordinates":[[[14.42355,50.10045],[14.42401,50.10062],[14.42588,50.10091],[14.42549,50.10188],[14.42286,50.10283],[14.42355,50.10045]]]}},{"type":"Feature","properties":{"cislo":7026,"mco":"Praha 7"},"geometry":{"type":"Polygon","coordinates":[[[14.42016,50.10152],[14.41942,50.1008],[14.4209,50.10017],[14.42355,50.10045],[14.42286,50.10283],[14.4216,50.10291],[14.42233,50.1013],[14.42016,50.10152]]]}},{"type":"Feature","properties":{"cislo":7027,"mco":"Praha 7"},"geometry":{"type":"Polygon","coordinates":[[[14.4216,50.10291],[14.41823,50.10322],[14.41745,50.10269],[14.42016,50.10152],[14.42233,50.1013],[14.4216,50.10291]]]}},{"type":"Feature","properties":{"cislo":7028,"mco":"Praha 7"},"geometry":{"type":"Polygon","coordinates":[[[14.41745,50.10269],[14.4152,50.10116],[14.41942,50.1008],[14.42016,50.10152],[14.41745,50.10269]]]}},{"type":"Feature","properties":{"cislo":7029,"mco":"Praha 7"},"geometry":{"type":"Polygon","coordinates":[[[14.4152,50.10116],[14.41159,50.09832],[14.40766,50.09773],[14.40914,50.09523],[14.41118,50.0955],[14.4115,50.09229],[14.41656,50.09397],[14.41712,50.09312],[14.42253,50.09408],[14.42186,50.09714],[14.4209,50.10017],[14.41942,50.1008],[14.4152,50.10116]]]}},{"type":"Feature","properties":{"cislo":7030,"mco":"Praha 7"},"geometry":{"type":"Polygon","coordinates":[[[14.42401,50.10062],[14.42355,50.10045],[14.4209,50.10017],[14.42186,50.09714],[14.42531,50.09813],[14.42446,50.1001],[14.42401,50.10062]]]}},{"type":"Feature","properties":{"cislo":7031,"mco":"Praha 7"},"geometry":{"type":"Polygon","coordinates":[[[14.42531,50.09813],[14.42812,50.09856],[14.4275,50.0999],[14.42446,50.1001],[14.42531,50.09813]]]}},{"type":"Feature","properties":{"cislo":7032,"mco":"Praha 7"},"geometry":{"type":"Polygon","coordinates":[[[14.43073,50.09836],[14.42812,50.09856],[14.42531,50.09813],[14.42186,50.09714],[14.42253,50.09408],[14.42684,50.09437],[14.43114,50.09425],[14.43073,50.09836]]]}},{"type":"Feature","properties":{"cislo":7033,"mco":"Praha 7"},"geometry":{"type":"Polygon","coordinates":[[[14.42812,50.09856],[14.43073,50.09836],[14.432,50.09841],[14.43199,50.09921],[14.4275,50.0999],[14.42812,50.09856]]]}},{"type":"Feature","properties":{"cislo":7034,"mco":"Praha 7"},"geometry":{"type":"Polygon","coordinates":[[[14.43702,50.10672],[14.43968,50.10203],[14.43722,50.10167],[14.43594,50.09992],[14.43334,50.09783],[14.432,50.09841],[14.43073,50.09836],[14.43114,50.09425],[14.43669,50.09437],[14.44146,50.09477],[14.44044,50.09897],[14.44311,50.10193],[14.44317,50.10506],[14.44143,50.10685],[14.43702,50.10672]]]}},{"type":"Feature","properties":{"cislo":7035,"mco":"Praha 7"},"geometry":{"type":"Polygon","coordinates":[[[14.43594,50.09992],[14.43199,50.09921],[14.432,50.09841],[14.43334,50.09783],[14.43594,50.09992]]]}},{"type":"Feature","properties":{"cislo":7036,"mco":"Praha 7"},"geometry":{"type":"Polygon","coordinates":[[[14.45723,50.11101],[14.45111,50.10729],[14.45244,50.10679],[14.45595,50.1053],[14.4606,50.10621],[14.45723,50.11101]]]}}]}