{"type":"FeatureCollection","features":[{"type":"Feature","properties":{"cislo":47001,"mco":"Praha-Satalice"},"geometry":{"type":"Polygon","coordinates":[[[14.60095,50.12938],[14.59829,50.12939],[14.598,50.12786],[14.59001,50.12856],[14.5875,50.1309],[14.58415,50.13004],[14.58364,50.13331],[14.57605,50.13462],[14.57492,50.13617],[14.5677,50.1341],[14.56365,50.13304],[14.56264,50.12065],[14.5759,50.11753],[14.57978,50.1188],[14.57995,50.11729],[14.58715,50.11725],[14.5872,50.1208],[14.59291,50.12077],[14.59186,50.12287],[14.60272,50.12148],[14.60464,50.12848],[14.60095,50.12938]]]}}]}