{"type":"FeatureCollection","features":[{"type":"Feature","properties":{"cislo":48001,"mco":"Praha-Slivenec"},"geometry":{"type":"Polygon","coordinates":[[[14.32534,50.00917],[14.32983,50.00465],[14.33528,50.00651],[14.33909,50.00553],[14.34282,50.00786],[14.35687,50.00911],[14.35669,50.01645],[14.34968,50.02021],[14.32401,50.02164],[14.32965,50.01404],[14.32534,50.00917]]]}},{"type":"Feature","properties":{"cislo":48002,"mco":"Praha-Slivenec"},"geometry":{"type":"Polygon","coordinates":[[[14.37637,50.0238],[14.37449,50.02708],[14.37281,50.02653],[14.36576,50.02243],[14.35837,50.02022],[14.35619,50.02178],[14.35169,50.02191],[14.34968,50.02021],[14.35669,50.01645],[14.35687,50.00911],[14.3566,50.00641],[14.36695,50.00725],[14.36869,50.01746],[14.37349,50.02007],[14.37163,50.02144],[14.37637,50.0238]]]}},{"type":"Feature","properties":{"cislo":48003,"mco":"Praha-Slivenec"},"geometry":{"type":"Polygon","coordinates":[[[14.34833,50.03421],[14.34276,50.03185],[14.33851,50.0328],[14.33585,50.03176],[14.33383,50.03086],[14.335,50.02915],[14.33173,50.02353],[14.32851,50.0214],[14.34968,50.02021],[14.35169,50.02191],[14.35619,50.02178],[14.35837,50.02022],[14.36576,50.02243],[14.36317,50.02626],[14.35608,50.02499],[14.35546,50.0284],[14.35745,50.03008],[14.35506,50.03186],[14.35439,50.03561],[14.35301,50.03559],[14.34833,50.03421]]]}}]}