{"type":"FeatureCollection","features":[{"type":"Feature","properties":{"cislo":36001,"mco":"Praha-Křeslice"},"geometry":{"type":"Polygon","coordinates":[[[14.57944,50.03256],[14.57577,50.03418],[14.57162,50.0321],[14.56047,50.03106],[14.55621,50.02905],[14.55159,50.03033],[14.54935,50.02759],[14.54671,50.02596],[14.55121,50.02197],[14.54984,50.02034],[14.55567,50.01779],[14.5543,50.01223],[14.56304,50.01162],[14.56854,50.00758],[14.57524,50.01268],[14.57337,50.01326],[14.57395,50.01764],[14.5714,50.01793],[14.5737,50.02301],[14.57116,50.02336],[14.5729,50.02555],[14.57015,50.02935],[14.57944,50.03256]]]}}]}