{"type":"FeatureCollection","features":[{"type":"Feature","properties":{"cislo":43001,"mco":"Praha-Nedvězí"},"geometry":{"type":"Polygon","coordinates":[[[14.66142,50.02583],[14.65124,50.02632],[14.64588,50.02869],[14.64339,50.02678],[14.63664,50.02607],[14.63827,50.02354],[14.64138,50.02302],[14.63796,50.02192],[14.63915,50.01435],[14.64316,50.0143],[14.64317,50.01077],[14.64884,50.00788],[14.64987,50.00886],[14.65785,50.00442],[14.66268,50.00847],[14.66134,50.01247],[14.66862,50.0135],[14.66903,50.01645],[14.6696,50.01891],[14.66142,50.02583]]]}}]}