{"type":"FeatureCollection","features":[{"type":"Feature","properties":{"cislo":28001,"mco":"Praha-Dolní Chabry"},"geometry":{"type":"Polygon","coordinates":[[[14.45934,50.14494],[14.44989,50.1462],[14.45137,50.13737],[14.44881,50.13688],[14.44983,50.13542],[14.45241,50.13538],[14.4565,50.1371],[14.45607,50.14096],[14.46292,50.14313],[14.45934,50.14494]]]}},{"type":"Feature","properties":{"cislo":28002,"mco":"Praha-Dolní Chabry"},"geometry":{"type":"Polygon","coordinates":[[[14.44013,50.14845],[14.43886,50.15049],[14.43555,50.15003],[14.43367,50.1451],[14.43827,50.14541],[14.43848,50.14375],[14.44092,50.14272],[14.44329,50.14326],[14.44267,50.14476],[14.44989,50.1462],[14.45934,50.14494],[14.45338,50.14703],[14.44494,50.14554],[14.44501,50.1483],[14.44013,50.14845]]]}},{"type":"Feature","properties":{"cislo":28003,"mco":"Praha-Dolní Chabry"},"geometry":{"type":"Polygon","coordinates":[[[14.43608,50.15917],[14.42838,50.15714],[14.42905,50.15359],[14.42009,50.15304],[14.42258,50.14991],[14.43644,50.152],[14.43555,50.15003],[14.43886,50.15049],[14.44013,50.14845],[14.44501,50.1483],[14.44494,50.14554],[14.45338,50.14703],[14.45934,50.14494],[14.46292,50.14313],[14.46794,50.14439],[14.46706,50.15234],[14.46709,50.15358],[14.46705,50.15468],[14.46109,50.15466],[14.46051,50.15907],[14.43676,50.15758],[14.43608,50.15917]]]}},{"type":"Feature","properties":{"cislo":28004,"mco":"Praha-Dolní Chabry"},"geometry":{"type":"Polygon","coordinates":[[[14.44989,50.1462],[14.44267,50.14476],[14.44329,50.14326],[14.44092,50.14272],[14.43848,50.14375],[14.43672,50.1417],[14.43744,50.14065],[14.44481,50.13955],[14.4466,50.13644],[14.45137,50.13737],[14.44989,50.1462]]]}}]}