{"type":"FeatureCollection","features":[{"type":"Feature","properties":{"cislo":12001,"mco":"Praha 12"},"geometry":{"type":"Polygon","coordinates":[[[14.41418,50.01703],[14.40955,50.01662],[14.40962,50.01547],[14.41227,50.01311],[14.41156,50.01149],[14.41515,50.00969],[14.41642,50.01162],[14.41736,50.01407],[14.41698,50.01552],[14.41418,50.01703]]]}},{"type":"Feature","properties":{"cislo":12002,"mco":"Praha 12"},"geometry":{"type":"Polygon","coordinates":[[[14.40962,50.01547],[14.40733,50.01319],[14.40785,50.01026],[14.41282,50.00823],[14.41567,50.00773],[14.4152,50.00934],[14.41515,50.00969],[14.41156,50.01149],[14.41227,50.01311],[14.40962,50.01547]]]}},{"type":"Feature","properties":{"cislo":12003,"mco":"Praha 12"},"geometry":{"type":"Polygon","coordinates":[[[14.3963,50.01648],[14.39843,50.00897],[14.40087,50.00513],[14.40371,50.00782],[14.40547,50.00684],[14.41282,50.00823],[14.40785,50.01026],[14.40733,50.01319],[14.40962,50.01547],[14.40955,50.01662],[14.40802,50.01645],[14.39594,50.01893],[14.3963,50.01648]]]}},{"type":"Feature","properties":{"cislo":12004,"mco":"Praha 12"},"geometry":{"type":"Polygon","coordinates":[[[14.41282,50.00823],[14.40547,50.00684],[14.40371,50.00782],[14.40087,50.00513],[14.40186,50.00344],[14.40366,50.00356],[14.40667,50.00467],[14.40673,50.00342],[14.40924,50.00344],[14.41261,50.00531],[14.41438,50.00337],[14.41331,50.00644],[14.41592,50.00702],[14.41567,50.00773],[14.41282,50.00823]]]}},{"type":"Feature","properties":{"cislo":12005,"mco":"Praha 12"},"geometry":{"type":"Polygon","coordinates":[[[14.41592,50.00702],[14.41331,50.00644],[14.41438,50.00337],[14.41261,50.00531],[14.40924,50.00344],[14.40673,50.00342],[14.40667,50.00467],[14.40366,50.00356],[14.40812,50.00233],[14.4132,50.00269],[14.41676,50.00393],[14.41592,50.00702]]]}},{"type":"Feature","properties":{"cislo":12006,"mco":"Praha 12"},"geometry":{"type":"Polygon","coordinates":[[[14.40186,50.00344],[14.40283,49.99856],[14.41025,49.99825],[14.40904,49.99966],[14.41385,50.00045],[14.41342,50.00204],[14.41689,49.99946],[14.4181,50.00202],[14.41698,50.00373],[14.41676,50.00393],[14.4132,50.00269],[14.40812,50.00233],[14.40366,50.00356],[14.40186,50.00344]]]}},{"type":"Feature","properties":{"cislo":12007,"mco":"Praha 12"},"geometry":{"type":"Polygon","coordinates":[[[14.41689,49.99946],[14.41342,50.00204],[14.41385,50.00045],[14.40904,49.99966],[14.41025,49.99825],[14.40283,49.99856],[14.40213,49.99642],[14.40604,49.99648],[14.40547,49.99463],[14.40954,49.99247],[14.4066,49.99445],[14.41908,49.99532],[14.41863,49.99776],[14.41689,49.99946]]]}},{"type":"Feature","properties":{"cislo":12008,"mco":"Praha 12"},"geometry":{"type":"Polygon","coordinates":[[[14.42492,50.00055],[14.42203,50.00216],[14.4181,50.00202],[14.41689,49.99946],[14.41863,49.99776],[14.42492,50.00055]]]}},{"type":"Feature","properties":{"cislo":12009,"mco":"Praha 12"},"geometry":{"type":"Polygon","coordinates":[[[14.42717,50.00103],[14.42492,50.00055],[14.41863,49.99776],[14.41908,49.99532],[14.42724,49.9949],[14.42979,49.99889],[14.42717,50.00103]]]}},{"type":"Feature","properties":{"cislo":12010,"mco":"Praha 12"},"geometry":{"type":"Polygon","coordinates":[[[14.43574,50.00529],[14.4344,50.00231],[14.43094,50.00218],[14.42717,50.00103],[14.42979,49.99889],[14.42724,49.9949],[14.42886,49.99306],[14.43129,49.99135],[14.43387,49.99223],[14.43637,49.99669],[14.43768,49.99751],[14.43922,49.99576],[14.44891,50.00272],[14.44979,50.00622],[14.44693,50.0067],[14.44931,50.00636],[14.44533,50.00695],[14.44158,50.00687],[14.43574,50.00529]]]}},{"type":"Feature","properties":{"cislo":12011,"mco":"Praha 12"},"geometry":{"type":"Polygon","coordinates":[[[14.42848,50.00498],[14.4278,50.0023],[14.43094,50.00218],[14.4344,50.00231],[14.43574,50.00529],[14.43379,50.00532],[14.43135,50.00587],[14.42848,50.00498]]]}},{"type":"Feature","properties":{"cislo":12012,"mco":"Praha 12"},"geometry":{"type":"Polygon","coordinates":[[[14.427,50.00679],[14.4208,50.00516],[14.41698,50.00373],[14.4181,50.00202],[14.42203,50.00216],[14.42492,50.00055],[14.42717,50.00103],[14.43094,50.00218],[14.4278,50.0023],[14.42848,50.00498],[14.427,50.00679]]]}},{"type":"Feature","properties":{"cislo":12013,"mco":"Praha 12"},"geometry":{"type":"Polygon","coordinates":[[[14.40213,49.99642],[14.39866,49.98446],[14.39729,49.97501],[14.40354,49.97683],[14.40994,49.99007],[14.4125,49.98968],[14.41051,49.98879],[14.41705,49.98905],[14.42103,49.99162],[14.42886,49.99306],[14.42724,49.9949],[14.41908,49.99532],[14.4066,49.99445],[14.40954,49.99247],[14.40547,49.99463],[14.40604,49.99648],[14.40213,49.99642]]]}},{"type":"Feature","properties":{"cislo":12014,"mco":"Praha 12"},"geometry":{"type":"Polygon","coordinates":[[[14.40354,49.97683],[14.4067,49.97733],[14.40735,49.97562],[14.41554,49.97827],[14.41366,49.97962],[14.41818,49.98212],[14.41541,49.98752],[14.41705,49.98905],[14.41051,49.98879],[14.4125,49.98968],[14.40994,49.99007],[14.40354,49.97683]]]}},{"type":"Feature","properties":{"cislo":12015,"mco":"Praha 12"},"geometry":{"type":"Polygon","coordinates":[[[14.41818,49.98212],[14.41366,49.97962],[14.41554,49.97827],[14.40735,49.97562],[14.40551,49.97521],[14.40576,49.97222],[14.40282,49.97259],[14.40254,49.97064],[14.41692,49.96398],[14.42781,49.96458],[14.4303,49.96691],[14.44133,49.96941],[14.44467,49.97394],[14.43468,49.98125],[14.43367,49.98578],[14.43097,49.98645],[14.42959,49.98943],[14.42743,49.9894],[14.42682,49.98689],[14.42036,49.98629],[14.42416,49.97981],[14.41818,49.98212]]]}},{"type":"Feature","properties":{"cislo":12016,"mco":"Praha 12"},"geometry":{"type":"Polygon","coordinates":[[[14.45308,50.00262],[14.44891,50.00272],[14.43922,49.99576],[14.43768,49.99751],[14.43637,49.99669],[14.43387,49.99223],[14.43129,49.99135],[14.42886,49.99306],[14.42103,49.99162],[14.41705,49.98905],[14.41541,49.98752],[14.41818,49.98212],[14.42416,49.97981],[14.42036,49.98629],[14.42682,49.98689],[14.42743,49.9894],[14.42959,49.98943],[14.43097,49.98645],[14.43367,49.98578],[14.43468,49.98125],[14.44467,49.97394],[14.45331,49.97214],[14.46231,49.97085],[14.46492,49.97525],[14.46637,49.98111],[14.46714,49.98496],[14.46163,49.98534],[14.46644,49.98687],[14.46297,49.98841],[14.46365,49.99086],[14.46127,49.99011],[14.46029,49.99199],[14.45718,49.9913],[14.45429,49.99362],[14.45832,49.99754],[14.45602,49.9994],[14.4515,50.00039],[14.45308,50.00262]]]}},{"type":"Feature","properties":{"cislo":12017,"mco":"Praha 12"},"geometry":{"type":"Polygon","coordinates":[[[14.43972,50.00868],[14.43513,50.00789],[14.43379,50.00532],[14.43574,50.00529],[14.44158,50.00687],[14.4409,50.00836],[14.43972,50.00868]]]}},{"type":"Feature","properties":{"cislo":12018,"mco":"Praha 12"},"geometry":{"type":"Polygon","coordinates":[[[14.43513,50.00789],[14.43329,50.00761],[14.43135,50.00587],[14.43379,50.00532],[14.43513,50.00789]]]}},{"type":"Feature","properties":{"cislo":12019,"mco":"Praha 12"},"geometry":{"type":"Polygon","coordinates":[[[14.43329,50.00761],[14.43141,50.00868],[14.42736,50.00781],[14.427,50.00679],[14.42848,50.00498],[14.43135,50.00587],[14.43329,50.00761]]]}},{"type":"Feature","properties":{"cislo":12020,"mco":"Praha 12"},"geometry":{"type":"Polygon","coordinates":[[[14.42899,50.01236],[14.43011,50.01135],[14.42855,50.01105],[14.42679,50.00967],[14.42736,50.00781],[14.43141,50.00868],[14.43329,50.00761],[14.43972,50.00868],[14.43409,50.01058],[14.43518,50.01122],[14.42899,50.01236]]]}},{"type":"Feature","properties":{"cislo":12021,"mco":"Praha 12"},"geometry":{"type":"Polygon","coordinates":[[[14.42435,50.00832],[14.42275,50.00773],[14.42345,50.00666],[14.42048,50.00586],[14.4208,50.00516],[14.427,50.00679],[14.42736,50.00781],[14.42679,50.00967],[14.42435,50.00832]]]}},{"type":"Feature","properties":{"cislo":12022,"mco":"Praha 12"},"geometry":{"type":"Polygon","coordinates":[[[14.42482,50.01123],[14.42012,50.01065],[14.42109,50.00927],[14.42435,50.00832],[14.42679,50.00967],[14.42855,50.01105],[14.42482,50.01123]]]}},{"type":"Feature","properties":{"cislo":12023,"mco":"Praha 12"},"geometry":{"type":"Polygon","coordinates":[[[14.42109,50.00927],[14.41896,50.00803],[14.41782,50.00729],[14.42275,50.00773],[14.42435,50.00832],[14.42109,50.00927]]]}},{"type":"Feature","properties":{"cislo":12024,"mco":"Praha 12"},"geometry":{"type":"Polygon","coordinates":[[[14.42275,50.00773],[14.42009,50.00748],[14.42048,50.00586],[14.42345,50.00666],[14.42275,50.00773]]]}},{"type":"Feature","properties":{"cislo":12025,"mco":"Praha 12"},"geometry":{"type":"Polygon","coordinates":[[[14.42012,50.01065],[14.4152,50.00934],[14.41544,50.00849],[14.41846,50.00911],[14.41896,50.00803],[14.42109,50.00927],[14.42012,50.01065]]]}},{"type":"Feature","properties":{"cislo":12026,"mco":"Praha 12"},"geometry":{"type":"Polygon","coordinates":[[[14.41896,50.00803],[14.41846,50.00911],[14.41544,50.00849],[14.41592,50.00702],[14.41676,50.00393],[14.41698,50.00373],[14.4208,50.00516],[14.42048,50.00586],[14.42009,50.00748],[14.41782,50.00729],[14.41896,50.00803]]]}},{"type":"Feature","properties":{"cislo":12027,"mco":"Praha 12"},"geometry":{"type":"Polygon","coordinates":[[[14.42467,50.01207],[14.41969,50.01186],[14.41642,50.01162],[14.41515,50.00969],[14.4152,50.00934],[14.42012,50.01065],[14.42482,50.01123],[14.42467,50.01207]]]}},{"type":"Feature","properties":{"cislo":12028,"mco":"Praha 12"},"geometry":{"type":"Polygon","coordinates":[[[14.41736,50.01407],[14.41642,50.01162],[14.41969,50.01186],[14.42024,50.01368],[14.41736,50.01407]]]}},{"type":"Feature","properties":{"cislo":12029,"mco":"Praha 12"},"geometry":{"type":"Polygon","coordinates":[[[14.42181,50.01373],[14.42097,50.01488],[14.42387,50.01609],[14.41698,50.01552],[14.41736,50.01407],[14.42024,50.01368],[14.42181,50.01373]]]}},{"type":"Feature","properties":{"cislo":12030,"mco":"Praha 12"},"geometry":{"type":"Polygon","coordinates":[[[14.42181,50.01373],[14.42024,50.01368],[14.41969,50.01186],[14.42467,50.01207],[14.42498,50.01273],[14.42332,50.01314],[14.42335,50.01359],[14.42181,50.01373]]]}},{"type":"Feature","properties":{"cislo":12031,"mco":"Praha 12"},"geometry":{"type":"Polygon","coordinates":[[[14.42335,50.01359],[14.42332,50.01314],[14.42498,50.01273],[14.42707,50.01342],[14.42335,50.01359]]]}},{"type":"Feature","properties":{"cislo":12032,"mco":"Praha 12"},"geometry":{"type":"Polygon","coordinates":[[[14.42713,50.0196],[14.41736,50.01828],[14.41418,50.01703],[14.41698,50.01552],[14.42387,50.01609],[14.42097,50.01488],[14.42181,50.01373],[14.42335,50.01359],[14.42707,50.01342],[14.42498,50.01273],[14.42467,50.01207],[14.42482,50.01123],[14.42855,50.01105],[14.43011,50.01135],[14.42899,50.01236],[14.42835,50.01283],[14.42386,50.01666],[14.42502,50.01792],[14.42687,50.01667],[14.43071,50.01915],[14.42713,50.0196]]]}},{"type":"Feature","properties":{"cislo":12033,"mco":"Praha 12"},"geometry":{"type":"Polygon","coordinates":[[[14.42687,50.01667],[14.42502,50.01792],[14.42386,50.01666],[14.42835,50.01283],[14.43062,50.01362],[14.42977,50.01477],[14.42687,50.01667]]]}},{"type":"Feature","properties":{"cislo":12034,"mco":"Praha 12"},"geometry":{"type":"Polygon","coordinates":[[[14.43208,50.01564],[14.42977,50.01477],[14.43062,50.01362],[14.42835,50.01283],[14.42899,50.01236],[14.43518,50.01122],[14.43673,50.01299],[14.43377,50.01404],[14.43208,50.01564]]]}},{"type":"Feature","properties":{"cislo":12035,"mco":"Praha 12"},"geometry":{"type":"Polygon","coordinates":[[[14.43548,50.0159],[14.43377,50.01404],[14.43673,50.01299],[14.43951,50.01429],[14.43846,50.01551],[14.43748,50.01587],[14.43548,50.0159]]]}},{"type":"Feature","properties":{"cislo":12036,"mco":"Praha 12"},"geometry":{"type":"Polygon","coordinates":[[[14.43208,50.01564],[14.43377,50.01404],[14.43548,50.0159],[14.43338,50.01716],[14.43208,50.01564]]]}},{"type":"Feature","properties":{"cislo":12037,"mco":"Praha 12"},"geometry":{"type":"Polygon","coordinates":[[[14.43071,50.01915],[14.42687,50.01667],[14.42977,50.01477],[14.43208,50.01564],[14.43338,50.01716],[14.43548,50.0159],[14.43748,50.01587],[14.43561,50.01798],[14.43537,50.01815],[14.43275,50.01905],[14.43071,50.01915]]]}},{"type":"Feature","properties":{"cislo":12038,"mco":"Praha 12"},"geometry":{"type":"Polygon","coordinates":[[[14.43748,50.01587],[14.43846,50.01551],[14.43929,50.01571],[14.43561,50.01798],[14.43748,50.01587]]]}},{"type":"Feature","properties":{"cislo":12039,"mco":"Praha 12"},"geometry":{"type":"Polygon","coordinates":[[[14.43612,50.01867],[14.43537,50.01815],[14.43929,50.01571],[14.4433,50.01673],[14.44263,50.01781],[14.4391,50.01692],[14.43751,50.01909],[14.43612,50.01867]]]}},{"type":"Feature","properties":{"cislo":12040,"mco":"Praha 12"},"geometry":{"type":"Polygon","coordinates":[[[14.44245,50.0186],[14.4414,50.02159],[14.4392,50.02215],[14.43612,50.01867],[14.43751,50.01909],[14.4391,50.01692],[14.44331,50.01799],[14.44245,50.0186]]]}},{"type":"Feature","properties":{"cislo":12041,"mco":"Praha 12"},"geometry":{"type":"Polygon","coordinates":[[[14.44438,50.02132],[14.44051,50.02308],[14.4392,50.02215],[14.4414,50.02159],[14.44245,50.0186],[14.44457,50.01915],[14.44438,50.02132]]]}},{"type":"Feature","properties":{"cislo":12042,"mco":"Praha 12"},"geometry":{"type":"Polygon","coordinates":[[[14.44245,50.0186],[14.44331,50.01799],[14.44917,50.01821],[14.44565,50.02073],[14.44438,50.02132],[14.44457,50.01915],[14.44245,50.0186]]]}},{"type":"Feature","properties":{"cislo":12043,"mco":"Praha 12"},"geometry":{"type":"Polygon","coordinates":[[[14.44917,50.01821],[14.44331,50.01799],[14.44263,50.01781],[14.4433,50.01673],[14.43846,50.01551],[14.43951,50.01429],[14.4417,50.01358],[14.44297,50.0163],[14.44488,50.01599],[14.4472,50.01347],[14.44882,50.01493],[14.45326,50.01334],[14.44917,50.01821]]]}},{"type":"Feature","properties":{"cislo":12044,"mco":"Praha 12"},"geometry":{"type":"Polygon","coordinates":[[[14.44488,50.01599],[14.44297,50.0163],[14.4417,50.01358],[14.44366,50.0132],[14.44541,50.01514],[14.44488,50.01599]]]}},{"type":"Feature","properties":{"cislo":12045,"mco":"Praha 12"},"geometry":{"type":"Polygon","coordinates":[[[14.44541,50.01514],[14.44366,50.0132],[14.4417,50.01358],[14.43951,50.01429],[14.43673,50.01299],[14.43518,50.01122],[14.43409,50.01058],[14.43972,50.00868],[14.4409,50.00836],[14.44762,50.01094],[14.44765,50.01142],[14.44283,50.01202],[14.44513,50.01283],[14.44541,50.01514]]]}},{"type":"Feature","properties":{"cislo":12046,"mco":"Praha 12"},"geometry":{"type":"Polygon","coordinates":[[[14.4472,50.01347],[14.44488,50.01599],[14.44541,50.01514],[14.44513,50.01283],[14.4472,50.01347]]]}},{"type":"Feature","properties":{"cislo":12047,"mco":"Praha 12"},"geometry":{"type":"Polygon","coordinates":[[[14.44765,50.01142],[14.44762,50.01094],[14.4504,50.00949],[14.45113,50.00979],[14.45067,50.01135],[14.44765,50.01142]]]}},{"type":"Feature","properties":{"cislo":12048,"mco":"Praha 12"},"geometry":{"type":"Polygon","coordinates":[[[14.45289,50.01192],[14.45067,50.01135],[14.45113,50.00979],[14.45445,50.00999],[14.45289,50.01192]]]}},{"type":"Feature","properties":{"cislo":12049,"mco":"Praha 12"},"geometry":{"type":"Polygon","coordinates":[[[14.45289,50.01192],[14.45445,50.00999],[14.45113,50.00979],[14.4504,50.00949],[14.45624,50.00849],[14.45608,50.00888],[14.45289,50.01192]]]}},{"type":"Feature","properties":{"cislo":12050,"mco":"Praha 12"},"geometry":{"type":"Polygon","coordinates":[[[14.4409,50.00836],[14.44158,50.00687],[14.44533,50.00695],[14.44931,50.00636],[14.45643,50.00605],[14.45624,50.00849],[14.4504,50.00949],[14.44762,50.01094],[14.4409,50.00836]]]}}]}