{"type":"FeatureCollection","features":[{"type":"Feature","properties":{"cislo":16001,"mco":"Praha 16"},"geometry":{"type":"Polygon","coordinates":[[[14.32534,50.00917],[14.32309,50.00902],[14.32174,50.00517],[14.31906,50.00476],[14.3179,49.99551],[14.32295,49.99597],[14.32671,49.99358],[14.33128,49.99496],[14.33321,49.99337],[14.33641,49.99386],[14.34282,49.99071],[14.33485,49.98806],[14.33516,49.98652],[14.33899,49.98541],[14.34021,49.98421],[14.34591,49.98612],[14.35449,49.98625],[14.35539,49.98499],[14.36003,49.98602],[14.35488,49.99183],[14.35639,49.99396],[14.35329,49.99257],[14.34884,49.99308],[14.34738,49.9945],[14.34997,49.99828],[14.34127,49.99824],[14.34159,50.00039],[14.33812,50.00229],[14.33909,50.00553],[14.33528,50.00651],[14.32983,50.00465],[14.32534,50.00917]]]}},{"type":"Feature","properties":{"cislo":16002,"mco":"Praha 16"},"geometry":{"type":"Polygon","coordinates":[[[14.35539,49.98499],[14.35449,49.98625],[14.34591,49.98612],[14.34021,49.98421],[14.33899,49.98541],[14.33765,49.98247],[14.33966,49.98083],[14.33241,49.97738],[14.33267,49.97596],[14.33,49.97549],[14.32688,49.97194],[14.32804,49.97086],[14.33236,49.97111],[14.34069,49.97469],[14.34624,49.97479],[14.35244,49.97775],[14.35472,49.98206],[14.35457,49.97916],[14.36099,49.98344],[14.35539,49.98499]]]}},{"type":"Feature","properties":{"cislo":16003,"mco":"Praha 16"},"geometry":{"type":"Polygon","coordinates":[[[14.35244,49.97775],[14.35457,49.97916],[14.35472,49.98206],[14.35244,49.97775]]]}},{"type":"Feature","properties":{"cislo":16004,"mco":"Praha 16"},"geometry":{"type":"Polygon","coordinates":[[[14.36099,49.98344],[14.35244,49.97775],[14.34624,49.97479],[14.34506,49.97369],[14.34714,49.97255],[14.35405,49.97178],[14.35754,49.97303],[14.36239,49.981],[14.36432,49.98178],[14.36099,49.98344]]]}},{"type":"Feature","properties":{"cislo":16005,"mco":"Praha 16"},"geometry":{"type":"Polygon","coordinates":[[[14.37628,49.99497],[14.36901,49.98961],[14.36099,49.98344],[14.36432,49.98178],[14.37072,49.98506],[14.38121,49.98472],[14.38588,49.98948],[14.39454,49.99495],[14.38643,49.99888],[14.38115,50.00064],[14.37628,49.99497]]]}},{"type":"Feature","properties":{"cislo":16006,"mco":"Praha 16"},"geometry":{"type":"Polygon","coordinates":[[[14.3691,50.00018],[14.36095,49.99508],[14.36228,49.99402],[14.36617,49.99504],[14.36422,49.99082],[14.36901,49.98961],[14.37628,49.99497],[14.37605,49.99508],[14.3691,50.00018]]]}},{"type":"Feature","properties":{"cislo":16007,"mco":"Praha 16"},"geometry":{"type":"Polygon","coordinates":[[[14.36095,49.99508],[14.36052,49.99486],[14.35639,49.99396],[14.35488,49.99183],[14.36177,49.98406],[14.36901,49.98961],[14.36422,49.99082],[14.36617,49.99504],[14.36228,49.99402],[14.36095,49.99508]]]}},{"type":"Feature","properties":{"cislo":16008,"mco":"Praha 16"},"geometry":{"type":"Polygon","coordinates":[[[14.35539,49.98499],[14.36099,49.98344],[14.36177,49.98406],[14.36003,49.98602],[14.35539,49.98499]]]}}]}