{"type":"FeatureCollection","features":[{"type":"Feature","properties":{"cislo":14032,"mco":"Praha 14"},"geometry":{"type":"Polygon","coordinates":[[[14.55497,50.10751],[14.5596,50.10758],[14.56421,50.11006],[14.56101,50.11284],[14.55681,50.11154],[14.55497,50.10751]]]}},{"type":"Feature","properties":{"cislo":14001,"mco":"Praha 14"},"geometry":{"type":"Polygon","coordinates":[[[14.53927,50.09824],[14.53036,50.0974],[14.53035,50.09731],[14.53322,50.09166],[14.53635,50.093],[14.53455,50.09582],[14.53931,50.09706],[14.53927,50.09824]]]}},{"type":"Feature","properties":{"cislo":14002,"mco":"Praha 14"},"geometry":{"type":"Polygon","coordinates":[[[14.53116,50.09946],[14.53036,50.0974],[14.53927,50.09824],[14.53664,50.0993],[14.54698,50.10434],[14.54664,50.10505],[14.54146,50.1057],[14.53752,50.10492],[14.53657,50.10227],[14.53116,50.09946]]]}},{"type":"Feature","properties":{"cislo":14003,"mco":"Praha 14"},"geometry":{"type":"Polygon","coordinates":[[[14.54125,50.1063],[14.5356,50.10575],[14.53133,50.10477],[14.53322,50.10204],[14.53116,50.09946],[14.53657,50.10227],[14.53752,50.10492],[14.54146,50.1057],[14.54125,50.1063]]]}},{"type":"Feature","properties":{"cislo":14004,"mco":"Praha 14"},"geometry":{"type":"Polygon","coordinates":[[[14.5375,50.11702],[14.53119,50.11745],[14.52825,50.11354],[14.53136,50.11136],[14.53115,50.11063],[14.53144,50.10959],[14.52949,50.10456],[14.53133,50.10477],[14.5356,50.10575],[14.5361,50.1071],[14.53297,50.10935],[14.53536,50.1128],[14.53877,50.11287],[14.5362,50.1141],[14.5375,50.11702]]]}},{"type":"Feature","properties":{"cislo":14005,"mco":"Praha 14"},"geometry":{"type":"Polygon","coordinates":[[[14.5361,50.1071],[14.53928,50.1083],[14.53794,50.10915],[14.54279,50.11122],[14.54314,50.11736],[14.5375,50.11702],[14.5362,50.1141],[14.53877,50.11287],[14.53536,50.1128],[14.53297,50.10935],[14.5361,50.1071]]]}},{"type":"Feature","properties":{"cislo":14006,"mco":"Praha 14"},"geometry":{"type":"Polygon","coordinates":[[[14.53928,50.1083],[14.5361,50.1071],[14.5356,50.10575],[14.54125,50.1063],[14.54401,50.10646],[14.54266,50.10819],[14.53928,50.1083]]]}},{"type":"Feature","properties":{"cislo":14007,"mco":"Praha 14"},"geometry":{"type":"Polygon","coordinates":[[[14.55304,50.1217],[14.54515,50.11969],[14.54551,50.11774],[14.54314,50.11736],[14.54279,50.11122],[14.53794,50.10915],[14.53928,50.1083],[14.54266,50.10819],[14.54401,50.10646],[14.54833,50.10672],[14.55343,50.10674],[14.55461,50.10732],[14.54963,50.10964],[14.55093,50.11266],[14.55347,50.11282],[14.55304,50.1217]]]}},{"type":"Feature","properties":{"cislo":14008,"mco":"Praha 14"},"geometry":{"type":"Polygon","coordinates":[[[14.54125,50.1063],[14.54146,50.1057],[14.54664,50.10505],[14.54833,50.10672],[14.54125,50.1063]]]}},{"type":"Feature","properties":{"cislo":14009,"mco":"Praha 14"},"geometry":{"type":"Polygon","coordinates":[[[14.54833,50.10672],[14.54664,50.10505],[14.54696,50.10439],[14.55131,50.10541],[14.55349,50.10673],[14.54833,50.10672]]]}},{"type":"Feature","properties":{"cislo":14010,"mco":"Praha 14"},"geometry":{"type":"Polygon","coordinates":[[[14.54696,50.10439],[14.54739,50.10248],[14.55008,50.10349],[14.54836,50.10391],[14.55131,50.10541],[14.54696,50.10439]]]}},{"type":"Feature","properties":{"cislo":14011,"mco":"Praha 14"},"geometry":{"type":"Polygon","coordinates":[[[14.55349,50.10673],[14.55131,50.10541],[14.54836,50.10391],[14.55008,50.10349],[14.55522,50.10629],[14.55349,50.10673]]]}},{"type":"Feature","properties":{"cislo":14012,"mco":"Praha 14"},"geometry":{"type":"Polygon","coordinates":[[[14.562,50.10479],[14.56121,50.10718],[14.55682,50.10659],[14.55669,50.10301],[14.562,50.10479]]]}},{"type":"Feature","properties":{"cislo":14013,"mco":"Praha 14"},"geometry":{"type":"Polygon","coordinates":[[[14.56321,50.10748],[14.56121,50.10718],[14.562,50.10479],[14.56391,50.10521],[14.56321,50.10748]]]}},{"type":"Feature","properties":{"cislo":14014,"mco":"Praha 14"},"geometry":{"type":"Polygon","coordinates":[[[14.56584,50.10565],[14.56557,50.10777],[14.56321,50.10748],[14.56391,50.10521],[14.56584,50.10565]]]}},{"type":"Feature","properties":{"cislo":14015,"mco":"Praha 14"},"geometry":{"type":"Polygon","coordinates":[[[14.56929,50.10826],[14.56557,50.10777],[14.56584,50.10565],[14.56929,50.10826]]]}},{"type":"Feature","properties":{"cislo":14016,"mco":"Praha 14"},"geometry":{"type":"Polygon","coordinates":[[[14.56555,50.10194],[14.56792,50.10154],[14.57337,50.1043],[14.5687,50.10526],[14.56393,50.10304],[14.56555,50.10194]]]}},{"type":"Feature","properties":{"cislo":14017,"mco":"Praha 14"},"geometry":{"type":"Polygon","coordinates":[[[14.57469,50.10824],[14.56929,50.10826],[14.56584,50.10565],[14.562,50.10479],[14.55669,50.10301],[14.55652,50.10214],[14.55776,50.09854],[14.56558,50.0999],[14.56555,50.10194],[14.56393,50.10304],[14.5687,50.10526],[14.57337,50.1043],[14.57359,50.10433],[14.57529,50.10556],[14.57432,50.10623],[14.57469,50.10824]]]}},{"type":"Feature","properties":{"cislo":14018,"mco":"Praha 14"},"geometry":{"type":"Polygon","coordinates":[[[14.57359,50.10433],[14.57337,50.1043],[14.56792,50.10154],[14.57525,50.10355],[14.57359,50.10433]]]}},{"type":"Feature","properties":{"cislo":14019,"mco":"Praha 14"},"geometry":{"type":"Polygon","coordinates":[[[14.58461,50.1026],[14.58082,50.10376],[14.57778,50.10266],[14.57946,50.10113],[14.58771,50.10072],[14.5898,50.10198],[14.58461,50.1026]]]}},{"type":"Feature","properties":{"cislo":14020,"mco":"Praha 14"},"geometry":{"type":"Polygon","coordinates":[[[14.57788,50.10446],[14.57778,50.10266],[14.58082,50.10376],[14.58461,50.1026],[14.58494,50.10417],[14.58147,50.10572],[14.57788,50.10446]]]}},{"type":"Feature","properties":{"cislo":14021,"mco":"Praha 14"},"geometry":{"type":"Polygon","coordinates":[[[14.58037,50.10749],[14.57707,50.10504],[14.57788,50.10446],[14.58147,50.10572],[14.58494,50.10417],[14.58461,50.1026],[14.5898,50.10198],[14.58866,50.1057],[14.58317,50.10551],[14.58037,50.10749]]]}},{"type":"Feature","properties":{"cislo":14022,"mco":"Praha 14"},"geometry":{"type":"Polygon","coordinates":[[[14.56264,50.12065],[14.55923,50.12026],[14.55955,50.12245],[14.55685,50.12277],[14.55304,50.1217],[14.55347,50.11282],[14.55093,50.11266],[14.54963,50.10964],[14.55461,50.10732],[14.55682,50.10659],[14.56321,50.10748],[14.56929,50.10826],[14.57469,50.10824],[14.57542,50.11336],[14.5787,50.11306],[14.57995,50.11729],[14.57978,50.1188],[14.5759,50.11753],[14.56264,50.12065]],[[14.55497,50.10751],[14.55681,50.11154],[14.56101,50.11284],[14.56421,50.11006],[14.5596,50.10758],[14.55497,50.10751]]]}},{"type":"Feature","properties":{"cislo":14023,"mco":"Praha 14"},"geometry":{"type":"Polygon","coordinates":[[[14.55343,50.10674],[14.55522,50.10629],[14.55008,50.10349],[14.54739,50.10248],[14.54698,50.10434],[14.53664,50.0993],[14.53927,50.09824],[14.55652,50.10214],[14.55669,50.10301],[14.55682,50.10659],[14.55461,50.10732],[14.55343,50.10674]]]}},{"type":"Feature","properties":{"cislo":14024,"mco":"Praha 14"},"geometry":{"type":"Polygon","coordinates":[[[14.55652,50.10214],[14.53927,50.09824],[14.53931,50.09706],[14.53455,50.09582],[14.53635,50.093],[14.55034,50.09421],[14.5619,50.09625],[14.56574,50.09816],[14.56558,50.0999],[14.55776,50.09854],[14.55652,50.10214]]]}},{"type":"Feature","properties":{"cislo":14025,"mco":"Praha 14"},"geometry":{"type":"Polygon","coordinates":[[[14.55034,50.09421],[14.53635,50.093],[14.53322,50.09166],[14.53307,50.09061],[14.53406,50.08864],[14.53022,50.0878],[14.53206,50.08455],[14.5376,50.085],[14.53744,50.08838],[14.54687,50.0883],[14.54744,50.08949],[14.55483,50.08801],[14.55763,50.08757],[14.5583,50.09148],[14.55034,50.09421]]]}},{"type":"Feature","properties":{"cislo":14026,"mco":"Praha 14"},"geometry":{"type":"Polygon","coordinates":[[[14.5376,50.085],[14.53909,50.08103],[14.54323,50.08172],[14.54427,50.08014],[14.55437,50.08264],[14.555,50.08178],[14.55483,50.08801],[14.54744,50.08949],[14.54687,50.0883],[14.53744,50.08838],[14.5376,50.085]]]}},{"type":"Feature","properties":{"cislo":14027,"mco":"Praha 14"},"geometry":{"type":"Polygon","coordinates":[[[14.5583,50.09148],[14.55763,50.08757],[14.55483,50.08801],[14.555,50.08178],[14.5568,50.07933],[14.5617,50.08018],[14.56161,50.07716],[14.56315,50.07817],[14.56432,50.07603],[14.56483,50.08763],[14.56657,50.08927],[14.5583,50.09148]]]}},{"type":"Feature","properties":{"cislo":14028,"mco":"Praha 14"},"geometry":{"type":"Polygon","coordinates":[[[14.57304,50.1008],[14.56558,50.0999],[14.56574,50.09816],[14.5619,50.09625],[14.55034,50.09421],[14.5583,50.09148],[14.56657,50.08927],[14.5694,50.08857],[14.57279,50.09038],[14.5697,50.09345],[14.57441,50.09593],[14.57304,50.1008]]]}},{"type":"Feature","properties":{"cislo":14029,"mco":"Praha 14"},"geometry":{"type":"Polygon","coordinates":[[[14.58037,50.10749],[14.57813,50.10802],[14.57432,50.10623],[14.57529,50.10556],[14.57707,50.10504],[14.58037,50.10749]]]}},{"type":"Feature","properties":{"cislo":14030,"mco":"Praha 14"},"geometry":{"type":"Polygon","coordinates":[[[14.58854,50.10605],[14.58578,50.11017],[14.57469,50.10824],[14.57432,50.10623],[14.57813,50.10802],[14.58037,50.10749],[14.58317,50.10551],[14.58866,50.1057],[14.58854,50.10605]]]}},{"type":"Feature","properties":{"cislo":14031,"mco":"Praha 14"},"geometry":{"type":"Polygon","coordinates":[[[14.57359,50.10433],[14.57525,50.10355],[14.56792,50.10154],[14.56555,50.10194],[14.56558,50.0999],[14.57304,50.1008],[14.57946,50.10113],[14.57778,50.10266],[14.57788,50.10446],[14.57707,50.10504],[14.57529,50.10556],[14.57359,50.10433]]]}}]}