{"type":"FeatureCollection","features":[{"type":"Feature","properties":{"cislo":15001,"mco":"Praha 15"},"geometry":{"type":"Polygon","coordinates":[[[14.56043,50.04921],[14.55661,50.04824],[14.5576,50.04575],[14.56201,50.04783],[14.56043,50.04921]]]}},{"type":"Feature","properties":{"cislo":15002,"mco":"Praha 15"},"geometry":{"type":"Polygon","coordinates":[[[14.56556,50.04287],[14.56385,50.04397],[14.55945,50.04276],[14.56222,50.04276],[14.56222,50.04087],[14.56543,50.04082],[14.56556,50.04287]]]}},{"type":"Feature","properties":{"cislo":15003,"mco":"Praha 15"},"geometry":{"type":"Polygon","coordinates":[[[14.55945,50.04276],[14.55774,50.04261],[14.55939,50.04108],[14.5579,50.04079],[14.55785,50.04028],[14.56094,50.04],[14.56364,50.03826],[14.56414,50.04085],[14.56222,50.04087],[14.56222,50.04276],[14.55945,50.04276]]]}},{"type":"Feature","properties":{"cislo":15004,"mco":"Praha 15"},"geometry":{"type":"Polygon","coordinates":[[[14.56857,50.04637],[14.57105,50.04753],[14.56693,50.05152],[14.5637,50.05089],[14.56292,50.05195],[14.56091,50.05055],[14.56043,50.04921],[14.56201,50.04783],[14.5576,50.04575],[14.55757,50.04366],[14.55774,50.04261],[14.55945,50.04276],[14.56385,50.04397],[14.56556,50.04287],[14.56857,50.04637]]]}},{"type":"Feature","properties":{"cislo":15005,"mco":"Praha 15"},"geometry":{"type":"Polygon","coordinates":[[[14.56414,50.04085],[14.56364,50.03826],[14.56397,50.03782],[14.56637,50.03701],[14.56741,50.03878],[14.56923,50.03815],[14.57153,50.04108],[14.56543,50.04082],[14.56414,50.04085]]]}},{"type":"Feature","properties":{"cislo":15006,"mco":"Praha 15"},"geometry":{"type":"Polygon","coordinates":[[[14.5473,50.04422],[14.5496,50.04026],[14.55617,50.04311],[14.55757,50.04366],[14.55028,50.04496],[14.5473,50.04422]]]}},{"type":"Feature","properties":{"cislo":15007,"mco":"Praha 15"},"geometry":{"type":"Polygon","coordinates":[[[14.55757,50.04366],[14.55617,50.04311],[14.55237,50.04145],[14.5579,50.04079],[14.55939,50.04108],[14.55774,50.04261],[14.55757,50.04366]]]}},{"type":"Feature","properties":{"cislo":15008,"mco":"Praha 15"},"geometry":{"type":"Polygon","coordinates":[[[14.5579,50.04079],[14.55237,50.04145],[14.55617,50.04311],[14.5496,50.04026],[14.55085,50.0382],[14.55735,50.04025],[14.55785,50.04028],[14.5579,50.04079]]]}},{"type":"Feature","properties":{"cislo":15009,"mco":"Praha 15"},"geometry":{"type":"Polygon","coordinates":[[[14.52295,50.07377],[14.52331,50.06709],[14.52106,50.06746],[14.51839,50.0646],[14.51768,50.06132],[14.52471,50.0567],[14.53273,50.05454],[14.53272,50.05277],[14.53647,50.05472],[14.54593,50.0544],[14.54693,50.05657],[14.54923,50.05585],[14.55075,50.05688],[14.54925,50.05706],[14.5454,50.05925],[14.54253,50.05911],[14.53997,50.0652],[14.53717,50.06471],[14.53813,50.06701],[14.53538,50.06883],[14.53139,50.07231],[14.52824,50.07495],[14.52295,50.07377]]]}},{"type":"Feature","properties":{"cislo":15010,"mco":"Praha 15"},"geometry":{"type":"Polygon","coordinates":[[[14.5461,50.05374],[14.54512,50.05378],[14.54173,50.05338],[14.5389,50.05067],[14.54277,50.05178],[14.5461,50.05374]]]}},{"type":"Feature","properties":{"cislo":15011,"mco":"Praha 15"},"geometry":{"type":"Polygon","coordinates":[[[14.54892,50.05423],[14.5461,50.05374],[14.54277,50.05178],[14.54376,50.04989],[14.54759,50.04971],[14.54868,50.04836],[14.54892,50.05423]]]}},{"type":"Feature","properties":{"cislo":15012,"mco":"Praha 15"},"geometry":{"type":"Polygon","coordinates":[[[14.54277,50.05178],[14.5389,50.05067],[14.54223,50.04954],[14.54376,50.04989],[14.54277,50.05178]]]}},{"type":"Feature","properties":{"cislo":15013,"mco":"Praha 15"},"geometry":{"type":"Polygon","coordinates":[[[14.54376,50.04989],[14.54223,50.04954],[14.54355,50.04862],[14.54759,50.04971],[14.54376,50.04989]]]}},{"type":"Feature","properties":{"cislo":15014,"mco":"Praha 15"},"geometry":{"type":"Polygon","coordinates":[[[14.54759,50.04971],[14.54355,50.04862],[14.54512,50.04744],[14.54868,50.04836],[14.54759,50.04971]]]}},{"type":"Feature","properties":{"cislo":15015,"mco":"Praha 15"},"geometry":{"type":"Polygon","coordinates":[[[14.53272,50.05277],[14.53069,50.05224],[14.53333,50.04736],[14.52509,50.04463],[14.52195,50.04279],[14.51781,50.04069],[14.51871,50.03913],[14.5255,50.03754],[14.53092,50.0383],[14.53366,50.03969],[14.53883,50.04009],[14.53966,50.03828],[14.54364,50.03811],[14.54362,50.03626],[14.54746,50.0359],[14.55085,50.0382],[14.5496,50.04026],[14.5473,50.04422],[14.54512,50.04744],[14.54355,50.04862],[14.54223,50.04954],[14.5389,50.05067],[14.54173,50.05338],[14.54512,50.05378],[14.54593,50.0544],[14.53647,50.05472],[14.53272,50.05277]]]}},{"type":"Feature","properties":{"cislo":15016,"mco":"Praha 15"},"geometry":{"type":"Polygon","coordinates":[[[14.53069,50.05224],[14.52601,50.05052],[14.52104,50.05239],[14.52075,50.05103],[14.51622,50.05036],[14.51866,50.04709],[14.52676,50.04732],[14.52509,50.04463],[14.53333,50.04736],[14.53069,50.05224]]]}},{"type":"Feature","properties":{"cislo":15017,"mco":"Praha 15"},"geometry":{"type":"Polygon","coordinates":[[[14.51866,50.04709],[14.51826,50.04638],[14.51678,50.04568],[14.51915,50.04494],[14.52195,50.04279],[14.52509,50.04463],[14.52676,50.04732],[14.51866,50.04709]]]}},{"type":"Feature","properties":{"cislo":15018,"mco":"Praha 15"},"geometry":{"type":"Polygon","coordinates":[[[14.50234,50.04518],[14.50271,50.04453],[14.51243,50.04565],[14.51258,50.04392],[14.51358,50.04246],[14.51132,50.04064],[14.51871,50.03913],[14.51781,50.04069],[14.52195,50.04279],[14.51915,50.04494],[14.51535,50.04299],[14.51301,50.04362],[14.51259,50.04503],[14.518,50.04629],[14.51272,50.05006],[14.50988,50.05105],[14.50733,50.05058],[14.50626,50.04623],[14.50234,50.04518]]]}},{"type":"Feature","properties":{"cislo":15019,"mco":"Praha 15"},"geometry":{"type":"Polygon","coordinates":[[[14.51564,50.05113],[14.51272,50.05006],[14.518,50.04629],[14.51259,50.04503],[14.51301,50.04362],[14.51535,50.04299],[14.51915,50.04494],[14.51678,50.04568],[14.51826,50.04638],[14.51866,50.04709],[14.51564,50.05113]]]}},{"type":"Feature","properties":{"cislo":15020,"mco":"Praha 15"},"geometry":{"type":"Polygon","coordinates":[[[14.52471,50.0567],[14.52326,50.05381],[14.51539,50.05572],[14.51543,50.05428],[14.51564,50.05113],[14.51622,50.05036],[14.52075,50.05103],[14.52104,50.05239],[14.52601,50.05052],[14.53069,50.05224],[14.53272,50.05277],[14.53273,50.05454],[14.52471,50.0567]]]}},{"type":"Feature","properties":{"cislo":15021,"mco":"Praha 15"},"geometry":{"type":"Polygon","coordinates":[[[14.51484,50.06102],[14.51491,50.059],[14.51539,50.05572],[14.52326,50.05381],[14.52471,50.0567],[14.51768,50.06132],[14.51484,50.06102]]]}},{"type":"Feature","properties":{"cislo":15022,"mco":"Praha 15"},"geometry":{"type":"Polygon","coordinates":[[[14.56556,50.04287],[14.56543,50.04082],[14.57153,50.04108],[14.57563,50.04201],[14.56857,50.04637],[14.56556,50.04287]]]}},{"type":"Feature","properties":{"cislo":15023,"mco":"Praha 15"},"geometry":{"type":"Polygon","coordinates":[[[14.55719,50.04992],[14.5564,50.05218],[14.5529,50.05189],[14.55094,50.05454],[14.54892,50.05423],[14.54868,50.04836],[14.54512,50.04744],[14.5473,50.04422],[14.55028,50.04496],[14.55757,50.04366],[14.5576,50.04575],[14.55661,50.04824],[14.56043,50.04921],[14.56091,50.05055],[14.55719,50.04992]]]}}]}