{"type":"FeatureCollection","features":[{"type":"Feature","properties":{"cislo":9001,"mco":"Praha 9"},"geometry":{"type":"Polygon","coordinates":[[[14.48862,50.0983],[14.48759,50.09927],[14.48999,50.10061],[14.48714,50.10089],[14.48217,50.09742],[14.4855,50.09777],[14.48862,50.0983]]]}},{"type":"Feature","properties":{"cislo":9002,"mco":"Praha 9"},"geometry":{"type":"Polygon","coordinates":[[[14.47886,50.0972],[14.47923,50.09665],[14.48217,50.09742],[14.48714,50.10089],[14.48999,50.10061],[14.48759,50.09927],[14.48862,50.0983],[14.49395,50.09896],[14.49493,50.10054],[14.49963,50.10023],[14.49994,50.10123],[14.48853,50.1017],[14.47886,50.0972]]]}},{"type":"Feature","properties":{"cislo":9003,"mco":"Praha 9"},"geometry":{"type":"Polygon","coordinates":[[[14.50358,50.1083],[14.50213,50.10789],[14.50269,50.10577],[14.49777,50.10563],[14.49944,50.10498],[14.49714,50.10215],[14.49994,50.10123],[14.49963,50.10023],[14.49493,50.10054],[14.49395,50.09896],[14.49603,50.09646],[14.50824,50.09769],[14.51351,50.10045],[14.51284,50.10546],[14.51212,50.10547],[14.50408,50.105],[14.50358,50.1083]]]}},{"type":"Feature","properties":{"cislo":9005,"mco":"Praha 9"},"geometry":{"type":"MultiPolygon","coordinates":[[[[14.50358,50.1083],[14.50408,50.105],[14.51212,50.10547],[14.50745,50.106],[14.50972,50.11067],[14.50358,50.1083]]],[[[14.50642,50.10985],[14.5067,50.11048],[14.50644,50.11049],[14.50642,50.10985]]]]}},{"type":"Feature","properties":{"cislo":9006,"mco":"Praha 9"},"geometry":{"type":"Polygon","coordinates":[[[14.50972,50.11067],[14.50745,50.106],[14.51212,50.10547],[14.51284,50.10546],[14.522,50.10768],[14.52949,50.10456],[14.53144,50.10959],[14.53131,50.11007],[14.50972,50.11067]]]}},{"type":"Feature","properties":{"cislo":9008,"mco":"Praha 9"},"geometry":{"type":"Polygon","coordinates":[[[14.52184,50.12625],[14.5185,50.12287],[14.51003,50.12565],[14.50911,50.12368],[14.5086,50.1194],[14.50651,50.11657],[14.50079,50.11617],[14.49687,50.11492],[14.4898,50.11536],[14.48859,50.11413],[14.49231,50.11219],[14.49618,50.11205],[14.50515,50.11261],[14.5164,50.11384],[14.53136,50.11136],[14.52825,50.11354],[14.53119,50.11745],[14.52655,50.118],[14.52764,50.12142],[14.52526,50.12176],[14.52463,50.12604],[14.52184,50.12625]]]}},{"type":"Feature","properties":{"cislo":9009,"mco":"Praha 9"},"geometry":{"type":"Polygon","coordinates":[[[14.5025,50.11118],[14.49634,50.10949],[14.49314,50.10837],[14.49472,50.10638],[14.50269,50.10577],[14.50213,50.10789],[14.5025,50.11118]]]}},{"type":"Feature","properties":{"cislo":9010,"mco":"Praha 9"},"geometry":{"type":"MultiPolygon","coordinates":[[[[14.50515,50.11261],[14.49618,50.11205],[14.49774,50.11034],[14.50257,50.11134],[14.50515,50.11261]]],[[[14.49583,50.11088],[14.49666,50.11084],[14.49663,50.11118],[14.49583,50.11088]]],[[[14.50269,50.10577],[14.49472,50.10638],[14.49333,50.10589],[14.49777,50.10563],[14.50269,50.10577]]]]}},{"type":"Feature","properties":{"cislo":9011,"mco":"Praha 9"},"geometry":{"type":"Polygon","coordinates":[[[14.49231,50.11219],[14.49634,50.10949],[14.5025,50.11118],[14.50257,50.11134],[14.49774,50.11034],[14.49618,50.11205],[14.49231,50.11219]],[[14.49583,50.11088],[14.49663,50.11118],[14.49666,50.11084],[14.49583,50.11088]]]}},{"type":"Feature","properties":{"cislo":9012,"mco":"Praha 9"},"geometry":{"type":"MultiPolygon","coordinates":[[[[14.49314,50.10837],[14.49034,50.10738],[14.49125,50.10516],[14.49472,50.10638],[14.49314,50.10837]]],[[[14.49031,50.10626],[14.49044,50.1061],[14.49067,50.10617],[14.49031,50.10626]]],[[[14.48624,50.10442],[14.48693,50.10418],[14.48653,50.10453],[14.48624,50.10442]]],[[[14.4878,50.10402],[14.4877,50.10415],[14.48733,50.10408],[14.4878,50.10402]]]]}},{"type":"Feature","properties":{"cislo":9013,"mco":"Praha 9"},"geometry":{"type":"MultiPolygon","coordinates":[[[[14.48805,50.10659],[14.48973,50.10462],[14.49125,50.10516],[14.49034,50.10738],[14.48805,50.10659]],[[14.49031,50.10626],[14.49067,50.10617],[14.49044,50.1061],[14.49031,50.10626]]],[[[14.4878,50.10402],[14.48785,50.10452],[14.4877,50.10415],[14.4878,50.10402]]]]}},{"type":"Feature","properties":{"cislo":9014,"mco":"Praha 9"},"geometry":{"type":"MultiPolygon","coordinates":[[[[14.48805,50.10659],[14.48537,50.10567],[14.48736,50.10395],[14.48698,50.10273],[14.48374,50.10221],[14.47856,50.09778],[14.47886,50.0972],[14.48853,50.1017],[14.49994,50.10123],[14.49714,50.10215],[14.49944,50.10498],[14.49777,50.10563],[14.49333,50.10589],[14.48973,50.10462],[14.48805,50.10659]],[[14.4878,50.10402],[14.48733,50.10408],[14.4877,50.10415],[14.48785,50.10452],[14.4878,50.10402]]],[[[14.48925,50.10869],[14.48795,50.10823],[14.48833,50.10733],[14.48925,50.10869]]],[[[14.4834,50.10354],[14.48372,50.10314],[14.48455,50.10318],[14.4834,50.10354]]]]}},{"type":"Feature","properties":{"cislo":9015,"mco":"Praha 9"},"geometry":{"type":"Polygon","coordinates":[[[14.48537,50.10567],[14.48266,50.10474],[14.48075,50.10578],[14.4806,50.10397],[14.48083,50.10158],[14.48374,50.10221],[14.48698,50.10273],[14.48736,50.10395],[14.48537,50.10567]],[[14.48624,50.10442],[14.48653,50.10453],[14.48693,50.10418],[14.48624,50.10442]],[[14.4834,50.10354],[14.48455,50.10318],[14.48372,50.10314],[14.4834,50.10354]]]}},{"type":"Feature","properties":{"cislo":9016,"mco":"Praha 9"},"geometry":{"type":"Polygon","coordinates":[[[14.48122,50.10876],[14.48076,50.10625],[14.48075,50.10578],[14.48266,50.10474],[14.48718,50.1063],[14.48833,50.10733],[14.48795,50.10823],[14.48617,50.10615],[14.48309,50.10638],[14.48285,50.10991],[14.48122,50.10876]]]}},{"type":"Feature","properties":{"cislo":9017,"mco":"Praha 9"},"geometry":{"type":"Polygon","coordinates":[[[14.49314,50.10837],[14.48925,50.10869],[14.48833,50.10733],[14.48718,50.1063],[14.49314,50.10837]]]}},{"type":"Feature","properties":{"cislo":9018,"mco":"Praha 9"},"geometry":{"type":"Polygon","coordinates":[[[14.48285,50.10991],[14.48309,50.10638],[14.48617,50.10615],[14.48795,50.10823],[14.48925,50.10869],[14.49314,50.10837],[14.49634,50.10949],[14.49231,50.11219],[14.48285,50.10991]]]}},{"type":"Feature","properties":{"cislo":9019,"mco":"Praha 9"},"geometry":{"type":"Polygon","coordinates":[[[14.53035,50.09731],[14.51351,50.10045],[14.50824,50.09769],[14.49603,50.09646],[14.49603,50.09577],[14.49621,50.09505],[14.49836,50.09185],[14.50338,50.08974],[14.51338,50.08881],[14.51846,50.08658],[14.53307,50.09061],[14.53322,50.09166],[14.53035,50.09731]]]}},{"type":"Feature","properties":{"cislo":9020,"mco":"Praha 9"},"geometry":{"type":"Polygon","coordinates":[[[14.48122,50.12176],[14.47626,50.11926],[14.47585,50.11741],[14.48275,50.11796],[14.48327,50.11882],[14.48523,50.12088],[14.48591,50.12351],[14.48122,50.12176]]]}},{"type":"Feature","properties":{"cislo":9021,"mco":"Praha 9"},"geometry":{"type":"Polygon","coordinates":[[[14.48514,50.12471],[14.48122,50.12176],[14.48668,50.12381],[14.48613,50.12423],[14.48514,50.12471]]]}},{"type":"Feature","properties":{"cislo":9022,"mco":"Praha 9"},"geometry":{"type":"Polygon","coordinates":[[[14.48613,50.12423],[14.48668,50.12381],[14.48798,50.12387],[14.48861,50.12549],[14.48613,50.12423]]]}},{"type":"Feature","properties":{"cislo":9023,"mco":"Praha 9"},"geometry":{"type":"Polygon","coordinates":[[[14.48574,50.12854],[14.4824,50.12615],[14.48613,50.12423],[14.48861,50.12549],[14.48884,50.12626],[14.48838,50.12679],[14.48574,50.12854]]]}},{"type":"Feature","properties":{"cislo":9024,"mco":"Praha 9"},"geometry":{"type":"Polygon","coordinates":[[[14.49508,50.12681],[14.48838,50.12679],[14.48884,50.12626],[14.49193,50.1239],[14.49516,50.12574],[14.49508,50.12681]]]}},{"type":"Feature","properties":{"cislo":9025,"mco":"Praha 9"},"geometry":{"type":"Polygon","coordinates":[[[14.48711,50.12952],[14.48574,50.12854],[14.48838,50.12679],[14.49508,50.12681],[14.49652,50.12887],[14.49836,50.12856],[14.49795,50.13138],[14.49563,50.13145],[14.48711,50.12952]]]}},{"type":"Feature","properties":{"cislo":9026,"mco":"Praha 9"},"geometry":{"type":"Polygon","coordinates":[[[14.49836,50.12856],[14.49652,50.12887],[14.49508,50.12681],[14.49516,50.12574],[14.49743,50.12705],[14.49794,50.12604],[14.49852,50.12562],[14.50071,50.12665],[14.49836,50.12856]]]}},{"type":"Feature","properties":{"cislo":9027,"mco":"Praha 9"},"geometry":{"type":"Polygon","coordinates":[[[14.49852,50.12562],[14.49794,50.12604],[14.49618,50.12434],[14.49852,50.12562]]]}},{"type":"Feature","properties":{"cislo":9028,"mco":"Praha 9"},"geometry":{"type":"Polygon","coordinates":[[[14.49516,50.12574],[14.49193,50.1239],[14.49403,50.12228],[14.49626,50.12301],[14.49618,50.12434],[14.49794,50.12604],[14.49743,50.12705],[14.49516,50.12574]]]}},{"type":"Feature","properties":{"cislo":9029,"mco":"Praha 9"},"geometry":{"type":"Polygon","coordinates":[[[14.48884,50.12626],[14.48861,50.12549],[14.48798,50.12387],[14.48995,50.12352],[14.49123,50.12443],[14.48884,50.12626]]]}},{"type":"Feature","properties":{"cislo":9030,"mco":"Praha 9"},"geometry":{"type":"Polygon","coordinates":[[[14.48798,50.12387],[14.48668,50.12381],[14.48591,50.12351],[14.48523,50.12088],[14.48843,50.12105],[14.48796,50.12192],[14.49037,50.1232],[14.48995,50.12352],[14.48798,50.12387]]]}},{"type":"Feature","properties":{"cislo":9031,"mco":"Praha 9"},"geometry":{"type":"Polygon","coordinates":[[[14.49037,50.1232],[14.48796,50.12192],[14.48846,50.12157],[14.49104,50.12327],[14.49302,50.12179],[14.49381,50.12245],[14.49193,50.1239],[14.49037,50.1232]]]}},{"type":"Feature","properties":{"cislo":9032,"mco":"Praha 9"},"geometry":{"type":"MultiPolygon","coordinates":[[[[14.48327,50.11882],[14.48949,50.11896],[14.48843,50.12105],[14.48523,50.12088],[14.48327,50.11882]]],[[[14.48846,50.12157],[14.49071,50.12026],[14.49326,50.12161],[14.49104,50.12327],[14.48846,50.12157]]]]}},{"type":"Feature","properties":{"cislo":9033,"mco":"Praha 9"},"geometry":{"type":"MultiPolygon","coordinates":[[[[14.48796,50.12192],[14.48949,50.11896],[14.4927,50.11834],[14.49506,50.12043],[14.49326,50.12161],[14.49071,50.12026],[14.48846,50.12157],[14.48796,50.12192]]],[[[14.49609,50.11962],[14.49702,50.12012],[14.4964,50.12063],[14.49609,50.11962]]]]}},{"type":"Feature","properties":{"cislo":9034,"mco":"Praha 9"},"geometry":{"type":"Polygon","coordinates":[[[14.49403,50.12228],[14.49381,50.12245],[14.49302,50.12179],[14.49506,50.12043],[14.4927,50.11834],[14.49609,50.11962],[14.4964,50.12063],[14.49403,50.12228]]]}},{"type":"Feature","properties":{"cislo":9035,"mco":"Praha 9"},"geometry":{"type":"MultiPolygon","coordinates":[[[[14.49914,50.11853],[14.49702,50.12012],[14.49609,50.11962],[14.4927,50.11834],[14.48949,50.11896],[14.48327,50.11882],[14.48275,50.11796],[14.4898,50.11536],[14.49687,50.11492],[14.50079,50.11617],[14.49914,50.11853]]],[[[14.49123,50.12443],[14.48995,50.12352],[14.49037,50.1232],[14.49193,50.1239],[14.49123,50.12443]]]]}},{"type":"Feature","properties":{"cislo":9036,"mco":"Praha 9"},"geometry":{"type":"Polygon","coordinates":[[[14.49968,50.12229],[14.4982,50.12325],[14.49626,50.12301],[14.49403,50.12228],[14.4964,50.12063],[14.49921,50.12186],[14.50082,50.12023],[14.50187,50.12082],[14.49968,50.12229]]]}},{"type":"Feature","properties":{"cislo":9037,"mco":"Praha 9"},"geometry":{"type":"Polygon","coordinates":[[[14.49852,50.12562],[14.49618,50.12434],[14.49626,50.12301],[14.4982,50.12325],[14.50144,50.1249],[14.50233,50.12615],[14.50161,50.12671],[14.50071,50.12665],[14.49852,50.12562]]]}},{"type":"Feature","properties":{"cislo":9038,"mco":"Praha 9"},"geometry":{"type":"Polygon","coordinates":[[[14.50313,50.12439],[14.49968,50.12229],[14.50187,50.12082],[14.5036,50.12184],[14.50573,50.12336],[14.50398,50.12484],[14.50655,50.12322],[14.50548,50.12187],[14.50736,50.12287],[14.50458,50.12555],[14.50313,50.12439]]]}},{"type":"Feature","properties":{"cislo":9039,"mco":"Praha 9"},"geometry":{"type":"MultiPolygon","coordinates":[[[[14.50082,50.12023],[14.49921,50.12186],[14.4964,50.12063],[14.49914,50.11853],[14.50121,50.11965],[14.50082,50.12023]]],[[[14.50144,50.1249],[14.4982,50.12325],[14.49968,50.12229],[14.50313,50.12439],[14.50144,50.1249]]]]}},{"type":"Feature","properties":{"cislo":9040,"mco":"Praha 9"},"geometry":{"type":"MultiPolygon","coordinates":[[[[14.50736,50.12287],[14.50437,50.12128],[14.5036,50.12184],[14.50082,50.12023],[14.50121,50.11965],[14.5086,50.1194],[14.50911,50.12368],[14.50736,50.12287]]],[[[14.50458,50.12555],[14.50233,50.12615],[14.50144,50.1249],[14.50313,50.12439],[14.50458,50.12555]]]]}},{"type":"Feature","properties":{"cislo":9041,"mco":"Praha 9"},"geometry":{"type":"Polygon","coordinates":[[[14.50548,50.12187],[14.50655,50.12322],[14.50398,50.12484],[14.50573,50.12336],[14.5036,50.12184],[14.50437,50.12128],[14.50548,50.12187]]]}},{"type":"Feature","properties":{"cislo":9042,"mco":"Praha 9"},"geometry":{"type":"Polygon","coordinates":[[[14.50748,50.12714],[14.50161,50.12671],[14.50233,50.12615],[14.50458,50.12555],[14.50736,50.12287],[14.50911,50.12368],[14.51003,50.12565],[14.50748,50.12714]]]}},{"type":"Feature","properties":{"cislo":9043,"mco":"Praha 9"},"geometry":{"type":"Polygon","coordinates":[[[14.49914,50.11853],[14.50079,50.11617],[14.50651,50.11657],[14.5086,50.1194],[14.50121,50.11965],[14.49914,50.11853]]]}},{"type":"Feature","properties":{"cislo":9004,"mco":"Praha 9"},"geometry":{"type":"Polygon","coordinates":[[[14.52949,50.10456],[14.522,50.10768],[14.51284,50.10546],[14.51351,50.10045],[14.53035,50.09731],[14.53116,50.09946],[14.53322,50.10204],[14.53133,50.10477],[14.52949,50.10456]]]}},{"type":"Feature","properties":{"cislo":9007,"mco":"Praha 9"},"geometry":{"type":"Polygon","coordinates":[[[14.53136,50.11136],[14.5164,50.11384],[14.50515,50.11261],[14.50257,50.11134],[14.5025,50.11118],[14.50213,50.10789],[14.50358,50.1083],[14.50972,50.11067],[14.53131,50.11007],[14.53115,50.11063],[14.53136,50.11136]],[[14.50642,50.10985],[14.50644,50.11049],[14.5067,50.11048],[14.50642,50.10985]]]}}]}