{"type":"FeatureCollection","features":[{"type":"Feature","properties":{"cislo":44001,"mco":"Praha-Petrovice"},"geometry":{"type":"Polygon","coordinates":[[[14.55735,50.04025],[14.55085,50.0382],[14.54746,50.0359],[14.54362,50.03626],[14.54234,50.03344],[14.54533,50.03042],[14.54962,50.02951],[14.54886,50.0285],[14.54935,50.02759],[14.55159,50.03033],[14.55621,50.02905],[14.56047,50.03106],[14.55808,50.03196],[14.56354,50.03351],[14.56232,50.03678],[14.56098,50.03945],[14.55735,50.04025]]]}},{"type":"Feature","properties":{"cislo":44002,"mco":"Praha-Petrovice"},"geometry":{"type":"Polygon","coordinates":[[[14.55785,50.04028],[14.55735,50.04025],[14.56098,50.03945],[14.56232,50.03678],[14.56397,50.03782],[14.56364,50.03826],[14.56094,50.04],[14.55785,50.04028]]]}},{"type":"Feature","properties":{"cislo":44003,"mco":"Praha-Petrovice"},"geometry":{"type":"Polygon","coordinates":[[[14.56923,50.03815],[14.56741,50.03878],[14.56637,50.03701],[14.56397,50.03782],[14.56232,50.03678],[14.56354,50.03351],[14.56551,50.03588],[14.57202,50.03669],[14.56923,50.03815]]]}},{"type":"Feature","properties":{"cislo":44004,"mco":"Praha-Petrovice"},"geometry":{"type":"Polygon","coordinates":[[[14.57202,50.03669],[14.56551,50.03588],[14.56354,50.03351],[14.55808,50.03196],[14.56047,50.03106],[14.57162,50.0321],[14.57577,50.03418],[14.57202,50.03669]]]}}]}