{"type":"FeatureCollection","features":[{"type":"Feature","properties":{"cislo":35001,"mco":"Praha-Královice"},"geometry":{"type":"Polygon","coordinates":[[[14.64029,50.04848],[14.63158,50.04632],[14.62746,50.04423],[14.62758,50.04137],[14.626,50.04226],[14.6222,50.041],[14.62235,50.03965],[14.62302,50.03802],[14.62485,50.0385],[14.62466,50.03646],[14.62901,50.03547],[14.63093,50.02668],[14.63593,50.0271],[14.63664,50.02607],[14.64339,50.02678],[14.64588,50.02869],[14.65124,50.02632],[14.66142,50.02583],[14.6562,50.03103],[14.65703,50.03789],[14.66692,50.0386],[14.65394,50.04932],[14.64411,50.04225],[14.64029,50.04848]]]}}]}