{"type":"FeatureCollection","features":[{"type":"Feature","properties":{"cislo":21001,"mco":"Praha 21"},"geometry":{"type":"Polygon","coordinates":[[[14.65886,50.08678],[14.63683,50.08503],[14.63453,50.08262],[14.63506,50.08009],[14.64776,50.07852],[14.64902,50.0817],[14.65579,50.08067],[14.65886,50.08678]]]}},{"type":"Feature","properties":{"cislo":21002,"mco":"Praha 21"},"geometry":{"type":"Polygon","coordinates":[[[14.65579,50.08067],[14.64902,50.0817],[14.64776,50.07852],[14.64078,50.07939],[14.64192,50.0741],[14.63941,50.07255],[14.64335,50.07122],[14.64671,50.07659],[14.65382,50.07412],[14.65561,50.07718],[14.65579,50.08067]]]}},{"type":"Feature","properties":{"cislo":21003,"mco":"Praha 21"},"geometry":{"type":"Polygon","coordinates":[[[14.65579,50.08067],[14.65561,50.07718],[14.66105,50.07617],[14.65981,50.07182],[14.66599,50.07074],[14.66514,50.07543],[14.67028,50.08751],[14.66531,50.08727],[14.65886,50.08678],[14.65579,50.08067]]]}},{"type":"Feature","properties":{"cislo":21004,"mco":"Praha 21"},"geometry":{"type":"Polygon","coordinates":[[[14.68979,50.09609],[14.68587,50.08543],[14.67028,50.08751],[14.66514,50.07543],[14.68064,50.07313],[14.69093,50.07209],[14.6967,50.07203],[14.70006,50.0722],[14.70686,50.08709],[14.70399,50.09181],[14.68979,50.09609]]]}},{"type":"Feature","properties":{"cislo":21005,"mco":"Praha 21"},"geometry":{"type":"Polygon","coordinates":[[[14.64335,50.07122],[14.65038,50.07014],[14.66069,50.06281],[14.66675,50.06388],[14.66599,50.07074],[14.65981,50.07182],[14.66105,50.07617],[14.65561,50.07718],[14.65382,50.07412],[14.64671,50.07659],[14.64335,50.07122]]]}},{"type":"Feature","properties":{"cislo":21006,"mco":"Praha 21"},"geometry":{"type":"Polygon","coordinates":[[[14.66514,50.07543],[14.66599,50.07074],[14.66675,50.06388],[14.67071,50.06595],[14.67961,50.0723],[14.68064,50.07313],[14.66514,50.07543]]]}},{"type":"Feature","properties":{"cislo":21007,"mco":"Praha 21"},"geometry":{"type":"Polygon","coordinates":[[[14.67961,50.0723],[14.67071,50.06595],[14.6812,50.06916],[14.67961,50.0723]]]}},{"type":"Feature","properties":{"cislo":21008,"mco":"Praha 21"},"geometry":{"type":"Polygon","coordinates":[[[14.67961,50.0723],[14.6812,50.06916],[14.68921,50.07125],[14.69093,50.07209],[14.68064,50.07313],[14.67961,50.0723]]]}}]}