{"type":"FeatureCollection","features":[{"type":"Feature","properties":{"cislo":27001,"mco":"Praha-Ďáblice"},"geometry":{"type":"Polygon","coordinates":[[[14.47986,50.13977],[14.47854,50.14271],[14.48303,50.14807],[14.46706,50.15234],[14.46794,50.14439],[14.46292,50.14313],[14.45607,50.14096],[14.4565,50.1371],[14.46145,50.13281],[14.4705,50.13567],[14.4743,50.1371],[14.4733,50.13826],[14.47682,50.14036],[14.47986,50.13977]]]}},{"type":"Feature","properties":{"cislo":27002,"mco":"Praha-Ďáblice"},"geometry":{"type":"Polygon","coordinates":[[[14.50245,50.16409],[14.49955,50.16444],[14.49582,50.16209],[14.48915,50.164],[14.48887,50.16162],[14.46968,50.16064],[14.46892,50.15357],[14.46709,50.15358],[14.46706,50.15234],[14.48303,50.14807],[14.47854,50.14271],[14.47986,50.13977],[14.47863,50.13831],[14.48748,50.13828],[14.4888,50.13542],[14.49471,50.13616],[14.49775,50.13645],[14.4971,50.14063],[14.49656,50.14241],[14.50437,50.14248],[14.50437,50.14447],[14.49718,50.14879],[14.50465,50.15328],[14.50361,50.15551],[14.5065,50.15581],[14.50562,50.15875],[14.50281,50.15928],[14.50245,50.16409]]]}}]}