{"type":"FeatureCollection","features":[{"type":"Feature","properties":{"cislo":54001,"mco":"Praha-Velká Chuchle"},"geometry":{"type":"Polygon","coordinates":[[[14.38956,50.01669],[14.3887,50.01149],[14.37659,50.007],[14.36917,50.00647],[14.36857,50.00463],[14.37175,50.00289],[14.3691,50.00018],[14.37605,49.99508],[14.37628,49.99497],[14.38115,50.00064],[14.38643,49.99888],[14.38964,50.00228],[14.39644,50.0023],[14.39789,50.00349],[14.39564,50.00444],[14.39603,50.00612],[14.3987,50.00622],[14.39688,50.00864],[14.39843,50.00897],[14.3963,50.01648],[14.38956,50.01669]]]}},{"type":"Feature","properties":{"cislo":54002,"mco":"Praha-Velká Chuchle"},"geometry":{"type":"Polygon","coordinates":[[[14.37637,50.0238],[14.37163,50.02144],[14.37349,50.02007],[14.36869,50.01746],[14.36695,50.00725],[14.36905,50.00756],[14.36917,50.00647],[14.37659,50.007],[14.3887,50.01149],[14.38956,50.01669],[14.39077,50.01857],[14.38418,50.01857],[14.38226,50.02293],[14.37911,50.02481],[14.37637,50.0238]]]}},{"type":"Feature","properties":{"cislo":54003,"mco":"Praha-Velká Chuchle"},"geometry":{"type":"Polygon","coordinates":[[[14.37923,50.02913],[14.37449,50.02708],[14.37637,50.0238],[14.37911,50.02481],[14.38226,50.02293],[14.38418,50.01857],[14.39077,50.01857],[14.38956,50.01669],[14.3963,50.01648],[14.39594,50.01893],[14.39799,50.02853],[14.40006,50.03104],[14.38989,50.02704],[14.38256,50.02669],[14.37923,50.02913]]]}}]}