{"type":"FeatureCollection","features":[{"type":"Feature","properties":{"cislo":55001,"mco":"Praha-Vinoř"},"geometry":{"type":"Polygon","coordinates":[[[14.56056,50.15544],[14.54438,50.14905],[14.54598,50.14725],[14.54677,50.14503],[14.55581,50.14389],[14.55872,50.14384],[14.56166,50.13326],[14.56728,50.1359],[14.5677,50.1341],[14.57492,50.13617],[14.57605,50.13462],[14.58364,50.13331],[14.58415,50.13004],[14.5875,50.1309],[14.59001,50.12856],[14.598,50.12786],[14.59829,50.12939],[14.60095,50.12938],[14.58981,50.13974],[14.59143,50.14276],[14.58808,50.14447],[14.58836,50.14705],[14.59298,50.14847],[14.59913,50.15397],[14.5894,50.15437],[14.58443,50.15371],[14.57861,50.15027],[14.5784,50.15089],[14.57612,50.15046],[14.56886,50.15011],[14.56623,50.15172],[14.56331,50.15024],[14.56056,50.15544]],[[14.57842,50.1439],[14.57752,50.14112],[14.57488,50.14022],[14.57421,50.14124],[14.57472,50.13978],[14.56199,50.13371],[14.55896,50.14396],[14.54697,50.14511],[14.54583,50.14796],[14.54495,50.14901],[14.56043,50.15519],[14.56318,50.1501],[14.56631,50.15152],[14.56878,50.15003],[14.57373,50.14995],[14.5782,50.15076],[14.57851,50.15023],[14.58114,50.14899],[14.58595,50.15117],[14.58721,50.1494],[14.57842,50.1439]]]}},{"type":"Feature","properties":{"cislo":55002,"mco":"Praha-Vinoř"},"geometry":{"type":"Polygon","coordinates":[[[14.56878,50.15003],[14.5692,50.14678],[14.57842,50.1439],[14.58721,50.1494],[14.58595,50.15117],[14.58114,50.14899],[14.57851,50.15023],[14.5782,50.15076],[14.57373,50.14995],[14.56878,50.15003]]]}},{"type":"Feature","properties":{"cislo":55003,"mco":"Praha-Vinoř"},"geometry":{"type":"Polygon","coordinates":[[[14.56878,50.15003],[14.56631,50.15152],[14.56318,50.1501],[14.56043,50.15519],[14.54495,50.14901],[14.54583,50.14796],[14.54697,50.14511],[14.55896,50.14396],[14.56199,50.13371],[14.57472,50.13978],[14.57421,50.14124],[14.57488,50.14022],[14.57752,50.14112],[14.57842,50.1439],[14.5692,50.14678],[14.56878,50.15003]]]}}]}