{"type":"FeatureCollection","features":[{"type":"Feature","properties":{"cislo":13001,"mco":"Praha 13"},"geometry":{"type":"Polygon","coordinates":[[[14.33025,50.0467],[14.33068,50.04493],[14.32949,50.04639],[14.32615,50.04558],[14.32668,50.04385],[14.32952,50.04419],[14.33021,50.04434],[14.33156,50.04581],[14.33308,50.04463],[14.3331,50.04655],[14.33025,50.0467]]]}},{"type":"Feature","properties":{"cislo":13002,"mco":"Praha 13"},"geometry":{"type":"Polygon","coordinates":[[[14.32242,50.04719],[14.32254,50.04649],[14.32548,50.04672],[14.33025,50.0467],[14.3331,50.04655],[14.33308,50.04463],[14.33465,50.04524],[14.33828,50.04647],[14.33869,50.0468],[14.33721,50.04726],[14.32242,50.04719]]]}},{"type":"Feature","properties":{"cislo":13003,"mco":"Praha 13"},"geometry":{"type":"Polygon","coordinates":[[[14.33465,50.04524],[14.33678,50.04356],[14.33882,50.04526],[14.33828,50.04647],[14.33465,50.04524]]]}},{"type":"Feature","properties":{"cislo":13004,"mco":"Praha 13"},"geometry":{"type":"Polygon","coordinates":[[[14.33309,50.04463],[14.33288,50.04407],[14.33555,50.04257],[14.33678,50.04356],[14.33465,50.04524],[14.33309,50.04463]]]}},{"type":"Feature","properties":{"cislo":13005,"mco":"Praha 13"},"geometry":{"type":"Polygon","coordinates":[[[14.33288,50.04407],[14.33146,50.04305],[14.33099,50.04301],[14.3317,50.04127],[14.33194,50.04081],[14.33555,50.04257],[14.33288,50.04407]]]}},{"type":"Feature","properties":{"cislo":13006,"mco":"Praha 13"},"geometry":{"type":"Polygon","coordinates":[[[14.32772,50.044],[14.32768,50.04268],[14.32998,50.04226],[14.32896,50.04118],[14.3317,50.04127],[14.33099,50.04301],[14.32805,50.04337],[14.33146,50.04305],[14.33288,50.04407],[14.33309,50.04463],[14.33156,50.04581],[14.33021,50.04434],[14.32952,50.04419],[14.32772,50.044]]]}},{"type":"Feature","properties":{"cislo":13007,"mco":"Praha 13"},"geometry":{"type":"Polygon","coordinates":[[[14.33146,50.04305],[14.32805,50.04337],[14.33099,50.04301],[14.33146,50.04305]]]}},{"type":"Feature","properties":{"cislo":13008,"mco":"Praha 13"},"geometry":{"type":"Polygon","coordinates":[[[14.32772,50.044],[14.32668,50.04385],[14.32617,50.04348],[14.32732,50.0416],[14.32716,50.0405],[14.32365,50.04064],[14.32381,50.03991],[14.32582,50.03841],[14.33194,50.04081],[14.3317,50.04127],[14.32896,50.04118],[14.32998,50.04226],[14.32768,50.04268],[14.32772,50.044]]]}},{"type":"Feature","properties":{"cislo":13009,"mco":"Praha 13"},"geometry":{"type":"Polygon","coordinates":[[[14.31793,50.04764],[14.31555,50.04476],[14.31494,50.04378],[14.31593,50.04334],[14.31843,50.04486],[14.31688,50.04529],[14.31837,50.0462],[14.32169,50.04431],[14.32273,50.04477],[14.32254,50.04649],[14.31974,50.04725],[14.31794,50.04786],[14.31793,50.04764]]]}},{"type":"Feature","properties":{"cislo":13010,"mco":"Praha 13"},"geometry":{"type":"Polygon","coordinates":[[[14.31843,50.04486],[14.3203,50.04468],[14.32065,50.0449],[14.31837,50.0462],[14.31688,50.04529],[14.31843,50.04486]]]}},{"type":"Feature","properties":{"cislo":13011,"mco":"Praha 13"},"geometry":{"type":"Polygon","coordinates":[[[14.32273,50.04477],[14.32169,50.04431],[14.32128,50.04351],[14.32465,50.04419],[14.32273,50.04477]]]}},{"type":"Feature","properties":{"cislo":13012,"mco":"Praha 13"},"geometry":{"type":"Polygon","coordinates":[[[14.32124,50.04347],[14.32085,50.04319],[14.32432,50.04138],[14.32577,50.04296],[14.32124,50.04347]]]}},{"type":"Feature","properties":{"cislo":13013,"mco":"Praha 13"},"geometry":{"type":"Polygon","coordinates":[[[14.32128,50.04351],[14.32124,50.04347],[14.32577,50.04296],[14.32432,50.04138],[14.32732,50.0416],[14.32617,50.04348],[14.32465,50.04419],[14.32128,50.04351]]]}},{"type":"Feature","properties":{"cislo":13014,"mco":"Praha 13"},"geometry":{"type":"Polygon","coordinates":[[[14.33823,50.0393],[14.33925,50.03903],[14.34029,50.03954],[14.34155,50.03895],[14.3418,50.03779],[14.34248,50.03974],[14.33986,50.03967],[14.33823,50.0393]]]}},{"type":"Feature","properties":{"cislo":13015,"mco":"Praha 13"},"geometry":{"type":"Polygon","coordinates":[[[14.35243,50.04862],[14.34565,50.04615],[14.34496,50.0461],[14.34351,50.04242],[14.34784,50.04241],[14.34693,50.03975],[14.34212,50.03996],[14.33596,50.03939],[14.33823,50.0393],[14.33986,50.03967],[14.34248,50.03974],[14.3418,50.03779],[14.342,50.03674],[14.34103,50.03604],[14.33981,50.03563],[14.34599,50.03764],[14.34833,50.03421],[14.35301,50.03559],[14.35183,50.03941],[14.35551,50.04253],[14.35325,50.04304],[14.35243,50.04862]]]}},{"type":"Feature","properties":{"cislo":13016,"mco":"Praha 13"},"geometry":{"type":"Polygon","coordinates":[[[14.34387,50.04604],[14.33882,50.04526],[14.33555,50.04257],[14.33194,50.04081],[14.32942,50.03979],[14.33071,50.03805],[14.33526,50.03768],[14.33487,50.03941],[14.33589,50.04196],[14.33546,50.03996],[14.34224,50.04045],[14.34693,50.03975],[14.34784,50.04241],[14.34351,50.04242],[14.34496,50.0461],[14.34387,50.04604]]]}},{"type":"Feature","properties":{"cislo":13017,"mco":"Praha 13"},"geometry":{"type":"Polygon","coordinates":[[[14.34171,50.03819],[14.34155,50.03895],[14.33936,50.03877],[14.34059,50.03811],[14.34171,50.03819]]]}},{"type":"Feature","properties":{"cislo":13018,"mco":"Praha 13"},"geometry":{"type":"MultiPolygon","coordinates":[[[[14.33983,50.03654],[14.33769,50.03572],[14.33981,50.03563],[14.34103,50.03604],[14.33983,50.03654]]],[[[14.34042,50.03888],[14.34155,50.03895],[14.34029,50.03954],[14.34042,50.03888]]],[[[14.34171,50.03819],[14.34059,50.03811],[14.34074,50.03745],[14.34185,50.03756],[14.34171,50.03819]]]]}},{"type":"Feature","properties":{"cislo":13019,"mco":"Praha 13"},"geometry":{"type":"MultiPolygon","coordinates":[[[[14.33789,50.03721],[14.33856,50.03698],[14.34014,50.03739],[14.3406,50.03806],[14.34059,50.03811],[14.33936,50.03877],[14.33907,50.03873],[14.33789,50.03721]]],[[[14.33769,50.03572],[14.33983,50.03654],[14.33756,50.03633],[14.33769,50.03572]]]]}},{"type":"Feature","properties":{"cislo":13020,"mco":"Praha 13"},"geometry":{"type":"Polygon","coordinates":[[[14.34185,50.03756],[14.34014,50.03739],[14.33856,50.03698],[14.342,50.03674],[14.34185,50.03756]]]}},{"type":"Feature","properties":{"cislo":13021,"mco":"Praha 13"},"geometry":{"type":"Polygon","coordinates":[[[14.33596,50.03939],[14.33564,50.03751],[14.33662,50.0377],[14.33789,50.03721],[14.33907,50.03873],[14.33925,50.03903],[14.33823,50.0393],[14.33596,50.03939]]]}},{"type":"Feature","properties":{"cislo":13022,"mco":"Praha 13"},"geometry":{"type":"Polygon","coordinates":[[[14.33756,50.03633],[14.33983,50.03654],[14.34103,50.03604],[14.342,50.03674],[14.33856,50.03698],[14.33662,50.0377],[14.33756,50.03633]]]}},{"type":"Feature","properties":{"cislo":13023,"mco":"Praha 13"},"geometry":{"type":"Polygon","coordinates":[[[14.34914,50.04986],[14.34679,50.04965],[14.34663,50.04889],[14.345,50.04683],[14.3438,50.04907],[14.34387,50.04604],[14.34565,50.04615],[14.34914,50.04986]]]}},{"type":"Feature","properties":{"cislo":13024,"mco":"Praha 13"},"geometry":{"type":"Polygon","coordinates":[[[14.35304,50.04914],[14.34914,50.04986],[14.34565,50.04615],[14.35243,50.04862],[14.35304,50.04914]]]}},{"type":"Feature","properties":{"cislo":13025,"mco":"Praha 13"},"geometry":{"type":"Polygon","coordinates":[[[14.34663,50.04889],[14.34514,50.04936],[14.34208,50.04897],[14.34153,50.04826],[14.3438,50.04907],[14.345,50.04683],[14.34663,50.04889]]]}},{"type":"Feature","properties":{"cislo":13026,"mco":"Praha 13"},"geometry":{"type":"Polygon","coordinates":[[[14.34102,50.04998],[14.34012,50.04962],[14.33869,50.0468],[14.33828,50.04647],[14.33882,50.04526],[14.34387,50.04604],[14.3438,50.04907],[14.34153,50.04826],[14.34208,50.04897],[14.34514,50.04936],[14.34663,50.04889],[14.34679,50.04965],[14.34588,50.05037],[14.34392,50.05026],[14.34102,50.04998]]]}},{"type":"Feature","properties":{"cislo":13027,"mco":"Praha 13"},"geometry":{"type":"Polygon","coordinates":[[[14.34654,50.05347],[14.34689,50.0519],[14.34813,50.05194],[14.3535,50.05262],[14.33957,50.05697],[14.33821,50.05711],[14.34038,50.05467],[14.345,50.05482],[14.34654,50.05347]]]}},{"type":"Feature","properties":{"cislo":13028,"mco":"Praha 13"},"geometry":{"type":"Polygon","coordinates":[[[14.34813,50.05194],[14.34042,50.05091],[14.34012,50.04962],[14.34102,50.04998],[14.34485,50.05111],[14.34679,50.04965],[14.34914,50.04986],[14.35304,50.04914],[14.35522,50.05156],[14.3535,50.05262],[14.34813,50.05194]]]}},{"type":"Feature","properties":{"cislo":13029,"mco":"Praha 13"},"geometry":{"type":"Polygon","coordinates":[[[14.34253,50.05381],[14.34251,50.05267],[14.34145,50.05386],[14.33996,50.05262],[14.34268,50.05259],[14.34513,50.05335],[14.34253,50.05381]]]}},{"type":"Feature","properties":{"cislo":13030,"mco":"Praha 13"},"geometry":{"type":"Polygon","coordinates":[[[14.34145,50.05386],[14.3372,50.05296],[14.33996,50.05262],[14.34145,50.05386]]]}},{"type":"Feature","properties":{"cislo":13031,"mco":"Praha 13"},"geometry":{"type":"Polygon","coordinates":[[[14.31593,50.04334],[14.31855,50.04099],[14.32381,50.03991],[14.32365,50.04064],[14.32043,50.04191],[14.32085,50.04319],[14.32128,50.04351],[14.32169,50.04431],[14.32065,50.0449],[14.3203,50.04468],[14.31843,50.04486],[14.31593,50.04334]]]}},{"type":"Feature","properties":{"cislo":13032,"mco":"Praha 13"},"geometry":{"type":"Polygon","coordinates":[[[14.32085,50.04319],[14.32043,50.04191],[14.32365,50.04064],[14.32716,50.0405],[14.32732,50.0416],[14.32432,50.04138],[14.32085,50.04319]]]}},{"type":"Feature","properties":{"cislo":13033,"mco":"Praha 13"},"geometry":{"type":"Polygon","coordinates":[[[14.31743,50.05724],[14.3139,50.05435],[14.31186,50.0546],[14.31332,50.05374],[14.31067,50.0515],[14.31508,50.0526],[14.31778,50.05041],[14.31991,50.05142],[14.31683,50.05168],[14.31681,50.05314],[14.3282,50.05499],[14.33061,50.05586],[14.32833,50.05629],[14.32411,50.05499],[14.3235,50.05769],[14.3186,50.05817],[14.31743,50.05724]]]}},{"type":"Feature","properties":{"cislo":13034,"mco":"Praha 13"},"geometry":{"type":"Polygon","coordinates":[[[14.31395,50.04896],[14.31097,50.04857],[14.31387,50.04966],[14.31505,50.05235],[14.31031,50.05096],[14.31071,50.04968],[14.30469,50.05138],[14.30399,50.05069],[14.30448,50.04908],[14.30863,50.04845],[14.31034,50.04967],[14.30931,50.04798],[14.31564,50.04786],[14.31395,50.04896]]]}},{"type":"Feature","properties":{"cislo":13035,"mco":"Praha 13"},"geometry":{"type":"Polygon","coordinates":[[[14.30863,50.04845],[14.30882,50.04745],[14.31189,50.0476],[14.30812,50.04674],[14.30868,50.04541],[14.31036,50.04593],[14.31284,50.04591],[14.31318,50.04761],[14.31754,50.0476],[14.31395,50.04896],[14.31564,50.04786],[14.30931,50.04798],[14.31034,50.04967],[14.30863,50.04845]]]}},{"type":"Feature","properties":{"cislo":13036,"mco":"Praha 13"},"geometry":{"type":"Polygon","coordinates":[[[14.30722,50.04413],[14.30802,50.04536],[14.30754,50.04743],[14.30882,50.04745],[14.30863,50.04845],[14.30448,50.04908],[14.30399,50.05069],[14.30064,50.05051],[14.3013,50.04793],[14.29797,50.04753],[14.30123,50.04642],[14.30119,50.04478],[14.30722,50.04413]]]}},{"type":"Feature","properties":{"cislo":13037,"mco":"Praha 13"},"geometry":{"type":"Polygon","coordinates":[[[14.31284,50.04591],[14.31036,50.04593],[14.31397,50.04518],[14.31284,50.04591]]]}},{"type":"Feature","properties":{"cislo":13038,"mco":"Praha 13"},"geometry":{"type":"Polygon","coordinates":[[[14.31754,50.0476],[14.31318,50.04761],[14.31284,50.04591],[14.31397,50.04518],[14.31555,50.04476],[14.31793,50.04764],[14.31754,50.0476]]]}},{"type":"Feature","properties":{"cislo":13039,"mco":"Praha 13"},"geometry":{"type":"Polygon","coordinates":[[[14.33511,50.0604],[14.32833,50.05629],[14.33061,50.05586],[14.3282,50.05499],[14.32498,50.05401],[14.32439,50.05089],[14.32599,50.05178],[14.32665,50.05225],[14.32847,50.0523],[14.32907,50.05357],[14.33821,50.05711],[14.33957,50.05697],[14.33947,50.05885],[14.33542,50.06037],[14.33511,50.0604]]]}},{"type":"Feature","properties":{"cislo":13040,"mco":"Praha 13"},"geometry":{"type":"Polygon","coordinates":[[[14.31743,50.05724],[14.31646,50.06225],[14.30927,50.06162],[14.30466,50.05889],[14.30477,50.05738],[14.29722,50.05506],[14.29833,50.05237],[14.30042,50.05302],[14.30469,50.05138],[14.31071,50.04968],[14.31031,50.05096],[14.31505,50.05235],[14.31387,50.04966],[14.31097,50.04857],[14.31395,50.04896],[14.31754,50.0476],[14.31793,50.04764],[14.31794,50.04786],[14.31991,50.05008],[14.32544,50.05066],[14.32659,50.05206],[14.32879,50.0512],[14.32847,50.0523],[14.32665,50.05225],[14.32599,50.05178],[14.32439,50.05089],[14.32498,50.05401],[14.3282,50.05499],[14.31681,50.05314],[14.31683,50.05168],[14.31991,50.05142],[14.31778,50.05041],[14.31508,50.0526],[14.31067,50.0515],[14.31332,50.05374],[14.31186,50.0546],[14.3139,50.05435],[14.31743,50.05724]]]}},{"type":"Feature","properties":{"cislo":13041,"mco":"Praha 13"},"geometry":{"type":"Polygon","coordinates":[[[14.31794,50.04786],[14.31974,50.04725],[14.32242,50.04719],[14.33721,50.04726],[14.33388,50.05205],[14.32879,50.0512],[14.32659,50.05206],[14.32544,50.05066],[14.31991,50.05008],[14.31794,50.04786]],[[14.32104,50.04946],[14.33224,50.04963],[14.32988,50.04856],[14.32104,50.04946]]]}},{"type":"Feature","properties":{"cislo":13042,"mco":"Praha 13"},"geometry":{"type":"Polygon","coordinates":[[[14.29833,50.05237],[14.27598,50.04941],[14.27271,50.05069],[14.26833,50.04922],[14.27111,50.04701],[14.26871,50.04342],[14.27013,50.04027],[14.27421,50.0358],[14.28213,50.03197],[14.28892,50.03633],[14.30073,50.03898],[14.30722,50.04413],[14.30119,50.04478],[14.30123,50.04642],[14.29797,50.04753],[14.3013,50.04793],[14.30064,50.05051],[14.30399,50.05069],[14.30469,50.05138],[14.30042,50.05302],[14.29833,50.05237]]]}},{"type":"Feature","properties":{"cislo":13043,"mco":"Praha 13"},"geometry":{"type":"Polygon","coordinates":[[[14.32232,50.06522],[14.31876,50.06476],[14.30998,50.06189],[14.30451,50.06093],[14.30466,50.05889],[14.30927,50.06162],[14.31646,50.06225],[14.31743,50.05724],[14.3186,50.05817],[14.32846,50.06248],[14.3251,50.0628],[14.32232,50.06522]]]}},{"type":"Feature","properties":{"cislo":13044,"mco":"Praha 13"},"geometry":{"type":"Polygon","coordinates":[[[14.31974,50.04725],[14.32254,50.04649],[14.32242,50.04719],[14.31974,50.04725]]]}},{"type":"Feature","properties":{"cislo":13045,"mco":"Praha 13"},"geometry":{"type":"Polygon","coordinates":[[[14.34588,50.05037],[14.34485,50.05111],[14.34102,50.04998],[14.34392,50.05026],[14.34588,50.05037]]]}},{"type":"Feature","properties":{"cislo":13046,"mco":"Praha 13"},"geometry":{"type":"Polygon","coordinates":[[[14.33346,50.05281],[14.33388,50.05205],[14.33721,50.04726],[14.33869,50.0468],[14.34012,50.04962],[14.34042,50.05091],[14.34036,50.05135],[14.33996,50.05262],[14.3372,50.05296],[14.33346,50.05281]]]}},{"type":"Feature","properties":{"cislo":13047,"mco":"Praha 13"},"geometry":{"type":"MultiPolygon","coordinates":[[[[14.34693,50.03975],[14.34224,50.04045],[14.33546,50.03996],[14.33589,50.04196],[14.33487,50.03941],[14.33526,50.03768],[14.33071,50.03805],[14.33015,50.03587],[14.3274,50.03559],[14.32774,50.03498],[14.33099,50.03279],[14.33539,50.03352],[14.33564,50.03751],[14.33596,50.03939],[14.34212,50.03996],[14.34693,50.03975]]],[[[14.33925,50.03903],[14.33907,50.03873],[14.34042,50.03888],[14.34029,50.03954],[14.33925,50.03903]]],[[[14.34014,50.03739],[14.34074,50.03745],[14.3406,50.03806],[14.34014,50.03739]]]]}},{"type":"Feature","properties":{"cislo":13048,"mco":"Praha 13"},"geometry":{"type":"Polygon","coordinates":[[[14.33821,50.05711],[14.32907,50.05357],[14.33346,50.05281],[14.3372,50.05296],[14.34145,50.05386],[14.34251,50.05267],[14.34253,50.05381],[14.34513,50.05335],[14.34654,50.05347],[14.345,50.05482],[14.34038,50.05467],[14.33821,50.05711]]]}},{"type":"Feature","properties":{"cislo":13049,"mco":"Praha 13"},"geometry":{"type":"Polygon","coordinates":[[[14.32254,50.04649],[14.32273,50.04477],[14.32465,50.04419],[14.32617,50.04348],[14.32668,50.04385],[14.32615,50.04558],[14.32548,50.04672],[14.32254,50.04649]]]}},{"type":"Feature","properties":{"cislo":13050,"mco":"Praha 13"},"geometry":{"type":"Polygon","coordinates":[[[14.32548,50.04672],[14.32615,50.04558],[14.32949,50.04639],[14.33068,50.04493],[14.33025,50.0467],[14.32548,50.04672]]]}},{"type":"Feature","properties":{"cislo":13053,"mco":"Praha 13"},"geometry":{"type":"Polygon","coordinates":[[[14.32104,50.04946],[14.32988,50.04856],[14.33224,50.04963],[14.32104,50.04946]]]}},{"type":"Feature","properties":{"cislo":13054,"mco":"Praha 13"},"geometry":{"type":"Polygon","coordinates":[[[14.32582,50.03841],[14.3274,50.03559],[14.33015,50.03587],[14.33071,50.03805],[14.32942,50.03979],[14.32582,50.03841]]]}},{"type":"Feature","properties":{"cislo":13056,"mco":"Praha 13"},"geometry":{"type":"Polygon","coordinates":[[[14.34513,50.05335],[14.34268,50.05259],[14.33996,50.05262],[14.34036,50.05135],[14.34689,50.0519],[14.34654,50.05347],[14.34513,50.05335]]]}},{"type":"Feature","properties":{"cislo":13058,"mco":"Praha 13"},"geometry":{"type":"Polygon","coordinates":[[[14.32846,50.06248],[14.3186,50.05817],[14.3235,50.05769],[14.32411,50.05499],[14.32833,50.05629],[14.33511,50.0604],[14.32846,50.06248]]]}},{"type":"Feature","properties":{"cislo":13057,"mco":"Praha 13"},"geometry":{"type":"Polygon","coordinates":[[[14.30882,50.04745],[14.30754,50.04743],[14.30802,50.04536],[14.31494,50.04378],[14.31555,50.04476],[14.31397,50.04518],[14.31036,50.04593],[14.30868,50.04541],[14.30812,50.04674],[14.31189,50.0476],[14.30882,50.04745]]]}},{"type":"Feature","properties":{"cislo":13051,"mco":"Praha 13"},"geometry":{"type":"Polygon","coordinates":[[[14.32907,50.05357],[14.32847,50.0523],[14.32879,50.0512],[14.33388,50.05205],[14.33346,50.05281],[14.32907,50.05357]]]}},{"type":"Feature","properties":{"cislo":13052,"mco":"Praha 13"},"geometry":{"type":"Polygon","coordinates":[[[14.34036,50.05135],[14.34042,50.05091],[14.34813,50.05194],[14.34689,50.0519],[14.34036,50.05135]]]}},{"type":"Feature","properties":{"cislo":13055,"mco":"Praha 13"},"geometry":{"type":"Polygon","coordinates":[[[14.33662,50.0377],[14.33564,50.03751],[14.33539,50.03352],[14.33585,50.03176],[14.33851,50.0328],[14.34276,50.03185],[14.34833,50.03421],[14.34599,50.03764],[14.33981,50.03563],[14.33769,50.03572],[14.33756,50.03633],[14.33662,50.0377]]]}}]}