{"type":"FeatureCollection","features":[{"type":"Feature","properties":{"cislo":18001,"mco":"Praha 18"},"geometry":{"type":"Polygon","coordinates":[[[14.53512,50.14022],[14.5302,50.14034],[14.5235,50.13735],[14.51718,50.13838],[14.51629,50.13715],[14.51532,50.13829],[14.51099,50.13608],[14.51148,50.13148],[14.51364,50.13155],[14.51102,50.12876],[14.51493,50.12745],[14.52495,50.12761],[14.52595,50.12908],[14.53536,50.13111],[14.53547,50.13415],[14.53564,50.13534],[14.53512,50.14022]]]}},{"type":"Feature","properties":{"cislo":18002,"mco":"Praha 18"},"geometry":{"type":"Polygon","coordinates":[[[14.52215,50.14077],[14.517,50.1416],[14.51036,50.13866],[14.51,50.13616],[14.51099,50.13608],[14.51532,50.13829],[14.51601,50.13993],[14.52215,50.14077]]]}},{"type":"Feature","properties":{"cislo":18003,"mco":"Praha 18"},"geometry":{"type":"Polygon","coordinates":[[[14.52824,50.14324],[14.52215,50.14077],[14.51601,50.13993],[14.51532,50.13829],[14.51629,50.13715],[14.51718,50.13838],[14.5235,50.13735],[14.5302,50.14034],[14.52824,50.14324]]]}},{"type":"Feature","properties":{"cislo":18004,"mco":"Praha 18"},"geometry":{"type":"Polygon","coordinates":[[[14.51741,50.14955],[14.51373,50.14844],[14.50968,50.14971],[14.50891,50.14756],[14.50699,50.14275],[14.51119,50.14202],[14.50892,50.1402],[14.51036,50.13866],[14.517,50.1416],[14.52215,50.14077],[14.52824,50.14324],[14.52176,50.14718],[14.51741,50.14955]]]}},{"type":"Feature","properties":{"cislo":18005,"mco":"Praha 18"},"geometry":{"type":"Polygon","coordinates":[[[14.50891,50.14756],[14.50437,50.14447],[14.50437,50.14248],[14.49656,50.14241],[14.49707,50.14072],[14.50051,50.14073],[14.50477,50.13843],[14.50551,50.13915],[14.50848,50.14231],[14.51119,50.14202],[14.50699,50.14275],[14.50891,50.14756]]]}},{"type":"Feature","properties":{"cislo":18006,"mco":"Praha 18"},"geometry":{"type":"Polygon","coordinates":[[[14.50551,50.13915],[14.50719,50.13908],[14.50892,50.1402],[14.51119,50.14202],[14.50848,50.14231],[14.50551,50.13915]]]}},{"type":"Feature","properties":{"cislo":18007,"mco":"Praha 18"},"geometry":{"type":"Polygon","coordinates":[[[14.50892,50.1402],[14.50719,50.13908],[14.50814,50.13587],[14.51,50.13616],[14.51036,50.13866],[14.50892,50.1402]]]}},{"type":"Feature","properties":{"cislo":18008,"mco":"Praha 18"},"geometry":{"type":"Polygon","coordinates":[[[14.50477,50.13843],[14.50682,50.13567],[14.50814,50.13587],[14.50719,50.13908],[14.50551,50.13915],[14.50477,50.13843]]]}},{"type":"Feature","properties":{"cislo":18009,"mco":"Praha 18"},"geometry":{"type":"Polygon","coordinates":[[[14.50814,50.13587],[14.50682,50.13567],[14.50867,50.1339],[14.51148,50.13148],[14.51099,50.13608],[14.51,50.13616],[14.50814,50.13587]]]}},{"type":"Feature","properties":{"cislo":18010,"mco":"Praha 18"},"geometry":{"type":"Polygon","coordinates":[[[14.49707,50.14072],[14.49775,50.13645],[14.49813,50.13282],[14.50207,50.13064],[14.50934,50.13233],[14.50867,50.1339],[14.50682,50.13567],[14.50477,50.13843],[14.50051,50.14073],[14.49707,50.14072]]]}},{"type":"Feature","properties":{"cislo":18011,"mco":"Praha 18"},"geometry":{"type":"Polygon","coordinates":[[[14.51148,50.13148],[14.50867,50.1339],[14.50934,50.13233],[14.50207,50.13064],[14.50748,50.12714],[14.51003,50.12565],[14.5185,50.12287],[14.52184,50.12625],[14.52495,50.12761],[14.51493,50.12745],[14.51102,50.12876],[14.51364,50.13155],[14.51148,50.13148]]]}},{"type":"Feature","properties":{"cislo":18012,"mco":"Praha 18"},"geometry":{"type":"Polygon","coordinates":[[[14.49775,50.13645],[14.49471,50.13616],[14.49563,50.13145],[14.49795,50.13138],[14.49836,50.12856],[14.50071,50.12665],[14.50748,50.12714],[14.50207,50.13064],[14.49813,50.13282],[14.49775,50.13645]]]}}]}