{"type":"FeatureCollection","features":[{"type":"Feature","properties":{"cislo":20001,"mco":"Praha 20"},"geometry":{"type":"Polygon","coordinates":[[[14.60272,50.12148],[14.59186,50.12287],[14.59291,50.12077],[14.5872,50.1208],[14.58715,50.11725],[14.57995,50.11729],[14.5787,50.11306],[14.57542,50.11336],[14.57469,50.10824],[14.58578,50.11017],[14.58854,50.10605],[14.59451,50.10698],[14.59262,50.10891],[14.6017,50.10899],[14.5984,50.11221],[14.60238,50.11242],[14.60259,50.11284],[14.59835,50.11372],[14.60191,50.11384],[14.6033,50.11802],[14.60272,50.12148]]]}},{"type":"Feature","properties":{"cislo":20002,"mco":"Praha 20"},"geometry":{"type":"Polygon","coordinates":[[[14.60238,50.11242],[14.5984,50.11221],[14.6017,50.10899],[14.59262,50.10891],[14.59451,50.10698],[14.60164,50.10747],[14.60186,50.10898],[14.60044,50.11056],[14.60208,50.11173],[14.60238,50.11242]]]}},{"type":"Feature","properties":{"cislo":20003,"mco":"Praha 20"},"geometry":{"type":"Polygon","coordinates":[[[14.59451,50.10698],[14.58854,50.10605],[14.5898,50.10198],[14.58771,50.10072],[14.57946,50.10113],[14.58231,50.09741],[14.58927,50.09936],[14.59243,50.09465],[14.59652,50.09622],[14.61751,50.09853],[14.62447,50.09565],[14.63323,50.09166],[14.63799,50.09249],[14.63776,50.09015],[14.64259,50.09213],[14.64359,50.0978],[14.64878,50.09704],[14.64991,50.10041],[14.64778,50.10301],[14.6415,50.10307],[14.63972,50.10468],[14.63236,50.10289],[14.62154,50.10485],[14.61807,50.10499],[14.61161,50.10707],[14.60862,50.10754],[14.60684,50.105],[14.60558,50.10818],[14.60186,50.10898],[14.60164,50.10747],[14.59451,50.10698]]]}},{"type":"Feature","properties":{"cislo":20004,"mco":"Praha 20"},"geometry":{"type":"Polygon","coordinates":[[[14.60208,50.11173],[14.60044,50.11056],[14.60186,50.10898],[14.60558,50.10818],[14.60684,50.105],[14.60862,50.10754],[14.61161,50.10707],[14.61256,50.10948],[14.61035,50.10957],[14.61067,50.11127],[14.61063,50.11214],[14.60636,50.11191],[14.60541,50.11041],[14.60208,50.11173]]]}},{"type":"Feature","properties":{"cislo":20005,"mco":"Praha 20"},"geometry":{"type":"Polygon","coordinates":[[[14.60238,50.11242],[14.60208,50.11173],[14.60541,50.11041],[14.60636,50.11191],[14.60259,50.11284],[14.60238,50.11242]]]}},{"type":"Feature","properties":{"cislo":20006,"mco":"Praha 20"},"geometry":{"type":"Polygon","coordinates":[[[14.61662,50.11418],[14.61547,50.11745],[14.61172,50.1168],[14.60865,50.12109],[14.60515,50.12032],[14.6033,50.11802],[14.60191,50.11384],[14.59835,50.11372],[14.60259,50.11284],[14.60636,50.11191],[14.61063,50.11214],[14.61662,50.11418]]]}},{"type":"Feature","properties":{"cislo":20007,"mco":"Praha 20"},"geometry":{"type":"Polygon","coordinates":[[[14.61662,50.11418],[14.61063,50.11214],[14.61067,50.11127],[14.61364,50.11107],[14.61804,50.11322],[14.61662,50.11418]]]}},{"type":"Feature","properties":{"cislo":20008,"mco":"Praha 20"},"geometry":{"type":"Polygon","coordinates":[[[14.61067,50.11127],[14.61035,50.10957],[14.61256,50.10948],[14.61161,50.10707],[14.61807,50.10499],[14.61801,50.10657],[14.62127,50.10782],[14.62324,50.10943],[14.61918,50.11054],[14.62028,50.11203],[14.61804,50.11322],[14.61364,50.11107],[14.61067,50.11127]]]}},{"type":"Feature","properties":{"cislo":20009,"mco":"Praha 20"},"geometry":{"type":"Polygon","coordinates":[[[14.63237,50.12997],[14.62162,50.12791],[14.62454,50.12247],[14.61954,50.12148],[14.62056,50.11842],[14.62539,50.11754],[14.62611,50.1159],[14.62752,50.11497],[14.6261,50.11467],[14.63308,50.11516],[14.6363,50.10839],[14.62154,50.10485],[14.63236,50.10289],[14.63972,50.10468],[14.6415,50.10307],[14.64778,50.10301],[14.64991,50.10041],[14.65837,50.10345],[14.6559,50.10441],[14.65751,50.10657],[14.65919,50.12267],[14.63984,50.12424],[14.63519,50.12404],[14.63237,50.12997]]]}},{"type":"Feature","properties":{"cislo":20010,"mco":"Praha 20"},"geometry":{"type":"Polygon","coordinates":[[[14.60464,50.12848],[14.60272,50.12148],[14.6033,50.11802],[14.60515,50.12032],[14.60865,50.12109],[14.61172,50.1168],[14.61547,50.11745],[14.61662,50.11418],[14.61804,50.11322],[14.62028,50.11203],[14.62128,50.11225],[14.6213,50.1142],[14.62611,50.1159],[14.62539,50.11754],[14.62056,50.11842],[14.61954,50.12148],[14.62454,50.12247],[14.62162,50.12791],[14.62066,50.12957],[14.60871,50.12719],[14.60464,50.12848]]]}},{"type":"Feature","properties":{"cislo":20011,"mco":"Praha 20"},"geometry":{"type":"Polygon","coordinates":[[[14.62611,50.1159],[14.6213,50.1142],[14.62128,50.11225],[14.62391,50.10872],[14.62127,50.10782],[14.61801,50.10657],[14.61807,50.10499],[14.62154,50.10485],[14.6363,50.10839],[14.63308,50.11516],[14.6261,50.11467],[14.62752,50.11497],[14.62611,50.1159]]]}},{"type":"Feature","properties":{"cislo":20012,"mco":"Praha 20"},"geometry":{"type":"Polygon","coordinates":[[[14.62028,50.11203],[14.61918,50.11054],[14.62324,50.10943],[14.62127,50.10782],[14.62391,50.10872],[14.62128,50.11225],[14.62028,50.11203]]]}}]}