{"type":"FeatureCollection","features":[{"type":"Feature","properties":{"cislo":53001,"mco":"Praha-Újezd"},"geometry":{"type":"Polygon","coordinates":[[[14.54886,50.0285],[14.54745,50.02939],[14.5434,50.02681],[14.54057,50.02775],[14.53308,50.02594],[14.52701,50.02406],[14.52645,50.02159],[14.52964,50.01418],[14.53555,50.01182],[14.54243,50.00877],[14.55092,50.00806],[14.5543,50.01223],[14.55567,50.01779],[14.54984,50.02034],[14.55121,50.02197],[14.54671,50.02596],[14.54935,50.02759],[14.54886,50.0285]]]}},{"type":"Feature","properties":{"cislo":53002,"mco":"Praha-Újezd"},"geometry":{"type":"Polygon","coordinates":[[[14.51902,50.0218],[14.51736,50.02121],[14.51399,50.02031],[14.52964,50.01418],[14.52645,50.02159],[14.52203,50.02036],[14.51902,50.0218]]]}},{"type":"Feature","properties":{"cislo":53003,"mco":"Praha-Újezd"},"geometry":{"type":"Polygon","coordinates":[[[14.52701,50.02406],[14.52372,50.02343],[14.52163,50.02265],[14.51902,50.0218],[14.52203,50.02036],[14.52645,50.02159],[14.52701,50.02406]]]}}]}