{"type":"FeatureCollection","features":[{"type":"Feature","properties":{"cislo":5001,"mco":"Praha 5"},"geometry":{"type":"Polygon","coordinates":[[[14.40704,50.08131],[14.40322,50.08083],[14.40376,50.07949],[14.40485,50.07954],[14.40467,50.08063],[14.40709,50.07964],[14.40815,50.07969],[14.40808,50.08133],[14.40704,50.08131]]]}},{"type":"Feature","properties":{"cislo":5002,"mco":"Praha 5"},"geometry":{"type":"Polygon","coordinates":[[[14.40709,50.07964],[14.40467,50.08063],[14.40485,50.07954],[14.40709,50.07964]]]}},{"type":"Feature","properties":{"cislo":5003,"mco":"Praha 5"},"geometry":{"type":"Polygon","coordinates":[[[14.40535,50.07759],[14.40824,50.07799],[14.40815,50.07969],[14.40485,50.07954],[14.40535,50.07759]]]}},{"type":"Feature","properties":{"cislo":5004,"mco":"Praha 5"},"geometry":{"type":"Polygon","coordinates":[[[14.40376,50.07949],[14.40424,50.07675],[14.40556,50.07688],[14.40485,50.07954],[14.40376,50.07949]]]}},{"type":"Feature","properties":{"cislo":5005,"mco":"Praha 5"},"geometry":{"type":"Polygon","coordinates":[[[14.40808,50.08133],[14.40824,50.07799],[14.40535,50.07759],[14.40556,50.07688],[14.40753,50.07621],[14.41158,50.07567],[14.41096,50.07875],[14.40917,50.08135],[14.40808,50.08133]]]}},{"type":"Feature","properties":{"cislo":5006,"mco":"Praha 5"},"geometry":{"type":"Polygon","coordinates":[[[14.40753,50.07621],[14.40556,50.07688],[14.40424,50.07675],[14.40398,50.0755],[14.40384,50.07454],[14.40617,50.07535],[14.40753,50.07621]]]}},{"type":"Feature","properties":{"cislo":5007,"mco":"Praha 5"},"geometry":{"type":"Polygon","coordinates":[[[14.40753,50.07621],[14.40617,50.07535],[14.40679,50.07317],[14.41205,50.07363],[14.41158,50.07567],[14.40753,50.07621]]]}},{"type":"Feature","properties":{"cislo":5008,"mco":"Praha 5"},"geometry":{"type":"Polygon","coordinates":[[[14.41205,50.07363],[14.40679,50.07317],[14.40696,50.07244],[14.41227,50.07293],[14.41205,50.07363]]]}},{"type":"Feature","properties":{"cislo":5009,"mco":"Praha 5"},"geometry":{"type":"Polygon","coordinates":[[[14.40384,50.07454],[14.40406,50.07217],[14.40696,50.07244],[14.40617,50.07535],[14.40384,50.07454]]]}},{"type":"Feature","properties":{"cislo":5010,"mco":"Praha 5"},"geometry":{"type":"Polygon","coordinates":[[[14.40843,50.07258],[14.40406,50.07217],[14.40514,50.0704],[14.40726,50.07065],[14.40843,50.07258]]]}},{"type":"Feature","properties":{"cislo":5011,"mco":"Praha 5"},"geometry":{"type":"Polygon","coordinates":[[[14.40088,50.0732],[14.39961,50.07181],[14.39974,50.07172],[14.40063,50.06921],[14.40586,50.06937],[14.40514,50.0704],[14.40406,50.07217],[14.40384,50.07454],[14.40398,50.0755],[14.40205,50.07568],[14.40088,50.0732]]]}},{"type":"Feature","properties":{"cislo":5012,"mco":"Praha 5"},"geometry":{"type":"Polygon","coordinates":[[[14.39765,50.08],[14.39501,50.07904],[14.39869,50.07618],[14.40088,50.0732],[14.40205,50.07568],[14.40398,50.0755],[14.40424,50.07675],[14.40376,50.07949],[14.40322,50.08083],[14.39765,50.08]]]}},{"type":"Feature","properties":{"cislo":5013,"mco":"Praha 5"},"geometry":{"type":"Polygon","coordinates":[[[14.40843,50.07258],[14.40726,50.07066],[14.4124,50.07237],[14.41227,50.07293],[14.40843,50.07258]]]}},{"type":"Feature","properties":{"cislo":5014,"mco":"Praha 5"},"geometry":{"type":"Polygon","coordinates":[[[14.4124,50.07237],[14.40726,50.07065],[14.41272,50.07031],[14.4124,50.07237]]]}},{"type":"Feature","properties":{"cislo":5015,"mco":"Praha 5"},"geometry":{"type":"Polygon","coordinates":[[[14.40726,50.07065],[14.40514,50.0704],[14.40586,50.06937],[14.40791,50.06599],[14.41355,50.06702],[14.41298,50.06914],[14.41272,50.07031],[14.40726,50.07065]]]}},{"type":"Feature","properties":{"cislo":5016,"mco":"Praha 5"},"geometry":{"type":"Polygon","coordinates":[[[14.39946,50.06843],[14.40218,50.06799],[14.4045,50.0636],[14.4068,50.06312],[14.40791,50.06599],[14.40586,50.06937],[14.40063,50.06921],[14.39974,50.07172],[14.39946,50.06843]]]}},{"type":"Feature","properties":{"cislo":5017,"mco":"Praha 5"},"geometry":{"type":"Polygon","coordinates":[[[14.41355,50.06702],[14.40791,50.06599],[14.4068,50.06312],[14.40873,50.05421],[14.40922,50.0517],[14.4128,50.05075],[14.41638,50.05831],[14.41588,50.06188],[14.41355,50.06702]]]}},{"type":"Feature","properties":{"cislo":5018,"mco":"Praha 5"},"geometry":{"type":"Polygon","coordinates":[[[14.40452,50.04853],[14.40552,50.04855],[14.40919,50.0489],[14.40922,50.0517],[14.40873,50.05421],[14.40702,50.05071],[14.40541,50.05607],[14.39933,50.05719],[14.40103,50.05202],[14.40503,50.05112],[14.40452,50.04853]]]}},{"type":"Feature","properties":{"cislo":5019,"mco":"Praha 5"},"geometry":{"type":"Polygon","coordinates":[[[14.40261,50.06042],[14.40152,50.06011],[14.39777,50.05846],[14.39933,50.05719],[14.40541,50.05607],[14.4054,50.06013],[14.40261,50.06042]]]}},{"type":"Feature","properties":{"cislo":5020,"mco":"Praha 5"},"geometry":{"type":"Polygon","coordinates":[[[14.39039,50.06114],[14.3851,50.0612],[14.38525,50.05939],[14.38056,50.05875],[14.38327,50.0582],[14.37975,50.05611],[14.37365,50.05583],[14.38202,50.05323],[14.38035,50.05114],[14.38321,50.0452],[14.40452,50.04853],[14.40503,50.05112],[14.40103,50.05202],[14.39933,50.05719],[14.39777,50.05846],[14.40152,50.06011],[14.39908,50.06008],[14.39409,50.05872],[14.3943,50.06],[14.39039,50.06114]]]}},{"type":"Feature","properties":{"cislo":5021,"mco":"Praha 5"},"geometry":{"type":"Polygon","coordinates":[[[14.39807,50.06162],[14.39908,50.06008],[14.40152,50.06011],[14.40476,50.06101],[14.40382,50.06302],[14.39807,50.06162]]]}},{"type":"Feature","properties":{"cislo":5022,"mco":"Praha 5"},"geometry":{"type":"Polygon","coordinates":[[[14.39043,50.06174],[14.39039,50.06114],[14.3943,50.06],[14.39409,50.05872],[14.39908,50.06008],[14.39807,50.06162],[14.39698,50.06257],[14.39043,50.06174]]]}},{"type":"Feature","properties":{"cislo":5023,"mco":"Praha 5"},"geometry":{"type":"Polygon","coordinates":[[[14.40382,50.06302],[14.40476,50.06101],[14.40261,50.06042],[14.4054,50.06013],[14.40541,50.05607],[14.40702,50.05071],[14.40873,50.05421],[14.4068,50.06312],[14.4045,50.0636],[14.40382,50.06302]]]}},{"type":"Feature","properties":{"cislo":5024,"mco":"Praha 5"},"geometry":{"type":"Polygon","coordinates":[[[14.40385,50.06481],[14.39917,50.06548],[14.38956,50.06362],[14.39043,50.06174],[14.39698,50.06257],[14.39807,50.06162],[14.40382,50.06302],[14.4045,50.0636],[14.40385,50.06481]]]}},{"type":"Feature","properties":{"cislo":5025,"mco":"Praha 5"},"geometry":{"type":"Polygon","coordinates":[[[14.38395,50.06255],[14.38366,50.06233],[14.3851,50.0612],[14.39039,50.06114],[14.39043,50.06174],[14.38956,50.06362],[14.39522,50.06474],[14.39392,50.06541],[14.39018,50.06483],[14.38676,50.06551],[14.38395,50.06255]]]}},{"type":"Feature","properties":{"cislo":5026,"mco":"Praha 5"},"geometry":{"type":"Polygon","coordinates":[[[14.40385,50.06481],[14.40218,50.06799],[14.39946,50.06843],[14.39824,50.06707],[14.39917,50.06548],[14.40385,50.06481]]]}},{"type":"Feature","properties":{"cislo":5027,"mco":"Praha 5"},"geometry":{"type":"Polygon","coordinates":[[[14.39659,50.06726],[14.39392,50.06541],[14.39522,50.06474],[14.39917,50.06548],[14.39824,50.06707],[14.39659,50.06726]]]}},{"type":"Feature","properties":{"cislo":5028,"mco":"Praha 5"},"geometry":{"type":"Polygon","coordinates":[[[14.39261,50.0685],[14.38767,50.0679],[14.38567,50.06641],[14.38676,50.06551],[14.39018,50.06483],[14.39392,50.06541],[14.39659,50.06726],[14.39362,50.06778],[14.38987,50.06533],[14.39041,50.06807],[14.39261,50.0685]]]}},{"type":"Feature","properties":{"cislo":5029,"mco":"Praha 5"},"geometry":{"type":"Polygon","coordinates":[[[14.39769,50.07219],[14.39608,50.07117],[14.39749,50.0696],[14.39362,50.06778],[14.39659,50.06726],[14.39824,50.06707],[14.39946,50.06843],[14.39974,50.07172],[14.39961,50.07181],[14.39769,50.07219]]]}},{"type":"Feature","properties":{"cislo":5030,"mco":"Praha 5"},"geometry":{"type":"Polygon","coordinates":[[[14.39261,50.0685],[14.39367,50.06978],[14.39033,50.06998],[14.38503,50.06933],[14.38471,50.06777],[14.38567,50.06641],[14.38767,50.0679],[14.39261,50.0685]]]}},{"type":"Feature","properties":{"cislo":5031,"mco":"Praha 5"},"geometry":{"type":"Polygon","coordinates":[[[14.39357,50.07237],[14.38962,50.07197],[14.38977,50.07129],[14.39033,50.06998],[14.39367,50.06978],[14.39261,50.0685],[14.39041,50.06807],[14.38987,50.06533],[14.39362,50.06778],[14.39749,50.0696],[14.39608,50.07117],[14.39769,50.07219],[14.39357,50.07237]]]}},{"type":"Feature","properties":{"cislo":5032,"mco":"Praha 5"},"geometry":{"type":"Polygon","coordinates":[[[14.38939,50.07269],[14.38962,50.07197],[14.39357,50.07237],[14.39313,50.07294],[14.38935,50.07415],[14.38939,50.07269]]]}},{"type":"Feature","properties":{"cislo":5033,"mco":"Praha 5"},"geometry":{"type":"Polygon","coordinates":[[[14.39869,50.07618],[14.39501,50.07904],[14.39257,50.07816],[14.39326,50.07707],[14.38777,50.075],[14.38851,50.07344],[14.38935,50.07415],[14.39313,50.07294],[14.39869,50.07618]]]}},{"type":"Feature","properties":{"cislo":5034,"mco":"Praha 5"},"geometry":{"type":"Polygon","coordinates":[[[14.39869,50.07618],[14.39313,50.07294],[14.39357,50.07237],[14.39769,50.07219],[14.39961,50.07181],[14.40088,50.0732],[14.39869,50.07618]]]}},{"type":"Feature","properties":{"cislo":5035,"mco":"Praha 5"},"geometry":{"type":"Polygon","coordinates":[[[14.37722,50.07815],[14.37401,50.07526],[14.37538,50.07431],[14.38348,50.07542],[14.38484,50.0788],[14.37976,50.07945],[14.37722,50.07815]]]}},{"type":"Feature","properties":{"cislo":5036,"mco":"Praha 5"},"geometry":{"type":"Polygon","coordinates":[[[14.3682,50.07388],[14.3732,50.0718],[14.38072,50.0737],[14.3816,50.07175],[14.38458,50.07265],[14.38348,50.07542],[14.37538,50.07431],[14.37401,50.07526],[14.3682,50.07388]]]}},{"type":"Feature","properties":{"cislo":5037,"mco":"Praha 5"},"geometry":{"type":"Polygon","coordinates":[[[14.36203,50.07861],[14.3569,50.07822],[14.35659,50.07712],[14.35999,50.07569],[14.36076,50.07304],[14.3682,50.07388],[14.37401,50.07526],[14.37722,50.07815],[14.37116,50.07812],[14.37356,50.07937],[14.36203,50.07861]]]}},{"type":"Feature","properties":{"cislo":5038,"mco":"Praha 5"},"geometry":{"type":"Polygon","coordinates":[[[14.38348,50.07542],[14.38458,50.07265],[14.38851,50.07344],[14.38777,50.075],[14.39326,50.07707],[14.39257,50.07816],[14.38484,50.0788],[14.38348,50.07542]]]}},{"type":"Feature","properties":{"cislo":5039,"mco":"Praha 5"},"geometry":{"type":"Polygon","coordinates":[[[14.38851,50.07344],[14.38458,50.07265],[14.3816,50.07175],[14.38182,50.07098],[14.38311,50.07114],[14.38939,50.07269],[14.38935,50.07415],[14.38851,50.07344]]]}},{"type":"Feature","properties":{"cislo":5040,"mco":"Praha 5"},"geometry":{"type":"Polygon","coordinates":[[[14.3816,50.07175],[14.38072,50.0737],[14.3732,50.0718],[14.37094,50.07074],[14.37258,50.07006],[14.37638,50.07059],[14.38026,50.07077],[14.38182,50.07098],[14.3816,50.07175]]]}},{"type":"Feature","properties":{"cislo":5041,"mco":"Praha 5"},"geometry":{"type":"Polygon","coordinates":[[[14.37638,50.07059],[14.37413,50.06844],[14.37784,50.06528],[14.37498,50.06344],[14.37117,50.06339],[14.37203,50.06216],[14.38025,50.06416],[14.38255,50.06547],[14.38164,50.06683],[14.38026,50.07077],[14.37638,50.07059]]]}},{"type":"Feature","properties":{"cislo":5042,"mco":"Praha 5"},"geometry":{"type":"Polygon","coordinates":[[[14.38494,50.07138],[14.38026,50.07077],[14.38164,50.06683],[14.38471,50.06777],[14.38503,50.06933],[14.38494,50.07138]]]}},{"type":"Feature","properties":{"cislo":5043,"mco":"Praha 5"},"geometry":{"type":"Polygon","coordinates":[[[14.3682,50.07388],[14.36076,50.07304],[14.3596,50.07276],[14.36145,50.06963],[14.36962,50.07001],[14.37258,50.07006],[14.37094,50.07074],[14.3732,50.0718],[14.3682,50.07388]]]}},{"type":"Feature","properties":{"cislo":5044,"mco":"Praha 5"},"geometry":{"type":"Polygon","coordinates":[[[14.35659,50.07712],[14.34664,50.07563],[14.34951,50.07497],[14.34786,50.07296],[14.35013,50.07148],[14.35278,50.07146],[14.3526,50.07361],[14.3596,50.07276],[14.36076,50.07304],[14.35999,50.07569],[14.35659,50.07712]]]}},{"type":"Feature","properties":{"cislo":5045,"mco":"Praha 5"},"geometry":{"type":"Polygon","coordinates":[[[14.35013,50.07148],[14.3497,50.07018],[14.3501,50.06824],[14.35347,50.06852],[14.36145,50.06963],[14.3596,50.07276],[14.3526,50.07361],[14.35278,50.07146],[14.35013,50.07148]]]}},{"type":"Feature","properties":{"cislo":5046,"mco":"Praha 5"},"geometry":{"type":"Polygon","coordinates":[[[14.34786,50.07296],[14.34664,50.07123],[14.3497,50.07018],[14.35013,50.07148],[14.34786,50.07296]]]}},{"type":"Feature","properties":{"cislo":5047,"mco":"Praha 5"},"geometry":{"type":"Polygon","coordinates":[[[14.3455,50.07605],[14.32546,50.07455],[14.3218,50.07357],[14.32251,50.06857],[14.32232,50.06522],[14.3251,50.0628],[14.32846,50.06248],[14.33511,50.0604],[14.33542,50.06037],[14.34432,50.06214],[14.3528,50.06747],[14.35347,50.06852],[14.3501,50.06824],[14.3497,50.07018],[14.34664,50.07123],[14.34786,50.07296],[14.34951,50.07497],[14.34664,50.07563],[14.3455,50.07605]]]}},{"type":"Feature","properties":{"cislo":5048,"mco":"Praha 5"},"geometry":{"type":"Polygon","coordinates":[[[14.35347,50.06852],[14.3528,50.06747],[14.3672,50.06854],[14.36962,50.07001],[14.36145,50.06963],[14.35347,50.06852]]]}},{"type":"Feature","properties":{"cislo":5049,"mco":"Praha 5"},"geometry":{"type":"Polygon","coordinates":[[[14.36962,50.07001],[14.3672,50.06854],[14.36705,50.06826],[14.37133,50.06723],[14.37286,50.06846],[14.37181,50.07004],[14.36962,50.07001]]]}},{"type":"Feature","properties":{"cislo":5050,"mco":"Praha 5"},"geometry":{"type":"Polygon","coordinates":[[[14.37258,50.07006],[14.37181,50.07004],[14.37286,50.06846],[14.37413,50.06844],[14.37638,50.07059],[14.37258,50.07006]]]}},{"type":"Feature","properties":{"cislo":5051,"mco":"Praha 5"},"geometry":{"type":"Polygon","coordinates":[[[14.3672,50.06854],[14.3528,50.06747],[14.34432,50.06214],[14.35772,50.06298],[14.35505,50.06492],[14.3619,50.06709],[14.36585,50.0663],[14.3672,50.06854]]]}},{"type":"Feature","properties":{"cislo":5052,"mco":"Praha 5"},"geometry":{"type":"Polygon","coordinates":[[[14.35772,50.06298],[14.36587,50.0653],[14.36585,50.0663],[14.3619,50.06709],[14.35505,50.06492],[14.35772,50.06298]]]}},{"type":"Feature","properties":{"cislo":5053,"mco":"Praha 5"},"geometry":{"type":"Polygon","coordinates":[[[14.37117,50.06339],[14.36907,50.0656],[14.36587,50.0653],[14.35772,50.06298],[14.34432,50.06214],[14.33542,50.06037],[14.33947,50.05885],[14.34594,50.06076],[14.35544,50.06065],[14.36889,50.05781],[14.3699,50.05814],[14.36872,50.06034],[14.37203,50.06216],[14.37117,50.06339]]]}},{"type":"Feature","properties":{"cislo":5054,"mco":"Praha 5"},"geometry":{"type":"Polygon","coordinates":[[[14.37133,50.06723],[14.36907,50.0656],[14.37117,50.06339],[14.37498,50.06344],[14.37784,50.06528],[14.37413,50.06844],[14.37286,50.06846],[14.37133,50.06723]]]}},{"type":"Feature","properties":{"cislo":5055,"mco":"Praha 5"},"geometry":{"type":"Polygon","coordinates":[[[14.36705,50.06826],[14.36585,50.0663],[14.36587,50.0653],[14.36907,50.0656],[14.37133,50.06723],[14.36705,50.06826]]]}},{"type":"Feature","properties":{"cislo":5056,"mco":"Praha 5"},"geometry":{"type":"Polygon","coordinates":[[[14.38977,50.07129],[14.38494,50.07138],[14.38503,50.06933],[14.39033,50.06998],[14.38977,50.07129]]]}},{"type":"Feature","properties":{"cislo":5057,"mco":"Praha 5"},"geometry":{"type":"Polygon","coordinates":[[[14.38311,50.07114],[14.38494,50.07138],[14.38977,50.07129],[14.38962,50.07197],[14.38939,50.07269],[14.38311,50.07114]]]}},{"type":"Feature","properties":{"cislo":5058,"mco":"Praha 5"},"geometry":{"type":"Polygon","coordinates":[[[14.38567,50.06641],[14.38471,50.06777],[14.38164,50.06683],[14.38255,50.06547],[14.38025,50.06416],[14.38395,50.06255],[14.38676,50.06551],[14.38567,50.06641]]]}},{"type":"Feature","properties":{"cislo":5059,"mco":"Praha 5"},"geometry":{"type":"Polygon","coordinates":[[[14.37203,50.06216],[14.36872,50.06034],[14.3699,50.05814],[14.37053,50.05683],[14.37111,50.05841],[14.37635,50.05876],[14.38366,50.06233],[14.38395,50.06255],[14.38025,50.06416],[14.37203,50.06216]]]}},{"type":"Feature","properties":{"cislo":5060,"mco":"Praha 5"},"geometry":{"type":"Polygon","coordinates":[[[14.37053,50.05683],[14.37271,50.05589],[14.37365,50.05583],[14.37975,50.05611],[14.38327,50.0582],[14.38056,50.05875],[14.38525,50.05939],[14.3851,50.0612],[14.38366,50.06233],[14.37635,50.05876],[14.37111,50.05841],[14.37053,50.05683]]]}},{"type":"Feature","properties":{"cislo":5061,"mco":"Praha 5"},"geometry":{"type":"Polygon","coordinates":[[[14.36889,50.05781],[14.36559,50.05643],[14.36395,50.05287],[14.36713,50.05187],[14.36849,50.05582],[14.37271,50.05589],[14.37053,50.05683],[14.3699,50.05814],[14.36889,50.05781]]]}},{"type":"Feature","properties":{"cislo":5062,"mco":"Praha 5"},"geometry":{"type":"Polygon","coordinates":[[[14.33947,50.05885],[14.33957,50.05697],[14.3535,50.05262],[14.35522,50.05156],[14.3603,50.05405],[14.36395,50.05287],[14.36559,50.05643],[14.36889,50.05781],[14.35544,50.06065],[14.34594,50.06076],[14.33947,50.05885]]]}},{"type":"Feature","properties":{"cislo":5063,"mco":"Praha 5"},"geometry":{"type":"Polygon","coordinates":[[[14.37271,50.05589],[14.36849,50.05582],[14.36713,50.05187],[14.3603,50.05405],[14.35522,50.05156],[14.35304,50.04914],[14.35243,50.04862],[14.35325,50.04304],[14.35551,50.04253],[14.35183,50.03941],[14.35301,50.03559],[14.35439,50.03561],[14.36071,50.03819],[14.37487,50.03808],[14.37864,50.03835],[14.38434,50.04318],[14.38321,50.0452],[14.38035,50.05114],[14.38202,50.05323],[14.37365,50.05583],[14.37271,50.05589]]]}},{"type":"Feature","properties":{"cislo":5064,"mco":"Praha 5"},"geometry":{"type":"Polygon","coordinates":[[[14.40552,50.04855],[14.4039,50.0465],[14.40712,50.04609],[14.40663,50.04481],[14.40029,50.03941],[14.39626,50.03846],[14.3998,50.03769],[14.39796,50.03672],[14.39943,50.03705],[14.40532,50.04021],[14.40694,50.03933],[14.40826,50.04117],[14.41017,50.04449],[14.4123,50.0497],[14.4128,50.05075],[14.40922,50.0517],[14.40919,50.0489],[14.40552,50.04855]]]}},{"type":"Feature","properties":{"cislo":5065,"mco":"Praha 5"},"geometry":{"type":"Polygon","coordinates":[[[14.40452,50.04853],[14.38321,50.0452],[14.38434,50.04318],[14.37864,50.03835],[14.38204,50.03827],[14.38422,50.03838],[14.392,50.04132],[14.39796,50.03672],[14.3998,50.03769],[14.39626,50.03846],[14.40029,50.03941],[14.40663,50.04481],[14.40712,50.04609],[14.4039,50.0465],[14.40552,50.04855],[14.40452,50.04853]]]}},{"type":"Feature","properties":{"cislo":5066,"mco":"Praha 5"},"geometry":{"type":"Polygon","coordinates":[[[14.40694,50.03933],[14.40532,50.04021],[14.39943,50.03705],[14.39563,50.03582],[14.38474,50.03588],[14.38388,50.03406],[14.38586,50.03291],[14.38157,50.03188],[14.37923,50.02913],[14.38256,50.02669],[14.38989,50.02704],[14.40006,50.03104],[14.40694,50.03933]]]}},{"type":"Feature","properties":{"cislo":5067,"mco":"Praha 5"},"geometry":{"type":"Polygon","coordinates":[[[14.39796,50.03672],[14.392,50.04132],[14.38422,50.03838],[14.38417,50.03649],[14.38474,50.03588],[14.39563,50.03582],[14.39943,50.03705],[14.39796,50.03672]]]}},{"type":"Feature","properties":{"cislo":5068,"mco":"Praha 5"},"geometry":{"type":"Polygon","coordinates":[[[14.38204,50.03827],[14.38075,50.03735],[14.38191,50.03607],[14.38417,50.03649],[14.38422,50.03838],[14.38204,50.03827]]]}},{"type":"Feature","properties":{"cislo":5069,"mco":"Praha 5"},"geometry":{"type":"Polygon","coordinates":[[[14.38417,50.03649],[14.38191,50.03607],[14.38003,50.03469],[14.38388,50.03406],[14.38474,50.03588],[14.38417,50.03649]]]}},{"type":"Feature","properties":{"cislo":5070,"mco":"Praha 5"},"geometry":{"type":"Polygon","coordinates":[[[14.38003,50.03469],[14.37793,50.03287],[14.37385,50.03192],[14.37493,50.03071],[14.3792,50.03254],[14.38157,50.03188],[14.38586,50.03291],[14.38388,50.03406],[14.38003,50.03469]]]}},{"type":"Feature","properties":{"cislo":5071,"mco":"Praha 5"},"geometry":{"type":"Polygon","coordinates":[[[14.38075,50.03735],[14.37836,50.03667],[14.37752,50.03531],[14.38003,50.03469],[14.38191,50.03607],[14.38075,50.03735]]]}},{"type":"Feature","properties":{"cislo":5072,"mco":"Praha 5"},"geometry":{"type":"Polygon","coordinates":[[[14.37442,50.03609],[14.37752,50.03531],[14.37836,50.03667],[14.3757,50.03737],[14.37442,50.03609]]]}},{"type":"Feature","properties":{"cislo":5073,"mco":"Praha 5"},"geometry":{"type":"Polygon","coordinates":[[[14.38204,50.03827],[14.37864,50.03835],[14.37487,50.03808],[14.37318,50.03638],[14.37442,50.03609],[14.3757,50.03737],[14.37836,50.03667],[14.38075,50.03735],[14.38204,50.03827]]]}},{"type":"Feature","properties":{"cislo":5074,"mco":"Praha 5"},"geometry":{"type":"Polygon","coordinates":[[[14.35439,50.03561],[14.35506,50.03186],[14.36328,50.03095],[14.36878,50.03139],[14.37003,50.03186],[14.37254,50.03227],[14.37329,50.03255],[14.3756,50.03465],[14.37158,50.036],[14.37318,50.03638],[14.37487,50.03808],[14.36071,50.03819],[14.35439,50.03561]]]}},{"type":"Feature","properties":{"cislo":5075,"mco":"Praha 5"},"geometry":{"type":"Polygon","coordinates":[[[14.37318,50.03638],[14.37158,50.036],[14.3756,50.03465],[14.37793,50.03287],[14.38003,50.03469],[14.37318,50.03638]]]}},{"type":"Feature","properties":{"cislo":5076,"mco":"Praha 5"},"geometry":{"type":"Polygon","coordinates":[[[14.37003,50.03186],[14.36878,50.03139],[14.36819,50.02976],[14.36928,50.02861],[14.37155,50.02933],[14.37281,50.02653],[14.37446,50.02706],[14.37352,50.03117],[14.37065,50.03034],[14.37003,50.03186]]]}},{"type":"Feature","properties":{"cislo":5077,"mco":"Praha 5"},"geometry":{"type":"Polygon","coordinates":[[[14.3756,50.03465],[14.37329,50.03255],[14.37385,50.03192],[14.37793,50.03287],[14.3756,50.03465]]]}},{"type":"Feature","properties":{"cislo":5078,"mco":"Praha 5"},"geometry":{"type":"Polygon","coordinates":[[[14.37329,50.03255],[14.37254,50.03227],[14.37352,50.03117],[14.37446,50.02706],[14.37923,50.02913],[14.38157,50.03188],[14.3792,50.03254],[14.37493,50.03071],[14.37329,50.03255]]]}},{"type":"Feature","properties":{"cislo":5079,"mco":"Praha 5"},"geometry":{"type":"Polygon","coordinates":[[[14.37254,50.03227],[14.37003,50.03186],[14.37065,50.03034],[14.37352,50.03117],[14.37254,50.03227]]]}},{"type":"Feature","properties":{"cislo":5080,"mco":"Praha 5"},"geometry":{"type":"Polygon","coordinates":[[[14.36328,50.03095],[14.36367,50.02919],[14.36688,50.03059],[14.36819,50.02976],[14.36878,50.03139],[14.36328,50.03095]]]}},{"type":"Feature","properties":{"cislo":5081,"mco":"Praha 5"},"geometry":{"type":"Polygon","coordinates":[[[14.35506,50.03186],[14.35745,50.03008],[14.35546,50.0284],[14.35608,50.02499],[14.36317,50.02626],[14.36576,50.02243],[14.37281,50.02653],[14.37155,50.02933],[14.36928,50.02861],[14.36819,50.02976],[14.36688,50.03059],[14.36367,50.02919],[14.36328,50.03095],[14.35506,50.03186]]]}}]}