{"type":"FeatureCollection","features":[{"type":"Feature","properties":{"cislo":40001,"mco":"Praha-Lochkov"},"geometry":{"type":"Polygon","coordinates":[[[14.36695,50.00725],[14.3566,50.00641],[14.35687,50.00911],[14.34282,50.00786],[14.33909,50.00553],[14.33812,50.00229],[14.34159,50.00039],[14.34127,49.99824],[14.34997,49.99828],[14.34738,49.9945],[14.34884,49.99308],[14.35329,49.99257],[14.35639,49.99396],[14.36052,49.99486],[14.36096,49.99508],[14.3691,50.00018],[14.37175,50.00289],[14.36857,50.00463],[14.36917,50.00647],[14.36905,50.00756],[14.36695,50.00725]]]}}]}