{"type":"FeatureCollection","features":[{"type":"Feature","properties":{"cislo":3001,"mco":"Praha 3"},"geometry":{"type":"Polygon","coordinates":[[[14.43996,50.08613],[14.43933,50.08596],[14.44086,50.08523],[14.4396,50.08209],[14.44398,50.08157],[14.44564,50.08126],[14.44718,50.08334],[14.44666,50.08521],[14.43996,50.08613]]]}},{"type":"Feature","properties":{"cislo":3002,"mco":"Praha 3"},"geometry":{"type":"Polygon","coordinates":[[[14.44842,50.08608],[14.43996,50.08613],[14.44666,50.08521],[14.44698,50.0851],[14.44842,50.08608]]]}},{"type":"Feature","properties":{"cislo":3003,"mco":"Praha 3"},"geometry":{"type":"Polygon","coordinates":[[[14.45332,50.0905],[14.44799,50.08986],[14.44504,50.08925],[14.43813,50.08638],[14.43933,50.08596],[14.43996,50.08613],[14.44842,50.08608],[14.4512,50.08681],[14.45332,50.0905]]]}},{"type":"Feature","properties":{"cislo":3004,"mco":"Praha 3"},"geometry":{"type":"Polygon","coordinates":[[[14.45335,50.08444],[14.4512,50.08681],[14.44842,50.08608],[14.44698,50.0851],[14.45335,50.08444]]]}},{"type":"Feature","properties":{"cislo":3005,"mco":"Praha 3"},"geometry":{"type":"Polygon","coordinates":[[[14.44718,50.08334],[14.44944,50.08385],[14.45204,50.08406],[14.45326,50.08382],[14.45351,50.08419],[14.45335,50.08444],[14.44698,50.0851],[14.44666,50.08521],[14.44718,50.08334]]]}},{"type":"Feature","properties":{"cislo":3006,"mco":"Praha 3"},"geometry":{"type":"Polygon","coordinates":[[[14.44718,50.08334],[14.44564,50.08126],[14.44843,50.08178],[14.44923,50.08228],[14.44944,50.08385],[14.44718,50.08334]]]}},{"type":"Feature","properties":{"cislo":3007,"mco":"Praha 3"},"geometry":{"type":"Polygon","coordinates":[[[14.44944,50.08385],[14.44923,50.08228],[14.4524,50.08222],[14.45204,50.08406],[14.44944,50.08385]]]}},{"type":"Feature","properties":{"cislo":3008,"mco":"Praha 3"},"geometry":{"type":"Polygon","coordinates":[[[14.44564,50.08126],[14.44759,50.07988],[14.44807,50.0793],[14.45018,50.08003],[14.44843,50.08178],[14.44564,50.08126]]]}},{"type":"Feature","properties":{"cislo":3009,"mco":"Praha 3"},"geometry":{"type":"Polygon","coordinates":[[[14.44923,50.08228],[14.44843,50.08178],[14.45018,50.08003],[14.44807,50.0793],[14.44826,50.07908],[14.4542,50.08132],[14.45523,50.08177],[14.4524,50.08222],[14.44923,50.08228]]]}},{"type":"Feature","properties":{"cislo":3010,"mco":"Praha 3"},"geometry":{"type":"Polygon","coordinates":[[[14.4524,50.08222],[14.45523,50.08177],[14.45326,50.08382],[14.45204,50.08406],[14.4524,50.08222]]]}},{"type":"Feature","properties":{"cislo":3011,"mco":"Praha 3"},"geometry":{"type":"Polygon","coordinates":[[[14.45347,50.09052],[14.45332,50.0905],[14.4512,50.08681],[14.45335,50.08444],[14.45351,50.08419],[14.45566,50.08492],[14.45597,50.08614],[14.45572,50.08724],[14.45544,50.09092],[14.45347,50.09052]]]}},{"type":"Feature","properties":{"cislo":3012,"mco":"Praha 3"},"geometry":{"type":"Polygon","coordinates":[[[14.46158,50.09212],[14.45922,50.09179],[14.45544,50.09092],[14.45572,50.08724],[14.46001,50.08842],[14.46627,50.08976],[14.46821,50.08998],[14.46816,50.0901],[14.46918,50.0931],[14.46819,50.0933],[14.46158,50.09212]]]}},{"type":"Feature","properties":{"cislo":3013,"mco":"Praha 3"},"geometry":{"type":"Polygon","coordinates":[[[14.45572,50.08724],[14.45597,50.08614],[14.45965,50.08734],[14.46001,50.08842],[14.45572,50.08724]]]}},{"type":"Feature","properties":{"cislo":3014,"mco":"Praha 3"},"geometry":{"type":"Polygon","coordinates":[[[14.45965,50.08734],[14.45597,50.08614],[14.45566,50.08492],[14.46205,50.08639],[14.45965,50.08734]]]}},{"type":"Feature","properties":{"cislo":3015,"mco":"Praha 3"},"geometry":{"type":"Polygon","coordinates":[[[14.46205,50.08639],[14.45566,50.08492],[14.45351,50.08419],[14.45326,50.08382],[14.45523,50.08177],[14.46382,50.08323],[14.4626,50.08654],[14.46205,50.08639]]]}},{"type":"Feature","properties":{"cislo":3016,"mco":"Praha 3"},"geometry":{"type":"Polygon","coordinates":[[[14.46924,50.08798],[14.46625,50.0874],[14.4626,50.08654],[14.46382,50.08323],[14.47085,50.08434],[14.46924,50.08798]]]}},{"type":"Feature","properties":{"cislo":3017,"mco":"Praha 3"},"geometry":{"type":"Polygon","coordinates":[[[14.46127,50.08867],[14.46001,50.08842],[14.45965,50.08734],[14.46205,50.08639],[14.46625,50.0874],[14.46597,50.08792],[14.46127,50.08867]]]}},{"type":"Feature","properties":{"cislo":3018,"mco":"Praha 3"},"geometry":{"type":"Polygon","coordinates":[[[14.46627,50.08976],[14.46127,50.08867],[14.46597,50.08792],[14.46627,50.08976]]]}},{"type":"Feature","properties":{"cislo":3019,"mco":"Praha 3"},"geometry":{"type":"Polygon","coordinates":[[[14.46821,50.08998],[14.46627,50.08976],[14.46597,50.08792],[14.46625,50.0874],[14.46924,50.08798],[14.46821,50.08998]]]}},{"type":"Feature","properties":{"cislo":3020,"mco":"Praha 3"},"geometry":{"type":"Polygon","coordinates":[[[14.4542,50.08132],[14.44826,50.07908],[14.44906,50.07723],[14.45236,50.0774],[14.45148,50.0796],[14.45352,50.07963],[14.45473,50.08008],[14.4542,50.08132]]]}},{"type":"Feature","properties":{"cislo":3021,"mco":"Praha 3"},"geometry":{"type":"Polygon","coordinates":[[[14.45352,50.07963],[14.45148,50.0796],[14.45236,50.0774],[14.45472,50.07751],[14.45352,50.07963]]]}},{"type":"Feature","properties":{"cislo":3022,"mco":"Praha 3"},"geometry":{"type":"Polygon","coordinates":[[[14.45473,50.08008],[14.45352,50.07963],[14.45472,50.07751],[14.4571,50.07769],[14.4566,50.07893],[14.45503,50.07936],[14.45473,50.08008]]]}},{"type":"Feature","properties":{"cislo":3023,"mco":"Praha 3"},"geometry":{"type":"Polygon","coordinates":[[[14.4566,50.07893],[14.4571,50.07769],[14.46047,50.07784],[14.46058,50.07917],[14.4566,50.07893]]]}},{"type":"Feature","properties":{"cislo":3024,"mco":"Praha 3"},"geometry":{"type":"Polygon","coordinates":[[[14.45503,50.07936],[14.4566,50.07893],[14.46058,50.07917],[14.45647,50.08045],[14.45503,50.07936]]]}},{"type":"Feature","properties":{"cislo":3025,"mco":"Praha 3"},"geometry":{"type":"Polygon","coordinates":[[[14.47085,50.08434],[14.46382,50.08323],[14.45523,50.08177],[14.4542,50.08132],[14.45503,50.07936],[14.45647,50.08045],[14.47181,50.08194],[14.47085,50.08434]]]}},{"type":"Feature","properties":{"cislo":3026,"mco":"Praha 3"},"geometry":{"type":"Polygon","coordinates":[[[14.47181,50.08194],[14.45647,50.08045],[14.46058,50.07917],[14.46047,50.07784],[14.46898,50.07833],[14.47316,50.07851],[14.47181,50.08194]]]}},{"type":"Feature","properties":{"cislo":3027,"mco":"Praha 3"},"geometry":{"type":"Polygon","coordinates":[[[14.44906,50.07723],[14.44913,50.07543],[14.4529,50.07547],[14.45236,50.0774],[14.44906,50.07723]]]}},{"type":"Feature","properties":{"cislo":3028,"mco":"Praha 3"},"geometry":{"type":"Polygon","coordinates":[[[14.45236,50.0774],[14.4529,50.07547],[14.45666,50.07552],[14.45536,50.07755],[14.45236,50.0774]]]}},{"type":"Feature","properties":{"cislo":3029,"mco":"Praha 3"},"geometry":{"type":"Polygon","coordinates":[[[14.45536,50.07755],[14.45666,50.07552],[14.458,50.07554],[14.4571,50.07769],[14.45536,50.07755]]]}},{"type":"Feature","properties":{"cislo":3030,"mco":"Praha 3"},"geometry":{"type":"Polygon","coordinates":[[[14.45849,50.07775],[14.4571,50.07769],[14.458,50.07554],[14.46055,50.07566],[14.45849,50.07775]]]}},{"type":"Feature","properties":{"cislo":3031,"mco":"Praha 3"},"geometry":{"type":"Polygon","coordinates":[[[14.46055,50.07566],[14.46399,50.07583],[14.46395,50.07804],[14.45849,50.07775],[14.46055,50.07566]]]}},{"type":"Feature","properties":{"cislo":3032,"mco":"Praha 3"},"geometry":{"type":"Polygon","coordinates":[[[14.46395,50.07804],[14.46399,50.07583],[14.46563,50.07591],[14.46526,50.07812],[14.46395,50.07804]]]}},{"type":"Feature","properties":{"cislo":3033,"mco":"Praha 3"},"geometry":{"type":"Polygon","coordinates":[[[14.46526,50.07812],[14.46563,50.07591],[14.46925,50.07609],[14.46898,50.07833],[14.46526,50.07812]]]}},{"type":"Feature","properties":{"cislo":3034,"mco":"Praha 3"},"geometry":{"type":"Polygon","coordinates":[[[14.46898,50.07833],[14.46925,50.07609],[14.47316,50.07851],[14.46898,50.07833]]]}},{"type":"Feature","properties":{"cislo":3035,"mco":"Praha 3"},"geometry":{"type":"Polygon","coordinates":[[[14.47316,50.07851],[14.46925,50.07609],[14.47842,50.07635],[14.4788,50.07792],[14.47316,50.07851]]]}},{"type":"Feature","properties":{"cislo":3036,"mco":"Praha 3"},"geometry":{"type":"Polygon","coordinates":[[[14.47399,50.08965],[14.47161,50.08999],[14.47254,50.08853],[14.46924,50.08798],[14.47085,50.08434],[14.47316,50.07851],[14.47653,50.07813],[14.47638,50.07947],[14.48263,50.08054],[14.48053,50.08193],[14.4827,50.08232],[14.47984,50.08874],[14.47405,50.08745],[14.47486,50.08849],[14.47399,50.08965]]]}},{"type":"Feature","properties":{"cislo":3037,"mco":"Praha 3"},"geometry":{"type":"Polygon","coordinates":[[[14.47161,50.08999],[14.47041,50.09052],[14.46816,50.0901],[14.46924,50.08798],[14.47254,50.08853],[14.47161,50.08999]]]}},{"type":"Feature","properties":{"cislo":3038,"mco":"Praha 3"},"geometry":{"type":"Polygon","coordinates":[[[14.47562,50.09639],[14.46918,50.0931],[14.46816,50.0901],[14.47334,50.09104],[14.47511,50.09162],[14.4771,50.09428],[14.47562,50.09639]]]}},{"type":"Feature","properties":{"cislo":3039,"mco":"Praha 3"},"geometry":{"type":"Polygon","coordinates":[[[14.47334,50.09104],[14.47041,50.09052],[14.47161,50.08999],[14.47399,50.08965],[14.47334,50.09104]]]}},{"type":"Feature","properties":{"cislo":3040,"mco":"Praha 3"},"geometry":{"type":"Polygon","coordinates":[[[14.4752,50.09135],[14.47511,50.09162],[14.47334,50.09104],[14.47399,50.08965],[14.47486,50.08849],[14.4752,50.09135]]]}},{"type":"Feature","properties":{"cislo":3041,"mco":"Praha 3"},"geometry":{"type":"Polygon","coordinates":[[[14.47993,50.09178],[14.4752,50.09135],[14.47486,50.08849],[14.47405,50.08745],[14.47984,50.08874],[14.48393,50.09014],[14.47993,50.09178]]]}},{"type":"Feature","properties":{"cislo":3042,"mco":"Praha 3"},"geometry":{"type":"Polygon","coordinates":[[[14.47562,50.09639],[14.4771,50.09428],[14.47511,50.09162],[14.4752,50.09135],[14.47993,50.09178],[14.48139,50.09227],[14.47923,50.09665],[14.47886,50.0972],[14.47856,50.09778],[14.47562,50.09639]]]}},{"type":"Feature","properties":{"cislo":3043,"mco":"Praha 3"},"geometry":{"type":"Polygon","coordinates":[[[14.48625,50.09259],[14.48983,50.09512],[14.4855,50.09777],[14.48217,50.09742],[14.47923,50.09665],[14.48139,50.09227],[14.48625,50.09259]]]}},{"type":"Feature","properties":{"cislo":3044,"mco":"Praha 3"},"geometry":{"type":"Polygon","coordinates":[[[14.48139,50.09227],[14.47993,50.09178],[14.48393,50.09014],[14.48897,50.09119],[14.49002,50.09217],[14.48625,50.09259],[14.48139,50.09227]]]}},{"type":"Feature","properties":{"cislo":3045,"mco":"Praha 3"},"geometry":{"type":"Polygon","coordinates":[[[14.48393,50.09014],[14.48559,50.08698],[14.48766,50.08693],[14.48897,50.09119],[14.48393,50.09014]]]}},{"type":"Feature","properties":{"cislo":3046,"mco":"Praha 3"},"geometry":{"type":"Polygon","coordinates":[[[14.49002,50.09217],[14.48897,50.09119],[14.48766,50.08693],[14.49174,50.08742],[14.49341,50.08779],[14.49351,50.08854],[14.49027,50.09111],[14.4911,50.09204],[14.49002,50.09217]]]}},{"type":"Feature","properties":{"cislo":3047,"mco":"Praha 3"},"geometry":{"type":"Polygon","coordinates":[[[14.49836,50.09185],[14.49791,50.09149],[14.4983,50.09044],[14.49351,50.08854],[14.49341,50.08779],[14.50338,50.08974],[14.49836,50.09185]]]}},{"type":"Feature","properties":{"cislo":3048,"mco":"Praha 3"},"geometry":{"type":"Polygon","coordinates":[[[14.49027,50.09111],[14.49351,50.08854],[14.4983,50.09044],[14.49791,50.09149],[14.49386,50.09033],[14.49027,50.09111]]]}},{"type":"Feature","properties":{"cislo":3049,"mco":"Praha 3"},"geometry":{"type":"Polygon","coordinates":[[[14.49226,50.09228],[14.4911,50.09204],[14.49027,50.09111],[14.49386,50.09033],[14.49791,50.09149],[14.49836,50.09185],[14.49621,50.09505],[14.49626,50.09266],[14.49226,50.09228]]]}},{"type":"Feature","properties":{"cislo":3050,"mco":"Praha 3"},"geometry":{"type":"Polygon","coordinates":[[[14.49603,50.09577],[14.49127,50.09417],[14.49226,50.09228],[14.49626,50.09266],[14.49621,50.09505],[14.49603,50.09577]]]}},{"type":"Feature","properties":{"cislo":3051,"mco":"Praha 3"},"geometry":{"type":"Polygon","coordinates":[[[14.48862,50.0983],[14.4855,50.09777],[14.48983,50.09512],[14.48625,50.09259],[14.4911,50.09204],[14.49226,50.09228],[14.49127,50.09417],[14.49603,50.09577],[14.49603,50.09646],[14.49395,50.09896],[14.48862,50.0983]]]}},{"type":"Feature","properties":{"cislo":3052,"mco":"Praha 3"},"geometry":{"type":"Polygon","coordinates":[[[14.47984,50.08874],[14.48215,50.0835],[14.49199,50.08706],[14.49174,50.08742],[14.48766,50.08693],[14.48559,50.08698],[14.48393,50.09014],[14.47984,50.08874]]]}}]}