{"type":"FeatureCollection","features":[{"type":"Feature","properties":{"cislo":30001,"mco":"Praha-Dolní Počernice"},"geometry":{"type":"Polygon","coordinates":[[[14.56483,50.08763],[14.56432,50.07603],[14.56703,50.07437],[14.57732,50.07605],[14.57685,50.08059],[14.58561,50.08116],[14.58544,50.0826],[14.57281,50.08707],[14.56483,50.08763]]]}},{"type":"Feature","properties":{"cislo":30002,"mco":"Praha-Dolní Počernice"},"geometry":{"type":"Polygon","coordinates":[[[14.57304,50.1008],[14.57441,50.09593],[14.5697,50.09345],[14.57279,50.09038],[14.5694,50.08857],[14.56657,50.08927],[14.56483,50.08763],[14.57281,50.08707],[14.58557,50.08256],[14.59313,50.08155],[14.60151,50.08349],[14.60142,50.08601],[14.60521,50.08684],[14.60418,50.09225],[14.62263,50.09359],[14.62447,50.09565],[14.61751,50.09853],[14.59652,50.09622],[14.59243,50.09465],[14.58927,50.09936],[14.58231,50.09741],[14.57946,50.10113],[14.57304,50.1008]]]}}]}