{"type":"FeatureCollection","features":[{"type":"Feature","properties":{"cislo":8001,"mco":"Praha 8"},"geometry":{"type":"Polygon","coordinates":[[[14.43673,50.09197],[14.43753,50.08658],[14.43813,50.08638],[14.44504,50.08925],[14.44253,50.09066],[14.44147,50.09477],[14.43669,50.09437],[14.43673,50.09197]]]}},{"type":"Feature","properties":{"cislo":8002,"mco":"Praha 8"},"geometry":{"type":"Polygon","coordinates":[[[14.44534,50.09128],[14.44253,50.09066],[14.44504,50.08925],[14.44799,50.08986],[14.44706,50.09166],[14.44534,50.09128]]]}},{"type":"Feature","properties":{"cislo":8003,"mco":"Praha 8"},"geometry":{"type":"Polygon","coordinates":[[[14.44163,50.0941],[14.44253,50.09066],[14.44534,50.09128],[14.44367,50.09398],[14.44163,50.0941]]]}},{"type":"Feature","properties":{"cislo":8004,"mco":"Praha 8"},"geometry":{"type":"Polygon","coordinates":[[[14.44654,50.09302],[14.44858,50.09431],[14.4475,50.09643],[14.44147,50.09477],[14.44163,50.0941],[14.44367,50.09398],[14.44534,50.09128],[14.44706,50.09166],[14.44654,50.09302]]]}},{"type":"Feature","properties":{"cislo":8005,"mco":"Praha 8"},"geometry":{"type":"Polygon","coordinates":[[[14.45137,50.09409],[14.44654,50.09302],[14.44706,50.09166],[14.45223,50.09279],[14.45137,50.09409]]]}},{"type":"Feature","properties":{"cislo":8006,"mco":"Praha 8"},"geometry":{"type":"Polygon","coordinates":[[[14.45223,50.09279],[14.44706,50.09166],[14.44799,50.08986],[14.45347,50.09052],[14.45223,50.09279]]]}},{"type":"Feature","properties":{"cislo":8007,"mco":"Praha 8"},"geometry":{"type":"Polygon","coordinates":[[[14.45493,50.09941],[14.4475,50.09643],[14.44858,50.09431],[14.44654,50.09302],[14.45659,50.09525],[14.45493,50.09941]]]}},{"type":"Feature","properties":{"cislo":8008,"mco":"Praha 8"},"geometry":{"type":"Polygon","coordinates":[[[14.45223,50.09279],[14.45347,50.09052],[14.45544,50.09092],[14.45922,50.09179],[14.45876,50.09263],[14.45642,50.09171],[14.45535,50.09348],[14.45223,50.09279]]]}},{"type":"Feature","properties":{"cislo":8009,"mco":"Praha 8"},"geometry":{"type":"Polygon","coordinates":[[[14.45483,50.09486],[14.45137,50.09409],[14.45223,50.09279],[14.45535,50.09348],[14.45642,50.09171],[14.45483,50.09486]]]}},{"type":"Feature","properties":{"cislo":8010,"mco":"Praha 8"},"geometry":{"type":"Polygon","coordinates":[[[14.45799,50.09407],[14.4558,50.09507],[14.45483,50.09486],[14.45549,50.09352],[14.45799,50.09407]]]}},{"type":"Feature","properties":{"cislo":8011,"mco":"Praha 8"},"geometry":{"type":"Polygon","coordinates":[[[14.45843,50.09418],[14.45549,50.09352],[14.45642,50.09171],[14.45876,50.09263],[14.46024,50.09295],[14.45843,50.09418]]]}},{"type":"Feature","properties":{"cislo":8012,"mco":"Praha 8"},"geometry":{"type":"Polygon","coordinates":[[[14.46074,50.09472],[14.46002,50.09603],[14.4558,50.09507],[14.45799,50.09407],[14.46074,50.09472]]]}},{"type":"Feature","properties":{"cislo":8013,"mco":"Praha 8"},"geometry":{"type":"Polygon","coordinates":[[[14.45843,50.09418],[14.46024,50.09295],[14.45876,50.09263],[14.45922,50.09179],[14.46158,50.09212],[14.46074,50.09472],[14.45843,50.09418]]]}},{"type":"Feature","properties":{"cislo":8014,"mco":"Praha 8"},"geometry":{"type":"Polygon","coordinates":[[[14.46375,50.0974],[14.46236,50.0969],[14.46103,50.10065],[14.45866,50.10161],[14.45493,50.09941],[14.45659,50.09525],[14.46002,50.09603],[14.46074,50.09472],[14.46158,50.09212],[14.46819,50.0933],[14.46678,50.09578],[14.46375,50.0974]]]}},{"type":"Feature","properties":{"cislo":8015,"mco":"Praha 8"},"geometry":{"type":"Polygon","coordinates":[[[14.46754,50.09447],[14.47073,50.09648],[14.47044,50.09818],[14.46762,50.09883],[14.46375,50.0974],[14.46678,50.09578],[14.46754,50.09447]]]}},{"type":"Feature","properties":{"cislo":8016,"mco":"Praha 8"},"geometry":{"type":"Polygon","coordinates":[[[14.46004,50.10343],[14.45866,50.10161],[14.46103,50.10065],[14.46236,50.0969],[14.46762,50.09883],[14.47044,50.09818],[14.47073,50.09648],[14.46754,50.09447],[14.46819,50.0933],[14.46918,50.0931],[14.47562,50.09639],[14.47856,50.09778],[14.48374,50.10221],[14.48083,50.10158],[14.47725,50.10001],[14.47366,50.10163],[14.47342,50.1036],[14.46004,50.10343]]]}},{"type":"Feature","properties":{"cislo":8017,"mco":"Praha 8"},"geometry":{"type":"Polygon","coordinates":[[[14.47817,50.10317],[14.47366,50.10163],[14.47725,50.10001],[14.48083,50.10158],[14.4806,50.10397],[14.47817,50.10317]]]}},{"type":"Feature","properties":{"cislo":8018,"mco":"Praha 8"},"geometry":{"type":"Polygon","coordinates":[[[14.47342,50.1036],[14.47366,50.10163],[14.47629,50.10253],[14.47492,50.10404],[14.47342,50.1036]]]}},{"type":"Feature","properties":{"cislo":8019,"mco":"Praha 8"},"geometry":{"type":"Polygon","coordinates":[[[14.47701,50.10467],[14.47492,50.10404],[14.47629,50.10253],[14.47817,50.10317],[14.47701,50.10467]]]}},{"type":"Feature","properties":{"cislo":8020,"mco":"Praha 8"},"geometry":{"type":"Polygon","coordinates":[[[14.48075,50.10578],[14.47701,50.10467],[14.47817,50.10317],[14.4806,50.10397],[14.48075,50.10578]]]}},{"type":"Feature","properties":{"cislo":8021,"mco":"Praha 8"},"geometry":{"type":"Polygon","coordinates":[[[14.47762,50.10604],[14.47288,50.10596],[14.47342,50.1036],[14.48075,50.10578],[14.48076,50.10625],[14.47762,50.10604]]]}},{"type":"Feature","properties":{"cislo":8022,"mco":"Praha 8"},"geometry":{"type":"Polygon","coordinates":[[[14.44956,50.1132],[14.45723,50.11101],[14.4606,50.10621],[14.46004,50.10343],[14.47342,50.1036],[14.47288,50.10596],[14.47762,50.10604],[14.47661,50.10699],[14.47271,50.10667],[14.47232,50.10853],[14.46832,50.11165],[14.45401,50.11378],[14.44956,50.1132]]]}},{"type":"Feature","properties":{"cislo":8023,"mco":"Praha 8"},"geometry":{"type":"Polygon","coordinates":[[[14.47232,50.10853],[14.47271,50.10667],[14.47661,50.10699],[14.47391,50.10854],[14.47232,50.10853]]]}},{"type":"Feature","properties":{"cislo":8024,"mco":"Praha 8"},"geometry":{"type":"Polygon","coordinates":[[[14.47391,50.10854],[14.47661,50.10699],[14.47762,50.10604],[14.48076,50.10625],[14.48122,50.10876],[14.47871,50.10978],[14.47391,50.10854]]]}},{"type":"Feature","properties":{"cislo":8025,"mco":"Praha 8"},"geometry":{"type":"Polygon","coordinates":[[[14.46832,50.11165],[14.47232,50.10853],[14.47391,50.10854],[14.47871,50.10978],[14.47555,50.11123],[14.46832,50.11165]]]}},{"type":"Feature","properties":{"cislo":8026,"mco":"Praha 8"},"geometry":{"type":"Polygon","coordinates":[[[14.47212,50.11246],[14.46902,50.11163],[14.47555,50.11123],[14.47587,50.11254],[14.47212,50.11246]]]}},{"type":"Feature","properties":{"cislo":8027,"mco":"Praha 8"},"geometry":{"type":"Polygon","coordinates":[[[14.47585,50.11741],[14.4759,50.11605],[14.47667,50.11455],[14.47632,50.11345],[14.47587,50.11254],[14.47555,50.11123],[14.47871,50.10978],[14.48122,50.10876],[14.48285,50.10991],[14.49231,50.11219],[14.48859,50.11413],[14.4898,50.11536],[14.48275,50.11796],[14.47585,50.11741]]]}},{"type":"Feature","properties":{"cislo":8028,"mco":"Praha 8"},"geometry":{"type":"Polygon","coordinates":[[[14.47212,50.11246],[14.47587,50.11254],[14.47632,50.11345],[14.47292,50.11334],[14.47212,50.11246]]]}},{"type":"Feature","properties":{"cislo":8029,"mco":"Praha 8"},"geometry":{"type":"Polygon","coordinates":[[[14.47404,50.11467],[14.47204,50.11419],[14.47292,50.11334],[14.47632,50.11345],[14.47667,50.11455],[14.47437,50.11532],[14.47404,50.11467]]]}},{"type":"Feature","properties":{"cislo":8030,"mco":"Praha 8"},"geometry":{"type":"Polygon","coordinates":[[[14.47437,50.11532],[14.47096,50.11579],[14.47404,50.11467],[14.47437,50.11532]]]}},{"type":"Feature","properties":{"cislo":8031,"mco":"Praha 8"},"geometry":{"type":"Polygon","coordinates":[[[14.47115,50.11652],[14.47096,50.11579],[14.47437,50.11532],[14.47667,50.11455],[14.4759,50.11605],[14.47115,50.11652]]]}},{"type":"Feature","properties":{"cislo":8032,"mco":"Praha 8"},"geometry":{"type":"Polygon","coordinates":[[[14.4806,50.12487],[14.47517,50.121],[14.47448,50.12192],[14.4695,50.12056],[14.46636,50.11981],[14.46858,50.11819],[14.46727,50.1172],[14.4684,50.11586],[14.47115,50.11652],[14.4759,50.11605],[14.47585,50.11741],[14.47626,50.11926],[14.48122,50.12176],[14.48514,50.12471],[14.4824,50.12615],[14.4806,50.12487]]]}},{"type":"Feature","properties":{"cislo":8033,"mco":"Praha 8"},"geometry":{"type":"Polygon","coordinates":[[[14.47115,50.11652],[14.4684,50.11586],[14.47204,50.11419],[14.47404,50.11467],[14.47096,50.11579],[14.47115,50.11652]]]}},{"type":"Feature","properties":{"cislo":8034,"mco":"Praha 8"},"geometry":{"type":"Polygon","coordinates":[[[14.46552,50.11772],[14.45622,50.11672],[14.45703,50.11512],[14.45408,50.11467],[14.45401,50.11378],[14.46832,50.11165],[14.46902,50.11163],[14.47212,50.11246],[14.47292,50.11334],[14.47204,50.11419],[14.4684,50.11586],[14.46727,50.1172],[14.46552,50.11772]]]}},{"type":"Feature","properties":{"cislo":8035,"mco":"Praha 8"},"geometry":{"type":"Polygon","coordinates":[[[14.45925,50.1192],[14.45168,50.11744],[14.45408,50.11467],[14.45703,50.11512],[14.45622,50.11672],[14.46552,50.11772],[14.46698,50.11774],[14.46124,50.11968],[14.45925,50.1192]]]}},{"type":"Feature","properties":{"cislo":8036,"mco":"Praha 8"},"geometry":{"type":"Polygon","coordinates":[[[14.43771,50.11586],[14.44184,50.11589],[14.44545,50.11494],[14.44539,50.11349],[14.44956,50.1132],[14.45401,50.11378],[14.45408,50.11467],[14.45168,50.11744],[14.45925,50.1192],[14.44949,50.12093],[14.43771,50.11586]]]}},{"type":"Feature","properties":{"cislo":8037,"mco":"Praha 8"},"geometry":{"type":"Polygon","coordinates":[[[14.45525,50.12178],[14.44949,50.12093],[14.45925,50.1192],[14.46124,50.11968],[14.45554,50.12175],[14.45525,50.12178]]]}},{"type":"Feature","properties":{"cislo":8038,"mco":"Praha 8"},"geometry":{"type":"Polygon","coordinates":[[[14.46987,50.12116],[14.46345,50.12272],[14.46306,50.12146],[14.45554,50.12175],[14.46124,50.11968],[14.46698,50.11774],[14.46552,50.11772],[14.46727,50.1172],[14.46858,50.11819],[14.46636,50.11981],[14.4695,50.12056],[14.46987,50.12116]]]}},{"type":"Feature","properties":{"cislo":8039,"mco":"Praha 8"},"geometry":{"type":"Polygon","coordinates":[[[14.45628,50.125],[14.4537,50.12277],[14.45525,50.12178],[14.46306,50.12146],[14.46453,50.12627],[14.46111,50.12611],[14.45628,50.125]]]}},{"type":"Feature","properties":{"cislo":8040,"mco":"Praha 8"},"geometry":{"type":"Polygon","coordinates":[[[14.46987,50.12116],[14.4695,50.12056],[14.47448,50.12192],[14.47517,50.121],[14.4806,50.12487],[14.47276,50.1233],[14.4725,50.125],[14.46906,50.12503],[14.47134,50.12209],[14.46987,50.12116]]]}},{"type":"Feature","properties":{"cislo":8041,"mco":"Praha 8"},"geometry":{"type":"Polygon","coordinates":[[[14.46453,50.12627],[14.46345,50.12272],[14.46987,50.12116],[14.47134,50.12209],[14.46906,50.12503],[14.4725,50.125],[14.47273,50.12688],[14.47127,50.12664],[14.46453,50.12627]]]}},{"type":"Feature","properties":{"cislo":8042,"mco":"Praha 8"},"geometry":{"type":"Polygon","coordinates":[[[14.48574,50.12854],[14.48104,50.12901],[14.47748,50.12804],[14.47273,50.12688],[14.4725,50.125],[14.47276,50.1233],[14.4806,50.12487],[14.48574,50.12854]]]}},{"type":"Feature","properties":{"cislo":8043,"mco":"Praha 8"},"geometry":{"type":"Polygon","coordinates":[[[14.47669,50.12936],[14.47503,50.12896],[14.47232,50.12887],[14.47076,50.12793],[14.47127,50.12664],[14.47273,50.12688],[14.47748,50.12804],[14.47669,50.12936]]]}},{"type":"Feature","properties":{"cislo":8044,"mco":"Praha 8"},"geometry":{"type":"Polygon","coordinates":[[[14.47707,50.12871],[14.47748,50.12804],[14.48104,50.12901],[14.47707,50.12871]]]}},{"type":"Feature","properties":{"cislo":8045,"mco":"Praha 8"},"geometry":{"type":"Polygon","coordinates":[[[14.46459,50.12922],[14.46394,50.12625],[14.47127,50.12664],[14.47085,50.12777],[14.46459,50.12922]]]}},{"type":"Feature","properties":{"cislo":8046,"mco":"Praha 8"},"geometry":{"type":"Polygon","coordinates":[[[14.46986,50.12941],[14.46927,50.13041],[14.46459,50.12922],[14.47085,50.12777],[14.46986,50.12941]]]}},{"type":"Feature","properties":{"cislo":8047,"mco":"Praha 8"},"geometry":{"type":"Polygon","coordinates":[[[14.47402,50.13042],[14.47045,50.12956],[14.47232,50.12887],[14.47503,50.12896],[14.47436,50.1305],[14.47402,50.13042]]]}},{"type":"Feature","properties":{"cislo":8048,"mco":"Praha 8"},"geometry":{"type":"Polygon","coordinates":[[[14.47045,50.12956],[14.46986,50.12941],[14.47076,50.12793],[14.47232,50.12887],[14.47045,50.12956]]]}},{"type":"Feature","properties":{"cislo":8049,"mco":"Praha 8"},"geometry":{"type":"Polygon","coordinates":[[[14.47557,50.13079],[14.47669,50.12936],[14.47707,50.12871],[14.48104,50.12901],[14.48019,50.13044],[14.47899,50.13077],[14.47557,50.13079]]]}},{"type":"Feature","properties":{"cislo":8050,"mco":"Praha 8"},"geometry":{"type":"Polygon","coordinates":[[[14.47436,50.1305],[14.47503,50.12896],[14.47669,50.12936],[14.47557,50.13079],[14.47436,50.1305]]]}},{"type":"Feature","properties":{"cislo":8051,"mco":"Praha 8"},"geometry":{"type":"Polygon","coordinates":[[[14.47853,50.13321],[14.47601,50.13334],[14.4729,50.13297],[14.47402,50.13042],[14.47557,50.13079],[14.47899,50.13077],[14.47892,50.13255],[14.47853,50.13321]]]}},{"type":"Feature","properties":{"cislo":8052,"mco":"Praha 8"},"geometry":{"type":"Polygon","coordinates":[[[14.47899,50.13077],[14.48019,50.13044],[14.47892,50.13255],[14.47899,50.13077]]]}},{"type":"Feature","properties":{"cislo":8053,"mco":"Praha 8"},"geometry":{"type":"Polygon","coordinates":[[[14.47853,50.13321],[14.48104,50.12901],[14.48574,50.12854],[14.48711,50.12952],[14.4805,50.13368],[14.47853,50.13321]]]}},{"type":"Feature","properties":{"cislo":8054,"mco":"Praha 8"},"geometry":{"type":"Polygon","coordinates":[[[14.49563,50.13145],[14.49471,50.13616],[14.4888,50.13542],[14.4805,50.13368],[14.48711,50.12952],[14.49563,50.13145]]]}},{"type":"Feature","properties":{"cislo":8055,"mco":"Praha 8"},"geometry":{"type":"Polygon","coordinates":[[[14.47986,50.13977],[14.47682,50.14036],[14.4733,50.13826],[14.4743,50.1371],[14.47601,50.13334],[14.47853,50.13321],[14.4805,50.13368],[14.4888,50.13542],[14.48748,50.13828],[14.47863,50.13831],[14.47986,50.13977]]]}},{"type":"Feature","properties":{"cislo":8056,"mco":"Praha 8"},"geometry":{"type":"Polygon","coordinates":[[[14.4743,50.1371],[14.4705,50.13567],[14.47107,50.13277],[14.47601,50.13334],[14.4743,50.1371]]]}},{"type":"Feature","properties":{"cislo":8058,"mco":"Praha 8"},"geometry":{"type":"Polygon","coordinates":[[[14.47107,50.13277],[14.4705,50.13567],[14.46145,50.13281],[14.46173,50.13251],[14.46474,50.13258],[14.46533,50.13253],[14.47024,50.13267],[14.47107,50.13277]]]}},{"type":"Feature","properties":{"cislo":8059,"mco":"Praha 8"},"geometry":{"type":"Polygon","coordinates":[[[14.4729,50.13297],[14.47024,50.13267],[14.47268,50.13009],[14.47402,50.13042],[14.4729,50.13297]]]}},{"type":"Feature","properties":{"cislo":8060,"mco":"Praha 8"},"geometry":{"type":"Polygon","coordinates":[[[14.4669,50.12979],[14.46927,50.13041],[14.46986,50.12941],[14.47268,50.13009],[14.47024,50.13267],[14.46533,50.13253],[14.4669,50.12979]]]}},{"type":"Feature","properties":{"cislo":8061,"mco":"Praha 8"},"geometry":{"type":"Polygon","coordinates":[[[14.46474,50.13258],[14.46459,50.12922],[14.4669,50.12979],[14.46533,50.13253],[14.46474,50.13258]]]}},{"type":"Feature","properties":{"cislo":8062,"mco":"Praha 8"},"geometry":{"type":"Polygon","coordinates":[[[14.46173,50.13251],[14.463,50.12987],[14.46037,50.12978],[14.45959,50.1288],[14.46111,50.12611],[14.46394,50.12625],[14.46459,50.12922],[14.46474,50.13258],[14.46173,50.13251]]]}},{"type":"Feature","properties":{"cislo":8063,"mco":"Praha 8"},"geometry":{"type":"Polygon","coordinates":[[[14.46037,50.12978],[14.463,50.12987],[14.46173,50.13251],[14.46016,50.13014],[14.46037,50.12978]]]}},{"type":"Feature","properties":{"cislo":8064,"mco":"Praha 8"},"geometry":{"type":"Polygon","coordinates":[[[14.46145,50.13281],[14.4565,50.1371],[14.45241,50.13538],[14.4528,50.13209],[14.45198,50.12964],[14.45217,50.12706],[14.45959,50.1288],[14.46037,50.12978],[14.46016,50.13014],[14.46173,50.13251],[14.46145,50.13281]]]}},{"type":"Feature","properties":{"cislo":8065,"mco":"Praha 8"},"geometry":{"type":"Polygon","coordinates":[[[14.46111,50.12611],[14.45959,50.1288],[14.4533,50.1273],[14.45459,50.12452],[14.45472,50.12569],[14.45628,50.125],[14.46111,50.12611]]]}},{"type":"Feature","properties":{"cislo":8066,"mco":"Praha 8"},"geometry":{"type":"Polygon","coordinates":[[[14.4533,50.1273],[14.45217,50.12706],[14.45221,50.12395],[14.4537,50.12277],[14.45628,50.125],[14.45472,50.12569],[14.45459,50.12452],[14.4533,50.1273]]]}},{"type":"Feature","properties":{"cislo":8067,"mco":"Praha 8"},"geometry":{"type":"Polygon","coordinates":[[[14.45217,50.12706],[14.45086,50.12677],[14.44965,50.12449],[14.45221,50.12395],[14.45217,50.12706]]]}},{"type":"Feature","properties":{"cislo":8068,"mco":"Praha 8"},"geometry":{"type":"Polygon","coordinates":[[[14.449,50.12271],[14.44949,50.12093],[14.45525,50.12178],[14.4537,50.12277],[14.45221,50.12395],[14.44965,50.12449],[14.44939,50.12458],[14.449,50.12271]]]}},{"type":"Feature","properties":{"cislo":8069,"mco":"Praha 8"},"geometry":{"type":"Polygon","coordinates":[[[14.43477,50.1239],[14.43416,50.12342],[14.43345,50.11648],[14.43735,50.11557],[14.43771,50.11586],[14.44949,50.12093],[14.449,50.12271],[14.44101,50.12218],[14.437,50.12353],[14.43477,50.1239]]]}},{"type":"Feature","properties":{"cislo":8070,"mco":"Praha 8"},"geometry":{"type":"Polygon","coordinates":[[[14.437,50.12353],[14.44101,50.12218],[14.449,50.12271],[14.44939,50.12458],[14.44609,50.12552],[14.437,50.12353]]]}},{"type":"Feature","properties":{"cislo":8071,"mco":"Praha 8"},"geometry":{"type":"Polygon","coordinates":[[[14.43477,50.1239],[14.437,50.12353],[14.44609,50.12552],[14.44268,50.12587],[14.43641,50.12732],[14.43477,50.1239]]]}},{"type":"Feature","properties":{"cislo":8072,"mco":"Praha 8"},"geometry":{"type":"Polygon","coordinates":[[[14.44268,50.12587],[14.44609,50.12552],[14.44965,50.12449],[14.45086,50.12677],[14.44884,50.12633],[14.44869,50.12798],[14.44756,50.12885],[14.44268,50.12587]]]}},{"type":"Feature","properties":{"cislo":8073,"mco":"Praha 8"},"geometry":{"type":"Polygon","coordinates":[[[14.44869,50.12798],[14.44884,50.12633],[14.45217,50.12706],[14.45198,50.12964],[14.44869,50.12798]]]}},{"type":"Feature","properties":{"cislo":8074,"mco":"Praha 8"},"geometry":{"type":"Polygon","coordinates":[[[14.45198,50.12964],[14.4528,50.13209],[14.44728,50.12917],[14.44756,50.12885],[14.44869,50.12798],[14.45198,50.12964]]]}},{"type":"Feature","properties":{"cislo":8075,"mco":"Praha 8"},"geometry":{"type":"Polygon","coordinates":[[[14.44565,50.13056],[14.44728,50.12917],[14.4528,50.13209],[14.45241,50.13538],[14.44983,50.13542],[14.44565,50.13056]]]}},{"type":"Feature","properties":{"cislo":8077,"mco":"Praha 8"},"geometry":{"type":"Polygon","coordinates":[[[14.43363,50.1277],[14.43641,50.12732],[14.44268,50.12587],[14.44756,50.12885],[14.44728,50.12917],[14.44565,50.13056],[14.43633,50.1297],[14.43363,50.1277]]]}},{"type":"Feature","properties":{"cislo":8078,"mco":"Praha 8"},"geometry":{"type":"Polygon","coordinates":[[[14.44011,50.13585],[14.44028,50.13356],[14.43458,50.1327],[14.43016,50.13314],[14.4301,50.13276],[14.43143,50.12859],[14.43172,50.12752],[14.43363,50.1277],[14.43633,50.1297],[14.44565,50.13056],[14.44983,50.13542],[14.44011,50.13585]]]}},{"type":"Feature","properties":{"cislo":8079,"mco":"Praha 8"},"geometry":{"type":"Polygon","coordinates":[[[14.43016,50.13314],[14.43458,50.1327],[14.43381,50.13474],[14.43017,50.13505],[14.43016,50.13314]]]}},{"type":"Feature","properties":{"cislo":8080,"mco":"Praha 8"},"geometry":{"type":"Polygon","coordinates":[[[14.43017,50.13505],[14.43381,50.13474],[14.43563,50.13612],[14.42998,50.13699],[14.43017,50.13505]]]}},{"type":"Feature","properties":{"cislo":8081,"mco":"Praha 8"},"geometry":{"type":"Polygon","coordinates":[[[14.43381,50.13474],[14.43458,50.1327],[14.44028,50.13356],[14.44011,50.13585],[14.43563,50.13612],[14.43381,50.13474]]]}},{"type":"Feature","properties":{"cislo":8082,"mco":"Praha 8"},"geometry":{"type":"Polygon","coordinates":[[[14.425,50.13087],[14.42492,50.13025],[14.42896,50.13003],[14.42914,50.13282],[14.425,50.13087]]]}},{"type":"Feature","properties":{"cislo":8083,"mco":"Praha 8"},"geometry":{"type":"Polygon","coordinates":[[[14.42356,50.13142],[14.42308,50.13097],[14.42277,50.12873],[14.42504,50.1286],[14.42492,50.13025],[14.425,50.13087],[14.42356,50.13142]]]}},{"type":"Feature","properties":{"cislo":8084,"mco":"Praha 8"},"geometry":{"type":"Polygon","coordinates":[[[14.42914,50.13282],[14.42896,50.13003],[14.42492,50.13025],[14.42504,50.1286],[14.43143,50.12859],[14.4301,50.13276],[14.42914,50.13282]]]}},{"type":"Feature","properties":{"cislo":8085,"mco":"Praha 8"},"geometry":{"type":"Polygon","coordinates":[[[14.43069,50.14162],[14.42998,50.13788],[14.42998,50.13699],[14.43563,50.13612],[14.44011,50.13585],[14.44983,50.13542],[14.44881,50.13688],[14.4466,50.13644],[14.44481,50.13955],[14.43069,50.14162]]]}},{"type":"Feature","properties":{"cislo":8086,"mco":"Praha 8"},"geometry":{"type":"Polygon","coordinates":[[[14.43069,50.14162],[14.43744,50.14065],[14.43672,50.1417],[14.4334,50.14212],[14.42899,50.14248],[14.43069,50.14162]]]}},{"type":"Feature","properties":{"cislo":8087,"mco":"Praha 8"},"geometry":{"type":"Polygon","coordinates":[[[14.43827,50.14541],[14.43367,50.1451],[14.43107,50.14294],[14.4334,50.14212],[14.43672,50.1417],[14.43848,50.14375],[14.43827,50.14541]]]}},{"type":"Feature","properties":{"cislo":8088,"mco":"Praha 8"},"geometry":{"type":"Polygon","coordinates":[[[14.43367,50.1451],[14.43555,50.15003],[14.43644,50.152],[14.42258,50.14991],[14.4155,50.14845],[14.41704,50.14705],[14.41433,50.14275],[14.41744,50.14035],[14.41978,50.13885],[14.42998,50.13788],[14.43069,50.14162],[14.42899,50.14248],[14.4334,50.14212],[14.43107,50.14294],[14.43367,50.1451]]]}},{"type":"Feature","properties":{"cislo":8089,"mco":"Praha 8"},"geometry":{"type":"Polygon","coordinates":[[[14.42296,50.1301],[14.42308,50.13097],[14.41921,50.13118],[14.42296,50.1301]]]}},{"type":"Feature","properties":{"cislo":8090,"mco":"Praha 8"},"geometry":{"type":"Polygon","coordinates":[[[14.41773,50.13124],[14.41746,50.12926],[14.42277,50.12873],[14.42296,50.1301],[14.41921,50.13118],[14.41773,50.13124]]]}},{"type":"Feature","properties":{"cislo":8091,"mco":"Praha 8"},"geometry":{"type":"MultiPolygon","coordinates":[[[[14.42353,50.12868],[14.42329,50.12688],[14.42501,50.12531],[14.43172,50.12752],[14.43143,50.12859],[14.42504,50.1286],[14.42353,50.12868]]],[[[14.41956,50.12711],[14.41989,50.12602],[14.42123,50.12701],[14.42023,50.12808],[14.41956,50.12711]]]]}},{"type":"Feature","properties":{"cislo":8092,"mco":"Praha 8"},"geometry":{"type":"MultiPolygon","coordinates":[[[[14.43363,50.1277],[14.43172,50.12752],[14.42501,50.12531],[14.42373,50.12385],[14.42387,50.12046],[14.43416,50.12342],[14.43477,50.1239],[14.43641,50.12732],[14.43363,50.1277]]],[[[14.42277,50.12873],[14.41746,50.12926],[14.41719,50.12723],[14.41956,50.12711],[14.42023,50.12808],[14.42123,50.12701],[14.42329,50.12688],[14.42353,50.12868],[14.42277,50.12873]]]]}},{"type":"Feature","properties":{"cislo":8093,"mco":"Praha 8"},"geometry":{"type":"Polygon","coordinates":[[[14.42123,50.12701],[14.41989,50.12602],[14.41674,50.1262],[14.41645,50.12461],[14.42373,50.12385],[14.42501,50.12531],[14.42329,50.12688],[14.42123,50.12701]]]}},{"type":"Feature","properties":{"cislo":8094,"mco":"Praha 8"},"geometry":{"type":"Polygon","coordinates":[[[14.39817,50.14352],[14.39386,50.13835],[14.39257,50.13556],[14.40057,50.13053],[14.40163,50.13262],[14.40129,50.13457],[14.4042,50.13414],[14.41185,50.13456],[14.41113,50.13164],[14.41904,50.13119],[14.41896,50.13354],[14.4301,50.13276],[14.43016,50.13314],[14.43017,50.13505],[14.42998,50.13699],[14.42998,50.13788],[14.41978,50.13885],[14.41744,50.14035],[14.41433,50.14275],[14.41704,50.14705],[14.4155,50.14845],[14.4072,50.14705],[14.40005,50.14798],[14.39817,50.14352]]]}},{"type":"Feature","properties":{"cislo":8095,"mco":"Praha 8"},"geometry":{"type":"Polygon","coordinates":[[[14.40827,50.13402],[14.40721,50.13254],[14.40996,50.13205],[14.40991,50.1316],[14.41113,50.13164],[14.41185,50.13456],[14.40827,50.13402]]]}},{"type":"Feature","properties":{"cislo":8096,"mco":"Praha 8"},"geometry":{"type":"Polygon","coordinates":[[[14.40163,50.13262],[14.40651,50.13225],[14.40721,50.13254],[14.40827,50.13402],[14.4042,50.13414],[14.40129,50.13457],[14.40163,50.13262]]]}},{"type":"Feature","properties":{"cislo":8097,"mco":"Praha 8"},"geometry":{"type":"Polygon","coordinates":[[[14.40057,50.13053],[14.40095,50.12946],[14.40547,50.13027],[14.40876,50.13033],[14.40912,50.13061],[14.40991,50.1316],[14.40996,50.13205],[14.40651,50.13225],[14.40163,50.13262],[14.40057,50.13053]]]}},{"type":"Feature","properties":{"cislo":8098,"mco":"Praha 8"},"geometry":{"type":"Polygon","coordinates":[[[14.40721,50.13254],[14.40651,50.13225],[14.40996,50.13205],[14.40721,50.13254]]]}},{"type":"Feature","properties":{"cislo":8099,"mco":"Praha 8"},"geometry":{"type":"Polygon","coordinates":[[[14.41354,50.13063],[14.40912,50.13061],[14.40876,50.13033],[14.40873,50.1296],[14.41468,50.1292],[14.4167,50.12931],[14.41354,50.13063]]]}},{"type":"Feature","properties":{"cislo":8100,"mco":"Praha 8"},"geometry":{"type":"Polygon","coordinates":[[[14.41366,50.1315],[14.41354,50.13063],[14.4167,50.12931],[14.41746,50.12926],[14.41773,50.13124],[14.41366,50.1315]]]}},{"type":"Feature","properties":{"cislo":8101,"mco":"Praha 8"},"geometry":{"type":"Polygon","coordinates":[[[14.40912,50.13061],[14.41354,50.13063],[14.41366,50.1315],[14.41113,50.13164],[14.40991,50.1316],[14.40912,50.13061]]]}},{"type":"Feature","properties":{"cislo":8102,"mco":"Praha 8"},"geometry":{"type":"Polygon","coordinates":[[[14.42356,50.13142],[14.425,50.13087],[14.42914,50.13282],[14.42399,50.1332],[14.42356,50.13142]]]}},{"type":"Feature","properties":{"cislo":8103,"mco":"Praha 8"},"geometry":{"type":"Polygon","coordinates":[[[14.41904,50.13119],[14.42308,50.13097],[14.42356,50.13142],[14.42399,50.1332],[14.41896,50.13354],[14.41904,50.13119]]]}},{"type":"Feature","properties":{"cislo":8104,"mco":"Praha 8"},"geometry":{"type":"Polygon","coordinates":[[[14.41399,50.12742],[14.41381,50.12621],[14.40824,50.12682],[14.41149,50.12494],[14.41645,50.12461],[14.41689,50.12725],[14.41399,50.12742]]]}},{"type":"Feature","properties":{"cislo":8105,"mco":"Praha 8"},"geometry":{"type":"MultiPolygon","coordinates":[[[[14.40547,50.13027],[14.40824,50.12703],[14.40974,50.12766],[14.40873,50.1296],[14.40876,50.13033],[14.40547,50.13027]]],[[[14.4128,50.12749],[14.41719,50.12723],[14.41746,50.12926],[14.4167,50.12931],[14.41468,50.1292],[14.4128,50.12749]]]]}},{"type":"Feature","properties":{"cislo":8106,"mco":"Praha 8"},"geometry":{"type":"Polygon","coordinates":[[[14.40824,50.12703],[14.40824,50.12682],[14.41381,50.12621],[14.41399,50.12742],[14.40974,50.12766],[14.40824,50.12703]]]}},{"type":"Feature","properties":{"cislo":8076,"mco":"Praha 8"},"geometry":{"type":"MultiPolygon","coordinates":[[[[14.40873,50.1296],[14.40974,50.12766],[14.4128,50.12749],[14.41468,50.1292],[14.40873,50.1296]]],[[[14.41719,50.12723],[14.41689,50.12725],[14.41674,50.1262],[14.41989,50.12602],[14.41956,50.12711],[14.41719,50.12723]]]]}},{"type":"Feature","properties":{"cislo":8057,"mco":"Praha 8"},"geometry":{"type":"Polygon","coordinates":[[[14.4042,50.13414],[14.40827,50.13402],[14.41185,50.13456],[14.4042,50.13414]]]}}]}