{"type":"FeatureCollection","features":[{"type":"Feature","properties":{"cislo":39001,"mco":"Praha-Lipence"},"geometry":{"type":"Polygon","coordinates":[[[14.36239,49.981],[14.35754,49.97303],[14.35405,49.97178],[14.34714,49.97255],[14.34346,49.96643],[14.34106,49.96582],[14.33476,49.96761],[14.32736,49.96338],[14.3251,49.95801],[14.33219,49.95434],[14.33844,49.94856],[14.34327,49.94763],[14.3588,49.94876],[14.36046,49.94753],[14.36844,49.9514],[14.37175,49.9504],[14.37327,49.9472],[14.37458,49.95419],[14.37909,49.95669],[14.37785,49.96225],[14.37717,49.96338],[14.37343,49.96387],[14.36971,49.96593],[14.37162,49.97364],[14.36239,49.981]]]}}]}