{"type":"FeatureCollection","features":[{"type":"Feature","properties":{"cislo":25001,"mco":"Praha-Březiněves"},"geometry":{"type":"Polygon","coordinates":[[[14.46699,50.16962],[14.46685,50.1655],[14.46392,50.16495],[14.4642,50.16],[14.46051,50.15907],[14.46109,50.15466],[14.46705,50.15468],[14.46709,50.15358],[14.46892,50.15357],[14.46968,50.16064],[14.48887,50.16162],[14.48915,50.164],[14.49582,50.16209],[14.49955,50.16444],[14.50245,50.16409],[14.50536,50.16387],[14.50698,50.17151],[14.49806,50.17199],[14.4796,50.17237],[14.48023,50.16995],[14.46699,50.16962]]]}}]}