{"type":"FeatureCollection","features":[{"type":"Feature","properties":{"cislo":51001,"mco":"Praha-Štěrboholy"},"geometry":{"type":"Polygon","coordinates":[[[14.56432,50.07603],[14.54215,50.0691],[14.53538,50.06883],[14.53813,50.06701],[14.53717,50.06471],[14.53997,50.0652],[14.55711,50.06863],[14.55947,50.07137],[14.56815,50.07113],[14.56703,50.07437],[14.56432,50.07603]]]}},{"type":"Feature","properties":{"cislo":51002,"mco":"Praha-Štěrboholy"},"geometry":{"type":"Polygon","coordinates":[[[14.555,50.08178],[14.55437,50.08264],[14.54427,50.08014],[14.54323,50.08172],[14.53909,50.08103],[14.53942,50.07681],[14.53564,50.07746],[14.53425,50.07548],[14.53823,50.07463],[14.53767,50.07238],[14.53592,50.07341],[14.53139,50.07231],[14.53538,50.06883],[14.54215,50.0691],[14.56432,50.07603],[14.56315,50.07817],[14.56161,50.07716],[14.5617,50.08018],[14.5568,50.07933],[14.555,50.08178]]]}}]}