{"type":"FeatureCollection","features":[{"type":"Feature","properties":{"cislo":32001,"mco":"Praha-Klánovice"},"geometry":{"type":"Polygon","coordinates":[[[14.66531,50.08727],[14.67028,50.08751],[14.68587,50.08543],[14.68979,50.09609],[14.68872,50.09891],[14.69127,50.09996],[14.67549,50.10209],[14.66905,50.09533],[14.66531,50.08727]]]}},{"type":"Feature","properties":{"cislo":32002,"mco":"Praha-Klánovice"},"geometry":{"type":"Polygon","coordinates":[[[14.65751,50.10657],[14.6559,50.10441],[14.65837,50.10345],[14.64991,50.10041],[14.64878,50.09704],[14.64359,50.0978],[14.64259,50.09213],[14.63776,50.09015],[14.63799,50.09249],[14.63323,50.09166],[14.63683,50.08503],[14.66531,50.08727],[14.66905,50.09533],[14.67549,50.10209],[14.66867,50.10404],[14.66596,50.10272],[14.66069,50.1066],[14.65751,50.10657]]]}}]}