{"type":"FeatureCollection","features":[{"type":"Feature","properties":{"cislo":2001,"mco":"Praha 2"},"geometry":{"type":"Polygon","coordinates":[[[14.4349,50.07604],[14.43159,50.07849],[14.43051,50.07716],[14.43029,50.07553],[14.43526,50.0755],[14.43513,50.07594],[14.4349,50.07604]]]}},{"type":"Feature","properties":{"cislo":2002,"mco":"Praha 2"},"geometry":{"type":"Polygon","coordinates":[[[14.43045,50.07379],[14.43231,50.07213],[14.43368,50.0722],[14.43234,50.0755],[14.43029,50.07553],[14.43045,50.07379]]]}},{"type":"Feature","properties":{"cislo":2003,"mco":"Praha 2"},"geometry":{"type":"Polygon","coordinates":[[[14.43288,50.07928],[14.43159,50.07849],[14.4349,50.07604],[14.43633,50.07814],[14.43288,50.07928]]]}},{"type":"Feature","properties":{"cislo":2004,"mco":"Praha 2"},"geometry":{"type":"Polygon","coordinates":[[[14.43726,50.08666],[14.43284,50.08109],[14.43288,50.07928],[14.43633,50.07814],[14.43787,50.0778],[14.43565,50.07927],[14.43737,50.07938],[14.4396,50.08209],[14.44086,50.08523],[14.43933,50.08596],[14.43726,50.08666]]]}},{"type":"Feature","properties":{"cislo":2005,"mco":"Praha 2"},"geometry":{"type":"Polygon","coordinates":[[[14.43787,50.0778],[14.43864,50.07766],[14.4421,50.07783],[14.43737,50.07938],[14.43565,50.07927],[14.43787,50.0778]]]}},{"type":"Feature","properties":{"cislo":2006,"mco":"Praha 2"},"geometry":{"type":"Polygon","coordinates":[[[14.44564,50.08126],[14.44398,50.08157],[14.44483,50.07938],[14.44759,50.07988],[14.44564,50.08126]]]}},{"type":"Feature","properties":{"cislo":2007,"mco":"Praha 2"},"geometry":{"type":"Polygon","coordinates":[[[14.44807,50.0793],[14.44759,50.07988],[14.44483,50.07938],[14.44512,50.07861],[14.44857,50.07835],[14.44826,50.07908],[14.44807,50.0793]]]}},{"type":"Feature","properties":{"cislo":2008,"mco":"Praha 2"},"geometry":{"type":"Polygon","coordinates":[[[14.44512,50.07861],[14.44495,50.0771],[14.44906,50.07723],[14.44857,50.07835],[14.44512,50.07861]]]}},{"type":"Feature","properties":{"cislo":2009,"mco":"Praha 2"},"geometry":{"type":"Polygon","coordinates":[[[14.44398,50.07708],[14.44202,50.07713],[14.44004,50.07623],[14.44064,50.07448],[14.44399,50.07542],[14.44398,50.07708]]]}},{"type":"Feature","properties":{"cislo":2010,"mco":"Praha 2"},"geometry":{"type":"Polygon","coordinates":[[[14.44399,50.07542],[14.44064,50.07448],[14.44045,50.07367],[14.44176,50.07311],[14.44306,50.07264],[14.44402,50.07271],[14.44209,50.07388],[14.44401,50.0745],[14.44399,50.07542]]]}},{"type":"Feature","properties":{"cislo":2011,"mco":"Praha 2"},"geometry":{"type":"Polygon","coordinates":[[[14.44004,50.07623],[14.43775,50.07591],[14.43833,50.07249],[14.44045,50.07367],[14.44064,50.07448],[14.44004,50.07623]]]}},{"type":"Feature","properties":{"cislo":2012,"mco":"Praha 2"},"geometry":{"type":"Polygon","coordinates":[[[14.43737,50.07938],[14.4421,50.07783],[14.44202,50.07713],[14.44495,50.0771],[14.44512,50.07861],[14.44398,50.08157],[14.4396,50.08209],[14.43737,50.07938]]]}},{"type":"Feature","properties":{"cislo":2013,"mco":"Praha 2"},"geometry":{"type":"Polygon","coordinates":[[[14.43633,50.07814],[14.4349,50.07604],[14.43513,50.07594],[14.43775,50.07591],[14.43911,50.07609],[14.43864,50.07766],[14.43633,50.07814]]]}},{"type":"Feature","properties":{"cislo":2014,"mco":"Praha 2"},"geometry":{"type":"Polygon","coordinates":[[[14.43864,50.07766],[14.43911,50.07609],[14.44004,50.07623],[14.44202,50.07713],[14.4421,50.07783],[14.43864,50.07766]]]}},{"type":"Feature","properties":{"cislo":2015,"mco":"Praha 2"},"geometry":{"type":"Polygon","coordinates":[[[14.44398,50.07708],[14.44401,50.0745],[14.44593,50.07451],[14.44863,50.07543],[14.44913,50.07543],[14.44906,50.07723],[14.44398,50.07708]]]}},{"type":"Feature","properties":{"cislo":2016,"mco":"Praha 2"},"geometry":{"type":"Polygon","coordinates":[[[14.44401,50.0745],[14.44209,50.07388],[14.44402,50.07271],[14.44595,50.07272],[14.44593,50.07451],[14.44401,50.0745]]]}},{"type":"Feature","properties":{"cislo":2017,"mco":"Praha 2"},"geometry":{"type":"Polygon","coordinates":[[[14.44593,50.07451],[14.44595,50.07272],[14.44928,50.07276],[14.44935,50.07424],[14.44863,50.07543],[14.44593,50.07451]]]}},{"type":"Feature","properties":{"cislo":2018,"mco":"Praha 2"},"geometry":{"type":"Polygon","coordinates":[[[14.43775,50.07591],[14.43513,50.07594],[14.43655,50.07186],[14.43833,50.07249],[14.43775,50.07591]]]}},{"type":"Feature","properties":{"cislo":2019,"mco":"Praha 2"},"geometry":{"type":"Polygon","coordinates":[[[14.43234,50.0755],[14.43368,50.0722],[14.43616,50.07292],[14.43526,50.0755],[14.43234,50.0755]]]}},{"type":"Feature","properties":{"cislo":2020,"mco":"Praha 2"},"geometry":{"type":"Polygon","coordinates":[[[14.43368,50.0722],[14.43231,50.07213],[14.431,50.06948],[14.4338,50.07059],[14.43333,50.06887],[14.43531,50.06935],[14.43368,50.0722]]]}},{"type":"Feature","properties":{"cislo":2021,"mco":"Praha 2"},"geometry":{"type":"Polygon","coordinates":[[[14.43368,50.0722],[14.43531,50.06935],[14.43599,50.06937],[14.43655,50.07004],[14.43655,50.07186],[14.43616,50.07292],[14.43368,50.0722]]]}},{"type":"Feature","properties":{"cislo":2022,"mco":"Praha 2"},"geometry":{"type":"Polygon","coordinates":[[[14.43833,50.07249],[14.43655,50.07186],[14.43655,50.07004],[14.43969,50.07107],[14.44176,50.07311],[14.44045,50.07367],[14.43833,50.07249]]]}},{"type":"Feature","properties":{"cislo":2023,"mco":"Praha 2"},"geometry":{"type":"Polygon","coordinates":[[[14.44176,50.07311],[14.43969,50.07107],[14.44155,50.07037],[14.44287,50.07221],[14.44306,50.07264],[14.44176,50.07311]]]}},{"type":"Feature","properties":{"cislo":2024,"mco":"Praha 2"},"geometry":{"type":"Polygon","coordinates":[[[14.43969,50.07107],[14.43655,50.07004],[14.43599,50.06937],[14.43688,50.0681],[14.44094,50.06649],[14.44521,50.06794],[14.44865,50.06832],[14.44711,50.0701],[14.44373,50.07153],[14.44287,50.07221],[14.44155,50.07037],[14.43969,50.07107]]]}},{"type":"Feature","properties":{"cislo":2025,"mco":"Praha 2"},"geometry":{"type":"Polygon","coordinates":[[[14.431,50.06948],[14.43115,50.0682],[14.42894,50.06844],[14.42339,50.0659],[14.42807,50.06674],[14.43098,50.06675],[14.43482,50.06828],[14.43625,50.06681],[14.43688,50.0681],[14.43599,50.06937],[14.43531,50.06935],[14.43333,50.06887],[14.4338,50.07059],[14.431,50.06948]]]}},{"type":"Feature","properties":{"cislo":2026,"mco":"Praha 2"},"geometry":{"type":"Polygon","coordinates":[[[14.43098,50.06675],[14.43334,50.06722],[14.4351,50.06585],[14.43625,50.06681],[14.43482,50.06828],[14.43098,50.06675]]]}},{"type":"Feature","properties":{"cislo":2027,"mco":"Praha 2"},"geometry":{"type":"Polygon","coordinates":[[[14.43334,50.06722],[14.43098,50.06675],[14.42807,50.06674],[14.42809,50.06613],[14.43354,50.06512],[14.4351,50.06585],[14.43334,50.06722]]]}},{"type":"Feature","properties":{"cislo":2028,"mco":"Praha 2"},"geometry":{"type":"Polygon","coordinates":[[[14.42809,50.06613],[14.42691,50.06463],[14.43021,50.0646],[14.43052,50.06454],[14.43354,50.06512],[14.42809,50.06613]]]}},{"type":"Feature","properties":{"cislo":2029,"mco":"Praha 2"},"geometry":{"type":"Polygon","coordinates":[[[14.42807,50.06674],[14.42339,50.0659],[14.42326,50.06571],[14.42691,50.06463],[14.42809,50.06613],[14.42807,50.06674]]]}},{"type":"Feature","properties":{"cislo":2030,"mco":"Praha 2"},"geometry":{"type":"Polygon","coordinates":[[[14.42326,50.06571],[14.42173,50.06478],[14.42485,50.0623],[14.43021,50.0646],[14.42691,50.06463],[14.42326,50.06571]]]}},{"type":"Feature","properties":{"cislo":2031,"mco":"Praha 2"},"geometry":{"type":"Polygon","coordinates":[[[14.41713,50.06768],[14.4135,50.06717],[14.41588,50.06188],[14.41856,50.06326],[14.42351,50.06151],[14.42441,50.06171],[14.42485,50.0623],[14.42173,50.06478],[14.42326,50.06571],[14.42333,50.06581],[14.41713,50.06768]]]}},{"type":"Feature","properties":{"cislo":2032,"mco":"Praha 2"},"geometry":{"type":"Polygon","coordinates":[[[14.4168,50.06939],[14.41665,50.07081],[14.41298,50.06914],[14.4135,50.06717],[14.41713,50.06768],[14.4168,50.06939]]]}},{"type":"Feature","properties":{"cislo":2033,"mco":"Praha 2"},"geometry":{"type":"Polygon","coordinates":[[[14.42961,50.06946],[14.42775,50.06925],[14.42804,50.07173],[14.42241,50.07069],[14.42316,50.07285],[14.42027,50.07146],[14.41836,50.07209],[14.41864,50.06979],[14.4168,50.06939],[14.41713,50.06768],[14.42333,50.06581],[14.42339,50.0659],[14.42894,50.06844],[14.42961,50.06946]]]}},{"type":"Feature","properties":{"cislo":2034,"mco":"Praha 2"},"geometry":{"type":"Polygon","coordinates":[[[14.41227,50.07293],[14.4124,50.07237],[14.41272,50.07031],[14.41298,50.06914],[14.41665,50.07081],[14.4168,50.06939],[14.41864,50.06979],[14.41836,50.07209],[14.41861,50.07358],[14.41752,50.0738],[14.41227,50.07293]]]}},{"type":"Feature","properties":{"cislo":2035,"mco":"Praha 2"},"geometry":{"type":"Polygon","coordinates":[[[14.43231,50.07213],[14.43045,50.07379],[14.42941,50.07246],[14.42961,50.06946],[14.42894,50.06844],[14.43115,50.0682],[14.431,50.06948],[14.43231,50.07213]]]}},{"type":"Feature","properties":{"cislo":2036,"mco":"Praha 2"},"geometry":{"type":"Polygon","coordinates":[[[14.42671,50.07732],[14.42848,50.07557],[14.42733,50.07301],[14.42941,50.07246],[14.43045,50.07379],[14.43029,50.07553],[14.43051,50.07716],[14.42671,50.07732]]]}},{"type":"Feature","properties":{"cislo":2037,"mco":"Praha 2"},"geometry":{"type":"Polygon","coordinates":[[[14.42169,50.07574],[14.42272,50.07373],[14.41861,50.07358],[14.41836,50.07209],[14.42027,50.07146],[14.42316,50.07285],[14.42241,50.07069],[14.42804,50.07173],[14.42775,50.06925],[14.42961,50.06946],[14.42941,50.07246],[14.42733,50.07301],[14.42848,50.07557],[14.42593,50.0746],[14.42169,50.07574]]]}},{"type":"Feature","properties":{"cislo":2038,"mco":"Praha 2"},"geometry":{"type":"Polygon","coordinates":[[[14.42184,50.0788],[14.4192,50.0759],[14.42169,50.07574],[14.42593,50.0746],[14.42848,50.07557],[14.42671,50.07732],[14.42134,50.07758],[14.42184,50.0788]]]}},{"type":"Feature","properties":{"cislo":2039,"mco":"Praha 2"},"geometry":{"type":"Polygon","coordinates":[[[14.41968,50.07924],[14.41417,50.0764],[14.4167,50.07583],[14.4192,50.0759],[14.42184,50.0788],[14.42208,50.07916],[14.41968,50.07924]]]}},{"type":"Feature","properties":{"cislo":2040,"mco":"Praha 2"},"geometry":{"type":"Polygon","coordinates":[[[14.41417,50.0764],[14.41158,50.07567],[14.41205,50.07363],[14.41227,50.07293],[14.41752,50.0738],[14.41509,50.07425],[14.41478,50.0757],[14.4167,50.07583],[14.41417,50.0764]]]}},{"type":"Feature","properties":{"cislo":2041,"mco":"Praha 2"},"geometry":{"type":"Polygon","coordinates":[[[14.41752,50.0738],[14.41861,50.07358],[14.42272,50.07373],[14.42169,50.07574],[14.4192,50.0759],[14.4167,50.07583],[14.41478,50.0757],[14.41509,50.07425],[14.41752,50.0738]]]}}]}