{"type":"FeatureCollection","features":[{"type":"Feature","properties":{"cislo":22001,"mco":"Praha 22"},"geometry":{"type":"Polygon","coordinates":[[[14.60425,50.04233],[14.6011,50.03971],[14.60324,50.03712],[14.59986,50.03302],[14.6019,50.0297],[14.61016,50.03106],[14.62119,50.02496],[14.62952,50.02482],[14.63093,50.02668],[14.62901,50.03547],[14.62466,50.03646],[14.62485,50.0385],[14.62302,50.03802],[14.62235,50.03965],[14.6222,50.041],[14.626,50.04226],[14.61523,50.04699],[14.6049,50.04712],[14.60425,50.04233]]]}},{"type":"Feature","properties":{"cislo":22002,"mco":"Praha 22"},"geometry":{"type":"Polygon","coordinates":[[[14.59804,50.02938],[14.59144,50.02778],[14.59251,50.02673],[14.58718,50.02305],[14.59119,50.02153],[14.59266,50.02298],[14.59011,50.02416],[14.59299,50.02623],[14.60043,50.02105],[14.60874,50.02127],[14.60143,50.02934],[14.59804,50.02938]]]}},{"type":"Feature","properties":{"cislo":22003,"mco":"Praha 22"},"geometry":{"type":"Polygon","coordinates":[[[14.61016,50.03106],[14.6019,50.0297],[14.60143,50.02934],[14.60874,50.02127],[14.60972,50.0209],[14.60975,50.02111],[14.62157,50.02202],[14.61862,50.02498],[14.62119,50.02496],[14.61016,50.03106]]]}},{"type":"Feature","properties":{"cislo":22004,"mco":"Praha 22"},"geometry":{"type":"Polygon","coordinates":[[[14.6011,50.03971],[14.59352,50.03277],[14.59804,50.02938],[14.60143,50.02934],[14.6019,50.0297],[14.59986,50.03302],[14.60324,50.03712],[14.6011,50.03971]]]}},{"type":"Feature","properties":{"cislo":22005,"mco":"Praha 22"},"geometry":{"type":"Polygon","coordinates":[[[14.57575,50.04206],[14.59352,50.03277],[14.6011,50.03971],[14.60425,50.04233],[14.6049,50.04712],[14.59633,50.04855],[14.58726,50.04848],[14.58441,50.04707],[14.5834,50.04885],[14.58018,50.04939],[14.58086,50.04786],[14.57575,50.04206]]]}},{"type":"Feature","properties":{"cislo":22006,"mco":"Praha 22"},"geometry":{"type":"Polygon","coordinates":[[[14.59352,50.03277],[14.57575,50.04206],[14.57153,50.04108],[14.56923,50.03815],[14.57202,50.03669],[14.57577,50.03418],[14.57944,50.03256],[14.58753,50.032],[14.58877,50.03072],[14.59352,50.03277]]]}},{"type":"Feature","properties":{"cislo":22008,"mco":"Praha 22"},"geometry":{"type":"Polygon","coordinates":[[[14.57944,50.03256],[14.57015,50.02935],[14.5729,50.02555],[14.57116,50.02336],[14.5737,50.02301],[14.5714,50.01793],[14.57395,50.01764],[14.57337,50.01326],[14.57524,50.01268],[14.58246,50.01644],[14.58178,50.01102],[14.58715,50.01153],[14.58793,50.0101],[14.59173,50.01246],[14.59088,50.01368],[14.59497,50.01472],[14.59353,50.0159],[14.59085,50.01525],[14.59018,50.01684],[14.5941,50.01788],[14.59362,50.0191],[14.59595,50.01785],[14.59738,50.01963],[14.59119,50.02153],[14.58718,50.02305],[14.59251,50.02673],[14.59144,50.02778],[14.58877,50.03072],[14.58753,50.032],[14.57944,50.03256]]]}},{"type":"Feature","properties":{"cislo":22009,"mco":"Praha 22"},"geometry":{"type":"Polygon","coordinates":[[[14.62213,50.06298],[14.61997,50.06295],[14.6213,50.05691],[14.6158,50.05761],[14.61578,50.05573],[14.60218,50.05528],[14.60297,50.05346],[14.59732,50.05393],[14.59603,50.05214],[14.59633,50.04855],[14.6049,50.04712],[14.61523,50.04699],[14.626,50.04226],[14.62758,50.04137],[14.62746,50.04423],[14.63158,50.04632],[14.64029,50.04848],[14.64026,50.05697],[14.6379,50.05717],[14.63131,50.05359],[14.62546,50.05563],[14.62459,50.05918],[14.62732,50.06064],[14.62344,50.06099],[14.62444,50.06276],[14.62213,50.06298]]]}},{"type":"Feature","properties":{"cislo":22007,"mco":"Praha 22"},"geometry":{"type":"Polygon","coordinates":[[[14.59352,50.03277],[14.58877,50.03072],[14.59144,50.02778],[14.59804,50.02938],[14.59352,50.03277]]]}}]}