{"type":"FeatureCollection","features":[{"type":"Feature","properties":{"cislo":29002,"mco":"Praha-Dolní Měcholupy"},"geometry":{"type":"Polygon","coordinates":[[[14.56815,50.07113],[14.55947,50.07137],[14.55711,50.06863],[14.53997,50.0652],[14.54253,50.05911],[14.5454,50.05925],[14.54925,50.05706],[14.56439,50.06101],[14.57166,50.06109],[14.56815,50.07113]]]}},{"type":"Feature","properties":{"cislo":29001,"mco":"Praha-Dolní Měcholupy"},"geometry":{"type":"Polygon","coordinates":[[[14.54925,50.05706],[14.55075,50.05688],[14.54923,50.05585],[14.54693,50.05657],[14.54593,50.0544],[14.54512,50.05378],[14.5461,50.05374],[14.55094,50.05454],[14.5529,50.05189],[14.5564,50.05218],[14.55719,50.04992],[14.56091,50.05055],[14.56292,50.05195],[14.5637,50.05089],[14.56693,50.05152],[14.57105,50.04753],[14.56857,50.04637],[14.57563,50.04201],[14.57575,50.04206],[14.58086,50.04786],[14.58018,50.04939],[14.57552,50.05179],[14.57791,50.05562],[14.57591,50.05778],[14.57804,50.05772],[14.5783,50.05736],[14.57838,50.05734],[14.57695,50.06185],[14.57166,50.06109],[14.56439,50.06101],[14.54925,50.05706]]]}}]}