{"type":"FeatureCollection","features":[{"type":"Feature","properties":{"cislo":24001,"mco":"Praha-Benice"},"geometry":{"type":"Polygon","coordinates":[[[14.60874,50.02127],[14.60043,50.02105],[14.59299,50.02623],[14.59011,50.02416],[14.59266,50.02298],[14.59119,50.02153],[14.59738,50.01963],[14.59595,50.01785],[14.59362,50.0191],[14.5941,50.01788],[14.59018,50.01684],[14.59085,50.01525],[14.59353,50.0159],[14.59497,50.01472],[14.59088,50.01368],[14.59173,50.01246],[14.58793,50.0101],[14.58923,50.00873],[14.59448,50.01012],[14.59504,50.00722],[14.60233,50.0095],[14.60397,50.002],[14.6079,50.00301],[14.60931,50.0019],[14.6091,50.00299],[14.61393,50.00398],[14.61334,50.00769],[14.61634,50.01232],[14.61353,50.01427],[14.61445,50.01548],[14.61168,50.01624],[14.61175,50.01896],[14.60871,50.01979],[14.60972,50.0209],[14.60874,50.02127]]]}}]}