{"type":"FeatureCollection","features":[{"type":"Feature","properties":{"cislo":46001,"mco":"Praha-Řeporyje"},"geometry":{"type":"MultiPolygon","coordinates":[[[[14.31629,50.03281],[14.32774,50.03498],[14.32582,50.03841],[14.32381,50.03991],[14.31855,50.04099],[14.3145,50.03673],[14.31629,50.03281]]],[[[14.312,50.03337],[14.31482,50.03499],[14.3118,50.03339],[14.312,50.03337]]]]}},{"type":"Feature","properties":{"cislo":46002,"mco":"Praha-Řeporyje"},"geometry":{"type":"Polygon","coordinates":[[[14.31494,50.04378],[14.30802,50.04536],[14.30722,50.04413],[14.30073,50.03898],[14.28892,50.03633],[14.28213,50.03197],[14.28908,50.02727],[14.30305,50.03285],[14.3111,50.0322],[14.3118,50.03339],[14.31482,50.03499],[14.312,50.03337],[14.31629,50.03281],[14.3145,50.03673],[14.31855,50.04099],[14.31593,50.04334],[14.31494,50.04378]]]}},{"type":"Feature","properties":{"cislo":46003,"mco":"Praha-Řeporyje"},"geometry":{"type":"Polygon","coordinates":[[[14.28908,50.02727],[14.29389,50.02556],[14.29789,50.0236],[14.30039,50.02473],[14.31594,50.02367],[14.3166,50.01999],[14.31153,50.00706],[14.3065,50.00803],[14.30086,50.01189],[14.3006,50.00446],[14.29492,50.00234],[14.30191,50.00003],[14.3011,49.99787],[14.30646,49.99728],[14.31017,49.99392],[14.31403,49.99486],[14.31817,49.98897],[14.33321,49.99337],[14.33128,49.99496],[14.32671,49.99358],[14.32295,49.99597],[14.3179,49.99551],[14.31906,50.00476],[14.32174,50.00517],[14.32309,50.00902],[14.32534,50.00917],[14.32965,50.01404],[14.32401,50.02164],[14.32851,50.0214],[14.33173,50.02353],[14.335,50.02915],[14.33383,50.03086],[14.33585,50.03176],[14.33539,50.03352],[14.33099,50.03279],[14.32774,50.03498],[14.31629,50.03281],[14.3118,50.03339],[14.3111,50.0322],[14.30305,50.03285],[14.28908,50.02727]]]}}]}