{"type":"FeatureCollection","features":[{"type":"Feature","properties":{"cislo":33001,"mco":"Praha-Koloděje"},"geometry":{"type":"Polygon","coordinates":[[[14.63941,50.07255],[14.63153,50.07047],[14.62914,50.0727],[14.62648,50.0718],[14.62531,50.07466],[14.62275,50.07485],[14.62443,50.07049],[14.61776,50.06796],[14.61915,50.06483],[14.62258,50.0644],[14.62213,50.06298],[14.62444,50.06276],[14.62344,50.06099],[14.62732,50.06064],[14.62459,50.05918],[14.62546,50.05563],[14.63131,50.05359],[14.6379,50.05717],[14.64026,50.05697],[14.6459,50.05881],[14.64491,50.06013],[14.65221,50.05961],[14.65152,50.06202],[14.65817,50.06114],[14.66069,50.06281],[14.65038,50.07014],[14.64335,50.07122],[14.63941,50.07255]]]}}]}