{"type":"FeatureCollection","features":[{"type":"Feature","properties":{"cislo":19001,"mco":"Praha 19"},"geometry":{"type":"Polygon","coordinates":[[[14.54598,50.14725],[14.54375,50.14705],[14.54407,50.14242],[14.54061,50.14295],[14.54055,50.14041],[14.53512,50.14022],[14.53564,50.13534],[14.54728,50.13514],[14.54849,50.13356],[14.54951,50.13381],[14.55024,50.13611],[14.55033,50.13752],[14.54699,50.13802],[14.54677,50.14503],[14.54598,50.14725]]]}},{"type":"Feature","properties":{"cislo":19002,"mco":"Praha 19"},"geometry":{"type":"Polygon","coordinates":[[[14.55161,50.13976],[14.55033,50.13752],[14.55024,50.13611],[14.55595,50.13645],[14.55161,50.13976]]]}},{"type":"Feature","properties":{"cislo":19003,"mco":"Praha 19"},"geometry":{"type":"Polygon","coordinates":[[[14.5677,50.1341],[14.56728,50.1359],[14.56166,50.13326],[14.55559,50.1332],[14.55499,50.13124],[14.55104,50.13081],[14.55106,50.13375],[14.54951,50.13381],[14.54849,50.13356],[14.54694,50.13045],[14.52526,50.12176],[14.52764,50.12142],[14.52655,50.118],[14.53119,50.11745],[14.5375,50.11702],[14.54314,50.11736],[14.54551,50.11774],[14.54515,50.11969],[14.55304,50.1217],[14.55685,50.12277],[14.55955,50.12245],[14.55923,50.12026],[14.56264,50.12065],[14.56365,50.13304],[14.5677,50.1341]]]}},{"type":"Feature","properties":{"cislo":19004,"mco":"Praha 19"},"geometry":{"type":"MultiPolygon","coordinates":[[[[14.56166,50.13326],[14.55872,50.14384],[14.55581,50.14389],[14.55161,50.13976],[14.55595,50.13645],[14.55024,50.13611],[14.54951,50.13381],[14.55106,50.13375],[14.55104,50.13081],[14.55499,50.13124],[14.55559,50.1332],[14.56166,50.13326]]],[[[14.53564,50.13534],[14.53547,50.13415],[14.54194,50.12845],[14.54694,50.13045],[14.54849,50.13356],[14.54728,50.13514],[14.53564,50.13534]]]]}},{"type":"Feature","properties":{"cislo":19005,"mco":"Praha 19"},"geometry":{"type":"Polygon","coordinates":[[[14.53547,50.13415],[14.53536,50.13111],[14.52595,50.12908],[14.52495,50.12761],[14.52184,50.12625],[14.52463,50.12604],[14.52526,50.12176],[14.54194,50.12845],[14.53547,50.13415]]]}},{"type":"Feature","properties":{"cislo":19006,"mco":"Praha 19"},"geometry":{"type":"Polygon","coordinates":[[[14.55033,50.13752],[14.55161,50.13976],[14.55581,50.14389],[14.54677,50.14503],[14.54699,50.13802],[14.55033,50.13752]]]}}]}