{"type":"FeatureCollection","features":[{"type":"Feature","properties":{"cislo":4001,"mco":"Praha 4"},"geometry":{"type":"Polygon","coordinates":[[[14.44094,50.06649],[14.43688,50.0681],[14.43625,50.06681],[14.4351,50.06585],[14.43416,50.06539],[14.44025,50.06486],[14.44132,50.06421],[14.44421,50.06524],[14.44194,50.06614],[14.44094,50.06649]]]}},{"type":"Feature","properties":{"cislo":4002,"mco":"Praha 4"},"geometry":{"type":"Polygon","coordinates":[[[14.43416,50.06539],[14.43354,50.06512],[14.43052,50.06454],[14.43288,50.06347],[14.43543,50.06317],[14.44025,50.06486],[14.43416,50.06539]]]}},{"type":"Feature","properties":{"cislo":4003,"mco":"Praha 4"},"geometry":{"type":"Polygon","coordinates":[[[14.44025,50.06486],[14.43543,50.06317],[14.43589,50.0625],[14.43989,50.0628],[14.44297,50.06343],[14.44132,50.06421],[14.44025,50.06486]]]}},{"type":"Feature","properties":{"cislo":4004,"mco":"Praha 4"},"geometry":{"type":"Polygon","coordinates":[[[14.44573,50.06445],[14.44421,50.06524],[14.44132,50.06421],[14.44411,50.06289],[14.44573,50.06445]]]}},{"type":"Feature","properties":{"cislo":4005,"mco":"Praha 4"},"geometry":{"type":"Polygon","coordinates":[[[14.43613,50.06068],[14.442,50.06062],[14.44246,50.06209],[14.43989,50.0628],[14.43589,50.0625],[14.43613,50.06068]]]}},{"type":"Feature","properties":{"cislo":4006,"mco":"Praha 4"},"geometry":{"type":"Polygon","coordinates":[[[14.44297,50.06343],[14.43989,50.0628],[14.44246,50.06209],[14.44571,50.06196],[14.44411,50.06289],[14.44297,50.06343]]]}},{"type":"Feature","properties":{"cislo":4007,"mco":"Praha 4"},"geometry":{"type":"Polygon","coordinates":[[[14.44221,50.06135],[14.44717,50.06041],[14.44791,50.06103],[14.44638,50.06164],[14.44571,50.06196],[14.44246,50.06209],[14.44221,50.06135]]]}},{"type":"Feature","properties":{"cislo":4008,"mco":"Praha 4"},"geometry":{"type":"Polygon","coordinates":[[[14.44411,50.06289],[14.44571,50.06196],[14.44638,50.06164],[14.44786,50.06299],[14.44773,50.06364],[14.44573,50.06445],[14.44411,50.06289]]]}},{"type":"Feature","properties":{"cislo":4009,"mco":"Praha 4"},"geometry":{"type":"Polygon","coordinates":[[[14.44949,50.06186],[14.44786,50.06299],[14.44638,50.06164],[14.44791,50.06103],[14.4498,50.06002],[14.45022,50.0603],[14.44949,50.06186]]]}},{"type":"Feature","properties":{"cislo":4010,"mco":"Praha 4"},"geometry":{"type":"Polygon","coordinates":[[[14.4499,50.06294],[14.44773,50.06364],[14.44786,50.06299],[14.44949,50.06186],[14.45147,50.06247],[14.4499,50.06294]]]}},{"type":"Feature","properties":{"cislo":4011,"mco":"Praha 4"},"geometry":{"type":"Polygon","coordinates":[[[14.45147,50.06247],[14.44949,50.06186],[14.45022,50.0603],[14.45327,50.06213],[14.45147,50.06247]]]}},{"type":"Feature","properties":{"cislo":4012,"mco":"Praha 4"},"geometry":{"type":"Polygon","coordinates":[[[14.44717,50.06041],[14.44773,50.05935],[14.44987,50.05969],[14.4498,50.06002],[14.44791,50.06103],[14.44717,50.06041]]]}},{"type":"Feature","properties":{"cislo":4013,"mco":"Praha 4"},"geometry":{"type":"Polygon","coordinates":[[[14.44221,50.06135],[14.442,50.06062],[14.44168,50.05864],[14.44382,50.05707],[14.44422,50.05715],[14.44747,50.05818],[14.44773,50.05935],[14.44717,50.06041],[14.44221,50.06135]]]}},{"type":"Feature","properties":{"cislo":4014,"mco":"Praha 4"},"geometry":{"type":"Polygon","coordinates":[[[14.44767,50.05652],[14.44747,50.05818],[14.44422,50.05715],[14.44767,50.05652]]]}},{"type":"Feature","properties":{"cislo":4015,"mco":"Praha 4"},"geometry":{"type":"Polygon","coordinates":[[[14.44612,50.05678],[14.44499,50.05436],[14.44762,50.05266],[14.44948,50.05299],[14.44767,50.05652],[14.44612,50.05678]]]}},{"type":"Feature","properties":{"cislo":4016,"mco":"Praha 4"},"geometry":{"type":"Polygon","coordinates":[[[14.44382,50.05707],[14.44114,50.05596],[14.44174,50.05358],[14.44499,50.05436],[14.44612,50.05678],[14.44422,50.05715],[14.44382,50.05707]]]}},{"type":"Feature","properties":{"cislo":4017,"mco":"Praha 4"},"geometry":{"type":"Polygon","coordinates":[[[14.43898,50.05472],[14.43742,50.05389],[14.43854,50.05288],[14.4412,50.05009],[14.44576,50.05121],[14.44762,50.05266],[14.44499,50.05436],[14.44174,50.05358],[14.43898,50.05472]]]}},{"type":"Feature","properties":{"cislo":4018,"mco":"Praha 4"},"geometry":{"type":"Polygon","coordinates":[[[14.44114,50.05596],[14.43904,50.05535],[14.43898,50.05472],[14.44174,50.05358],[14.44114,50.05596]]]}},{"type":"Feature","properties":{"cislo":4019,"mco":"Praha 4"},"geometry":{"type":"Polygon","coordinates":[[[14.44168,50.05864],[14.44148,50.05718],[14.43734,50.05659],[14.43904,50.05535],[14.44114,50.05596],[14.44382,50.05707],[14.44168,50.05864]]]}},{"type":"Feature","properties":{"cislo":4020,"mco":"Praha 4"},"geometry":{"type":"Polygon","coordinates":[[[14.43295,50.05999],[14.43529,50.05821],[14.43662,50.0567],[14.43734,50.05659],[14.44148,50.05718],[14.442,50.06062],[14.43613,50.06068],[14.43295,50.05999]]]}},{"type":"Feature","properties":{"cislo":4021,"mco":"Praha 4"},"geometry":{"type":"Polygon","coordinates":[[[14.43543,50.06317],[14.43288,50.06347],[14.43446,50.06176],[14.43295,50.05999],[14.43613,50.06068],[14.43589,50.0625],[14.43543,50.06317]]]}},{"type":"Feature","properties":{"cislo":4022,"mco":"Praha 4"},"geometry":{"type":"Polygon","coordinates":[[[14.43021,50.0646],[14.42485,50.0623],[14.42441,50.06171],[14.42821,50.0604],[14.43265,50.05907],[14.43352,50.05956],[14.43295,50.05999],[14.43446,50.06176],[14.43288,50.06347],[14.43052,50.06454],[14.43021,50.0646]]]}},{"type":"Feature","properties":{"cislo":4023,"mco":"Praha 4"},"geometry":{"type":"Polygon","coordinates":[[[14.42441,50.06171],[14.42351,50.06151],[14.42368,50.05999],[14.42883,50.05805],[14.43073,50.05807],[14.42821,50.0604],[14.42441,50.06171]]]}},{"type":"Feature","properties":{"cislo":4024,"mco":"Praha 4"},"geometry":{"type":"Polygon","coordinates":[[[14.42821,50.0604],[14.43073,50.05807],[14.43201,50.05858],[14.43265,50.05907],[14.42821,50.0604]]]}},{"type":"Feature","properties":{"cislo":4025,"mco":"Praha 4"},"geometry":{"type":"Polygon","coordinates":[[[14.43265,50.05907],[14.43201,50.05858],[14.43529,50.05821],[14.43352,50.05956],[14.43265,50.05907]]]}},{"type":"Feature","properties":{"cislo":4026,"mco":"Praha 4"},"geometry":{"type":"Polygon","coordinates":[[[14.43073,50.05807],[14.42883,50.05805],[14.42863,50.05749],[14.43091,50.0569],[14.4352,50.05599],[14.43662,50.0567],[14.43529,50.05821],[14.43201,50.05858],[14.43073,50.05807]]]}},{"type":"Feature","properties":{"cislo":4027,"mco":"Praha 4"},"geometry":{"type":"Polygon","coordinates":[[[14.42948,50.05439],[14.43003,50.05273],[14.4329,50.05427],[14.43576,50.05545],[14.4352,50.05599],[14.43091,50.0569],[14.42948,50.05439]]]}},{"type":"Feature","properties":{"cislo":4028,"mco":"Praha 4"},"geometry":{"type":"Polygon","coordinates":[[[14.43662,50.0567],[14.4352,50.05599],[14.43742,50.05389],[14.43898,50.05472],[14.43904,50.05535],[14.43734,50.05659],[14.43662,50.0567]]]}},{"type":"Feature","properties":{"cislo":4029,"mco":"Praha 4"},"geometry":{"type":"Polygon","coordinates":[[[14.43742,50.05389],[14.43576,50.05545],[14.4329,50.05427],[14.43328,50.05334],[14.43509,50.05412],[14.43716,50.05228],[14.43854,50.05288],[14.43742,50.05389]]]}},{"type":"Feature","properties":{"cislo":4030,"mco":"Praha 4"},"geometry":{"type":"Polygon","coordinates":[[[14.4329,50.05427],[14.43003,50.05273],[14.42741,50.0515],[14.42872,50.04947],[14.42986,50.04857],[14.43362,50.04895],[14.43484,50.04888],[14.43486,50.04912],[14.4329,50.05427]]]}},{"type":"Feature","properties":{"cislo":4031,"mco":"Praha 4"},"geometry":{"type":"Polygon","coordinates":[[[14.43854,50.05288],[14.43716,50.05228],[14.43509,50.05412],[14.43328,50.05334],[14.43486,50.04912],[14.44053,50.04953],[14.4412,50.05009],[14.43854,50.05288]]]}},{"type":"Feature","properties":{"cislo":4032,"mco":"Praha 4"},"geometry":{"type":"Polygon","coordinates":[[[14.45456,50.0625],[14.45327,50.06213],[14.4498,50.06002],[14.45043,50.05767],[14.45456,50.0625]]]}},{"type":"Feature","properties":{"cislo":4033,"mco":"Praha 4"},"geometry":{"type":"Polygon","coordinates":[[[14.44773,50.05935],[14.44747,50.05818],[14.44767,50.05652],[14.44948,50.05299],[14.45421,50.05221],[14.45256,50.05394],[14.45043,50.05767],[14.44987,50.05969],[14.44773,50.05935]]]}},{"type":"Feature","properties":{"cislo":4034,"mco":"Praha 4"},"geometry":{"type":"Polygon","coordinates":[[[14.45043,50.05767],[14.45256,50.05394],[14.45911,50.05661],[14.45456,50.0625],[14.45043,50.05767]]]}},{"type":"Feature","properties":{"cislo":4035,"mco":"Praha 4"},"geometry":{"type":"Polygon","coordinates":[[[14.45911,50.05661],[14.45256,50.05394],[14.46212,50.05448],[14.46602,50.05182],[14.4724,50.04973],[14.4731,50.05107],[14.47645,50.04966],[14.4783,50.05069],[14.47232,50.05501],[14.47136,50.05706],[14.46719,50.05688],[14.46704,50.05837],[14.46376,50.05808],[14.46358,50.05848],[14.45911,50.05661]]]}},{"type":"Feature","properties":{"cislo":4036,"mco":"Praha 4"},"geometry":{"type":"Polygon","coordinates":[[[14.44762,50.05266],[14.44576,50.05121],[14.44843,50.04985],[14.45765,50.05149],[14.45421,50.05221],[14.44948,50.05299],[14.44762,50.05266]]]}},{"type":"Feature","properties":{"cislo":4037,"mco":"Praha 4"},"geometry":{"type":"Polygon","coordinates":[[[14.45765,50.05149],[14.44843,50.04985],[14.45246,50.04781],[14.45981,50.04861],[14.45873,50.05067],[14.45765,50.05149]]]}},{"type":"Feature","properties":{"cislo":4038,"mco":"Praha 4"},"geometry":{"type":"Polygon","coordinates":[[[14.45256,50.05394],[14.45421,50.05221],[14.45765,50.05149],[14.45873,50.05067],[14.46486,50.0502],[14.46602,50.05182],[14.46212,50.05448],[14.45256,50.05394]]]}},{"type":"Feature","properties":{"cislo":4039,"mco":"Praha 4"},"geometry":{"type":"Polygon","coordinates":[[[14.45873,50.05067],[14.45981,50.04861],[14.46268,50.0488],[14.46486,50.0502],[14.45873,50.05067]]]}},{"type":"Feature","properties":{"cislo":4040,"mco":"Praha 4"},"geometry":{"type":"Polygon","coordinates":[[[14.46486,50.0502],[14.46268,50.0488],[14.466,50.04888],[14.46884,50.04639],[14.4723,50.04856],[14.4724,50.04973],[14.46602,50.05182],[14.46486,50.0502]]]}},{"type":"Feature","properties":{"cislo":4041,"mco":"Praha 4"},"geometry":{"type":"Polygon","coordinates":[[[14.466,50.04888],[14.46454,50.04705],[14.46082,50.04639],[14.46873,50.04276],[14.4713,50.04438],[14.46884,50.04639],[14.466,50.04888]]]}},{"type":"Feature","properties":{"cislo":4042,"mco":"Praha 4"},"geometry":{"type":"Polygon","coordinates":[[[14.46268,50.0488],[14.45981,50.04861],[14.45246,50.04781],[14.45735,50.04547],[14.46082,50.04639],[14.46454,50.04705],[14.466,50.04888],[14.46268,50.0488]]]}},{"type":"Feature","properties":{"cislo":4043,"mco":"Praha 4"},"geometry":{"type":"Polygon","coordinates":[[[14.46082,50.04639],[14.45735,50.04547],[14.45862,50.0449],[14.46859,50.0408],[14.46873,50.04276],[14.46082,50.04639]]]}},{"type":"Feature","properties":{"cislo":4044,"mco":"Praha 4"},"geometry":{"type":"Polygon","coordinates":[[[14.45613,50.0428],[14.46155,50.04222],[14.45711,50.03794],[14.4563,50.03494],[14.46067,50.03454],[14.45694,50.0324],[14.462,50.0298],[14.4641,50.03099],[14.4773,50.02983],[14.4702,50.03361],[14.46959,50.03903],[14.47007,50.04039],[14.46859,50.0408],[14.45862,50.0449],[14.45613,50.0428]]]}},{"type":"Feature","properties":{"cislo":4045,"mco":"Praha 4"},"geometry":{"type":"Polygon","coordinates":[[[14.45735,50.04547],[14.45355,50.04512],[14.45509,50.04288],[14.45613,50.0428],[14.45862,50.0449],[14.45735,50.04547]]]}},{"type":"Feature","properties":{"cislo":4046,"mco":"Praha 4"},"geometry":{"type":"Polygon","coordinates":[[[14.45108,50.04526],[14.4488,50.04533],[14.45288,50.04305],[14.45509,50.04288],[14.45355,50.04512],[14.45108,50.04526]]]}},{"type":"Feature","properties":{"cislo":4047,"mco":"Praha 4"},"geometry":{"type":"Polygon","coordinates":[[[14.45735,50.04547],[14.45381,50.04715],[14.45108,50.04526],[14.45355,50.04512],[14.45735,50.04547]]]}},{"type":"Feature","properties":{"cislo":4048,"mco":"Praha 4"},"geometry":{"type":"Polygon","coordinates":[[[14.45246,50.04781],[14.44921,50.04875],[14.44722,50.04631],[14.4488,50.04533],[14.45108,50.04526],[14.45381,50.04715],[14.45246,50.04781]]]}},{"type":"Feature","properties":{"cislo":4049,"mco":"Praha 4"},"geometry":{"type":"Polygon","coordinates":[[[14.44576,50.05121],[14.4412,50.05009],[14.44293,50.04893],[14.44722,50.04631],[14.44921,50.04875],[14.45246,50.04781],[14.44576,50.05121]]]}},{"type":"Feature","properties":{"cislo":4050,"mco":"Praha 4"},"geometry":{"type":"Polygon","coordinates":[[[14.47692,50.05507],[14.47232,50.05501],[14.4783,50.05069],[14.48235,50.04845],[14.4848,50.04909],[14.48465,50.05085],[14.48244,50.05109],[14.48534,50.05159],[14.48373,50.05392],[14.48024,50.05565],[14.47692,50.05507]]]}},{"type":"Feature","properties":{"cislo":4051,"mco":"Praha 4"},"geometry":{"type":"Polygon","coordinates":[[[14.4848,50.04909],[14.48745,50.04901],[14.4884,50.05044],[14.48465,50.05085],[14.4848,50.04909]]]}},{"type":"Feature","properties":{"cislo":4052,"mco":"Praha 4"},"geometry":{"type":"Polygon","coordinates":[[[14.48745,50.04901],[14.4848,50.04909],[14.48235,50.04845],[14.48502,50.04658],[14.48814,50.0474],[14.48745,50.04901]]]}},{"type":"Feature","properties":{"cislo":4053,"mco":"Praha 4"},"geometry":{"type":"Polygon","coordinates":[[[14.48745,50.04901],[14.48814,50.0474],[14.49376,50.04866],[14.49228,50.05001],[14.4884,50.05044],[14.48745,50.04901]]]}},{"type":"Feature","properties":{"cislo":4054,"mco":"Praha 4"},"geometry":{"type":"Polygon","coordinates":[[[14.49376,50.04866],[14.48912,50.04763],[14.48993,50.04627],[14.49149,50.04583],[14.49237,50.04759],[14.49464,50.04735],[14.49504,50.04747],[14.49376,50.04866]]]}},{"type":"Feature","properties":{"cislo":4055,"mco":"Praha 4"},"geometry":{"type":"Polygon","coordinates":[[[14.49464,50.04735],[14.49141,50.04377],[14.49041,50.04275],[14.4937,50.04391],[14.49631,50.0463],[14.49504,50.04747],[14.49464,50.04735]]]}},{"type":"Feature","properties":{"cislo":4056,"mco":"Praha 4"},"geometry":{"type":"Polygon","coordinates":[[[14.49149,50.04583],[14.49141,50.04377],[14.49464,50.04735],[14.49237,50.04759],[14.49149,50.04583]]]}},{"type":"Feature","properties":{"cislo":4057,"mco":"Praha 4"},"geometry":{"type":"Polygon","coordinates":[[[14.48993,50.04627],[14.48777,50.04549],[14.48884,50.04477],[14.48863,50.04301],[14.49041,50.04275],[14.49141,50.04377],[14.49149,50.04583],[14.48993,50.04627]]]}},{"type":"Feature","properties":{"cislo":4058,"mco":"Praha 4"},"geometry":{"type":"Polygon","coordinates":[[[14.48912,50.04763],[14.48394,50.04628],[14.48639,50.0446],[14.48884,50.04477],[14.48777,50.04549],[14.48993,50.04627],[14.48912,50.04763]]]}},{"type":"Feature","properties":{"cislo":4059,"mco":"Praha 4"},"geometry":{"type":"Polygon","coordinates":[[[14.47827,50.0444],[14.48135,50.04059],[14.48682,50.04131],[14.48815,50.04279],[14.48639,50.0446],[14.48394,50.04628],[14.47827,50.0444]]]}},{"type":"Feature","properties":{"cislo":4060,"mco":"Praha 4"},"geometry":{"type":"Polygon","coordinates":[[[14.47763,50.04501],[14.47274,50.04336],[14.47007,50.04039],[14.46959,50.03903],[14.48135,50.04059],[14.47827,50.0444],[14.47763,50.04501]]]}},{"type":"Feature","properties":{"cislo":4061,"mco":"Praha 4"},"geometry":{"type":"Polygon","coordinates":[[[14.47658,50.04709],[14.4723,50.04856],[14.46884,50.04639],[14.4713,50.04438],[14.46873,50.04276],[14.46859,50.0408],[14.47007,50.04039],[14.47274,50.04336],[14.47763,50.04501],[14.47658,50.04709]]]}},{"type":"Feature","properties":{"cislo":4062,"mco":"Praha 4"},"geometry":{"type":"Polygon","coordinates":[[[14.4724,50.04973],[14.4723,50.04856],[14.47658,50.04709],[14.48081,50.0489],[14.47992,50.04977],[14.4783,50.05069],[14.47645,50.04966],[14.4731,50.05107],[14.4724,50.04973]]]}},{"type":"Feature","properties":{"cislo":4063,"mco":"Praha 4"},"geometry":{"type":"Polygon","coordinates":[[[14.47992,50.04977],[14.48081,50.0489],[14.47658,50.04709],[14.47763,50.04501],[14.47827,50.0444],[14.48394,50.04628],[14.48502,50.04658],[14.48235,50.04845],[14.47992,50.04977]]]}},{"type":"Feature","properties":{"cislo":4064,"mco":"Praha 4"},"geometry":{"type":"Polygon","coordinates":[[[14.43486,50.04912],[14.43484,50.04888],[14.43412,50.04597],[14.43627,50.04588],[14.43622,50.04775],[14.43991,50.04843],[14.44053,50.04953],[14.43486,50.04912]]]}},{"type":"Feature","properties":{"cislo":4065,"mco":"Praha 4"},"geometry":{"type":"Polygon","coordinates":[[[14.43991,50.04843],[14.43622,50.04775],[14.43627,50.04588],[14.43948,50.04621],[14.43991,50.04843]]]}},{"type":"Feature","properties":{"cislo":4066,"mco":"Praha 4"},"geometry":{"type":"Polygon","coordinates":[[[14.43412,50.04597],[14.43386,50.04528],[14.43391,50.04452],[14.43893,50.04337],[14.43948,50.04621],[14.43627,50.04588],[14.43412,50.04597]]]}},{"type":"Feature","properties":{"cislo":4067,"mco":"Praha 4"},"geometry":{"type":"Polygon","coordinates":[[[14.44053,50.04953],[14.43991,50.04843],[14.43893,50.04337],[14.44061,50.04341],[14.44468,50.0439],[14.44461,50.04418],[14.44239,50.04553],[14.44374,50.04645],[14.44133,50.04783],[14.44293,50.04893],[14.4412,50.05009],[14.44053,50.04953]]]}},{"type":"Feature","properties":{"cislo":4068,"mco":"Praha 4"},"geometry":{"type":"Polygon","coordinates":[[[14.44293,50.04893],[14.44133,50.04783],[14.44374,50.04645],[14.44529,50.04749],[14.44293,50.04893]]]}},{"type":"Feature","properties":{"cislo":4069,"mco":"Praha 4"},"geometry":{"type":"Polygon","coordinates":[[[14.44374,50.04645],[14.44239,50.04553],[14.44461,50.04418],[14.44462,50.04704],[14.44374,50.04645]]]}},{"type":"Feature","properties":{"cislo":4070,"mco":"Praha 4"},"geometry":{"type":"Polygon","coordinates":[[[14.44462,50.04704],[14.44461,50.04418],[14.44468,50.0439],[14.44689,50.04426],[14.4488,50.04533],[14.44529,50.04749],[14.44462,50.04704]]]}},{"type":"Feature","properties":{"cislo":4071,"mco":"Praha 4"},"geometry":{"type":"Polygon","coordinates":[[[14.4488,50.04533],[14.44689,50.04426],[14.44201,50.04242],[14.44243,50.04128],[14.44904,50.0427],[14.44955,50.04163],[14.45339,50.04279],[14.4488,50.04533]],[[14.44965,50.04283],[14.45103,50.04312],[14.45015,50.04252],[14.44965,50.04283]]]}},{"type":"Feature","properties":{"cislo":4072,"mco":"Praha 4"},"geometry":{"type":"Polygon","coordinates":[[[14.44689,50.04426],[14.44468,50.0439],[14.44061,50.04341],[14.44201,50.04242],[14.44689,50.04426]]]}},{"type":"Feature","properties":{"cislo":4073,"mco":"Praha 4"},"geometry":{"type":"Polygon","coordinates":[[[14.44061,50.04341],[14.43893,50.04337],[14.43828,50.04048],[14.44243,50.04128],[14.44201,50.04242],[14.44061,50.04341]]]}},{"type":"Feature","properties":{"cislo":4074,"mco":"Praha 4"},"geometry":{"type":"Polygon","coordinates":[[[14.44243,50.04128],[14.43828,50.04048],[14.4438,50.03513],[14.4485,50.03703],[14.44955,50.04163],[14.44904,50.0427],[14.44243,50.04128]]]}},{"type":"Feature","properties":{"cislo":4075,"mco":"Praha 4"},"geometry":{"type":"Polygon","coordinates":[[[14.4338,50.04151],[14.43478,50.04041],[14.43828,50.04048],[14.43893,50.04337],[14.43391,50.04452],[14.4338,50.04151]]]}},{"type":"Feature","properties":{"cislo":4076,"mco":"Praha 4"},"geometry":{"type":"Polygon","coordinates":[[[14.43143,50.04015],[14.42737,50.03921],[14.42414,50.03903],[14.4243,50.03751],[14.42854,50.03803],[14.42691,50.03735],[14.42845,50.03696],[14.42894,50.03295],[14.43643,50.03313],[14.43587,50.03663],[14.43413,50.03674],[14.43478,50.04041],[14.4338,50.04151],[14.43143,50.04015]]]}},{"type":"Feature","properties":{"cislo":4077,"mco":"Praha 4"},"geometry":{"type":"Polygon","coordinates":[[[14.43478,50.04041],[14.43413,50.03674],[14.43587,50.03663],[14.43643,50.03313],[14.4438,50.03513],[14.43828,50.04048],[14.43478,50.04041]]]}},{"type":"Feature","properties":{"cislo":4078,"mco":"Praha 4"},"geometry":{"type":"Polygon","coordinates":[[[14.44955,50.04163],[14.4485,50.03703],[14.45672,50.03799],[14.45339,50.04279],[14.44955,50.04163]]]}},{"type":"Feature","properties":{"cislo":4079,"mco":"Praha 4"},"geometry":{"type":"Polygon","coordinates":[[[14.45339,50.04279],[14.45672,50.03799],[14.45711,50.03794],[14.46155,50.04222],[14.45613,50.0428],[14.45288,50.04305],[14.45339,50.04279]]]}},{"type":"Feature","properties":{"cislo":4080,"mco":"Praha 4"},"geometry":{"type":"Polygon","coordinates":[[[14.4485,50.03703],[14.4438,50.03513],[14.43643,50.03313],[14.43139,50.033],[14.43125,50.03123],[14.43596,50.03115],[14.44143,50.02886],[14.43968,50.02657],[14.44309,50.02499],[14.44661,50.02691],[14.45127,50.02822],[14.45556,50.029],[14.45837,50.02684],[14.46113,50.02309],[14.46381,50.02443],[14.45965,50.02651],[14.462,50.0298],[14.45694,50.0324],[14.46067,50.03454],[14.4563,50.03494],[14.45711,50.03794],[14.45672,50.03799],[14.4485,50.03703]]]}},{"type":"Feature","properties":{"cislo":4081,"mco":"Praha 4"},"geometry":{"type":"Polygon","coordinates":[[[14.45127,50.02822],[14.45139,50.02763],[14.4538,50.0268],[14.45837,50.02684],[14.45556,50.029],[14.45127,50.02822]]]}},{"type":"Feature","properties":{"cislo":4082,"mco":"Praha 4"},"geometry":{"type":"Polygon","coordinates":[[[14.4538,50.0268],[14.45386,50.02522],[14.45768,50.02407],[14.45779,50.02383],[14.45841,50.02198],[14.45631,50.02197],[14.45635,50.02087],[14.4621,50.02177],[14.46626,50.02349],[14.46381,50.02443],[14.46113,50.02309],[14.45837,50.02684],[14.4538,50.0268]]]}},{"type":"Feature","properties":{"cislo":4083,"mco":"Praha 4"},"geometry":{"type":"Polygon","coordinates":[[[14.45139,50.02763],[14.45144,50.02518],[14.45386,50.02522],[14.4538,50.0268],[14.45139,50.02763]]]}},{"type":"Feature","properties":{"cislo":4084,"mco":"Praha 4"},"geometry":{"type":"Polygon","coordinates":[[[14.45144,50.02518],[14.45149,50.02424],[14.45768,50.02407],[14.45386,50.02522],[14.45144,50.02518]]]}},{"type":"Feature","properties":{"cislo":4085,"mco":"Praha 4"},"geometry":{"type":"Polygon","coordinates":[[[14.45768,50.02407],[14.45149,50.02424],[14.45153,50.02325],[14.45393,50.02314],[14.45779,50.02383],[14.45768,50.02407]]]}},{"type":"Feature","properties":{"cislo":4086,"mco":"Praha 4"},"geometry":{"type":"Polygon","coordinates":[[[14.45393,50.02314],[14.45396,50.0215],[14.45631,50.02197],[14.45841,50.02198],[14.45779,50.02383],[14.45393,50.02314]]]}},{"type":"Feature","properties":{"cislo":4087,"mco":"Praha 4"},"geometry":{"type":"Polygon","coordinates":[[[14.45153,50.02325],[14.45161,50.02094],[14.45396,50.0215],[14.45393,50.02314],[14.45153,50.02325]]]}},{"type":"Feature","properties":{"cislo":4088,"mco":"Praha 4"},"geometry":{"type":"Polygon","coordinates":[[[14.45631,50.02197],[14.45396,50.0215],[14.45161,50.02094],[14.45287,50.01901],[14.45416,50.01726],[14.45966,50.01895],[14.46268,50.02119],[14.4621,50.02177],[14.45635,50.02087],[14.45631,50.02197]]]}},{"type":"Feature","properties":{"cislo":4089,"mco":"Praha 4"},"geometry":{"type":"Polygon","coordinates":[[[14.45416,50.01726],[14.45665,50.01447],[14.46379,50.01585],[14.46219,50.0174],[14.46363,50.01897],[14.45966,50.01895],[14.45416,50.01726]]]}},{"type":"Feature","properties":{"cislo":4090,"mco":"Praha 4"},"geometry":{"type":"Polygon","coordinates":[[[14.46846,50.01696],[14.46268,50.02119],[14.45966,50.01895],[14.46363,50.01897],[14.46219,50.0174],[14.46379,50.01585],[14.46443,50.01606],[14.46846,50.01696]]]}},{"type":"Feature","properties":{"cislo":4091,"mco":"Praha 4"},"geometry":{"type":"Polygon","coordinates":[[[14.45287,50.01901],[14.45006,50.01831],[14.44865,50.02109],[14.44565,50.02073],[14.44917,50.01821],[14.45326,50.01334],[14.45665,50.01447],[14.45416,50.01726],[14.45287,50.01901]]]}},{"type":"Feature","properties":{"cislo":4092,"mco":"Praha 4"},"geometry":{"type":"Polygon","coordinates":[[[14.45149,50.02424],[14.4475,50.02337],[14.45006,50.01831],[14.45287,50.01901],[14.45161,50.02094],[14.45149,50.02424]]]}},{"type":"Feature","properties":{"cislo":4093,"mco":"Praha 4"},"geometry":{"type":"Polygon","coordinates":[[[14.45139,50.02763],[14.45127,50.02822],[14.44661,50.02691],[14.4475,50.02337],[14.45149,50.02424],[14.45139,50.02763]]]}},{"type":"Feature","properties":{"cislo":4094,"mco":"Praha 4"},"geometry":{"type":"Polygon","coordinates":[[[14.44309,50.02499],[14.44153,50.02409],[14.44039,50.02313],[14.44565,50.02073],[14.44865,50.02109],[14.4475,50.02337],[14.44661,50.02691],[14.44309,50.02499]]]}},{"type":"Feature","properties":{"cislo":4095,"mco":"Praha 4"},"geometry":{"type":"Polygon","coordinates":[[[14.43628,50.02466],[14.43666,50.02096],[14.43275,50.01905],[14.43537,50.01815],[14.43612,50.01867],[14.4392,50.02215],[14.44051,50.02308],[14.43628,50.02466]]]}},{"type":"Feature","properties":{"cislo":4096,"mco":"Praha 4"},"geometry":{"type":"Polygon","coordinates":[[[14.43607,50.02473],[14.43287,50.02512],[14.43035,50.02248],[14.42946,50.02126],[14.42713,50.0196],[14.43071,50.01915],[14.43275,50.01905],[14.43666,50.02096],[14.43628,50.02466],[14.43607,50.02473]]]}},{"type":"Feature","properties":{"cislo":4097,"mco":"Praha 4"},"geometry":{"type":"Polygon","coordinates":[[[14.41588,50.06188],[14.41638,50.05831],[14.41947,50.05851],[14.42111,50.05837],[14.42271,50.05867],[14.42368,50.05999],[14.42351,50.06151],[14.41856,50.06326],[14.41588,50.06188]]]}},{"type":"Feature","properties":{"cislo":4098,"mco":"Praha 4"},"geometry":{"type":"Polygon","coordinates":[[[14.42271,50.05867],[14.42397,50.05745],[14.42863,50.05749],[14.42883,50.05805],[14.42368,50.05999],[14.42271,50.05867]]]}},{"type":"Feature","properties":{"cislo":4099,"mco":"Praha 4"},"geometry":{"type":"Polygon","coordinates":[[[14.42111,50.05837],[14.42397,50.05745],[14.42271,50.05867],[14.42111,50.05837]]]}},{"type":"Feature","properties":{"cislo":4100,"mco":"Praha 4"},"geometry":{"type":"Polygon","coordinates":[[[14.41947,50.05851],[14.42026,50.05334],[14.42217,50.05308],[14.423,50.05593],[14.42397,50.05745],[14.42111,50.05837],[14.41947,50.05851]]]}},{"type":"Feature","properties":{"cislo":4101,"mco":"Praha 4"},"geometry":{"type":"Polygon","coordinates":[[[14.42863,50.05749],[14.42397,50.05745],[14.423,50.05593],[14.42501,50.05396],[14.42948,50.05439],[14.43091,50.0569],[14.42863,50.05749]]]}},{"type":"Feature","properties":{"cislo":4102,"mco":"Praha 4"},"geometry":{"type":"Polygon","coordinates":[[[14.423,50.05593],[14.42217,50.05308],[14.4194,50.05009],[14.41768,50.04929],[14.41883,50.04781],[14.42366,50.04889],[14.42872,50.04947],[14.42741,50.0515],[14.43003,50.05273],[14.42948,50.05439],[14.42501,50.05396],[14.423,50.05593]]]}},{"type":"Feature","properties":{"cislo":4103,"mco":"Praha 4"},"geometry":{"type":"Polygon","coordinates":[[[14.41638,50.05831],[14.4123,50.0497],[14.4194,50.05009],[14.42217,50.05308],[14.42026,50.05334],[14.41947,50.05851],[14.41638,50.05831]]]}},{"type":"Feature","properties":{"cislo":4104,"mco":"Praha 4"},"geometry":{"type":"Polygon","coordinates":[[[14.4123,50.0497],[14.41017,50.04449],[14.41234,50.04376],[14.41454,50.04505],[14.41569,50.04488],[14.41883,50.04781],[14.41768,50.04929],[14.4194,50.05009],[14.4123,50.0497]]]}},{"type":"Feature","properties":{"cislo":4105,"mco":"Praha 4"},"geometry":{"type":"Polygon","coordinates":[[[14.42815,50.04362],[14.42399,50.04543],[14.42366,50.04889],[14.41883,50.04781],[14.41569,50.04488],[14.41935,50.04396],[14.41923,50.04574],[14.4277,50.04335],[14.42815,50.04362]]]}},{"type":"Feature","properties":{"cislo":4106,"mco":"Praha 4"},"geometry":{"type":"Polygon","coordinates":[[[14.42872,50.04947],[14.42366,50.04889],[14.42399,50.04543],[14.42815,50.04362],[14.42533,50.04537],[14.4305,50.04517],[14.42986,50.04857],[14.42872,50.04947]]]}},{"type":"Feature","properties":{"cislo":4107,"mco":"Praha 4"},"geometry":{"type":"Polygon","coordinates":[[[14.42986,50.04857],[14.43021,50.04671],[14.43349,50.04749],[14.43362,50.04895],[14.42986,50.04857]]]}},{"type":"Feature","properties":{"cislo":4108,"mco":"Praha 4"},"geometry":{"type":"Polygon","coordinates":[[[14.43362,50.04895],[14.43349,50.04749],[14.43021,50.04671],[14.4305,50.04517],[14.43386,50.04528],[14.43412,50.04597],[14.43484,50.04888],[14.43362,50.04895]]]}},{"type":"Feature","properties":{"cislo":4109,"mco":"Praha 4"},"geometry":{"type":"Polygon","coordinates":[[[14.42815,50.04362],[14.4277,50.04335],[14.43143,50.04015],[14.4338,50.04151],[14.43391,50.04452],[14.43386,50.04528],[14.4305,50.04517],[14.42533,50.04537],[14.42815,50.04362]]]}},{"type":"Feature","properties":{"cislo":4110,"mco":"Praha 4"},"geometry":{"type":"Polygon","coordinates":[[[14.4277,50.04335],[14.41923,50.04574],[14.41935,50.04396],[14.42737,50.03921],[14.43143,50.04015],[14.4277,50.04335]]]}},{"type":"Feature","properties":{"cislo":4111,"mco":"Praha 4"},"geometry":{"type":"Polygon","coordinates":[[[14.41454,50.04505],[14.41477,50.04137],[14.42414,50.03903],[14.42737,50.03921],[14.41935,50.04396],[14.41569,50.04488],[14.41454,50.04505]]]}},{"type":"Feature","properties":{"cislo":4112,"mco":"Praha 4"},"geometry":{"type":"Polygon","coordinates":[[[14.42261,50.03942],[14.41469,50.037],[14.41797,50.03513],[14.42845,50.03696],[14.42691,50.03735],[14.42854,50.03803],[14.4243,50.03751],[14.42414,50.03903],[14.42261,50.03942]]]}},{"type":"Feature","properties":{"cislo":4113,"mco":"Praha 4"},"geometry":{"type":"Polygon","coordinates":[[[14.41017,50.04449],[14.40826,50.04117],[14.41142,50.04009],[14.41202,50.03818],[14.41469,50.037],[14.42261,50.03942],[14.41477,50.04137],[14.41454,50.04505],[14.41234,50.04376],[14.41017,50.04449]]]}},{"type":"Feature","properties":{"cislo":4114,"mco":"Praha 4"},"geometry":{"type":"Polygon","coordinates":[[[14.40694,50.03933],[14.40829,50.0358],[14.41086,50.03803],[14.41202,50.03818],[14.41142,50.04009],[14.40826,50.04117],[14.40694,50.03933]]]}},{"type":"Feature","properties":{"cislo":4115,"mco":"Praha 4"},"geometry":{"type":"Polygon","coordinates":[[[14.40006,50.03104],[14.39799,50.02853],[14.40528,50.02674],[14.40854,50.02941],[14.41018,50.02834],[14.41635,50.0318],[14.4162,50.03268],[14.41478,50.03236],[14.41264,50.03555],[14.41086,50.03803],[14.40829,50.0358],[14.40694,50.03933],[14.40006,50.03104]]]}},{"type":"Feature","properties":{"cislo":4116,"mco":"Praha 4"},"geometry":{"type":"Polygon","coordinates":[[[14.41086,50.03803],[14.41264,50.03555],[14.41565,50.03473],[14.41797,50.03513],[14.41469,50.037],[14.41202,50.03818],[14.41086,50.03803]]]}},{"type":"Feature","properties":{"cislo":4117,"mco":"Praha 4"},"geometry":{"type":"Polygon","coordinates":[[[14.41565,50.03473],[14.41264,50.03555],[14.41478,50.03236],[14.4162,50.03268],[14.41851,50.03428],[14.41565,50.03473]]]}},{"type":"Feature","properties":{"cislo":4118,"mco":"Praha 4"},"geometry":{"type":"Polygon","coordinates":[[[14.41797,50.03513],[14.41565,50.03473],[14.41851,50.03428],[14.4162,50.03268],[14.41635,50.0318],[14.42894,50.03295],[14.42845,50.03696],[14.41797,50.03513]]]}},{"type":"Feature","properties":{"cislo":4119,"mco":"Praha 4"},"geometry":{"type":"Polygon","coordinates":[[[14.41635,50.0318],[14.41018,50.02834],[14.41819,50.02614],[14.42145,50.02552],[14.42152,50.02723],[14.42555,50.02756],[14.41954,50.02827],[14.41635,50.0318]]]}},{"type":"Feature","properties":{"cislo":4120,"mco":"Praha 4"},"geometry":{"type":"Polygon","coordinates":[[[14.42894,50.03295],[14.41635,50.0318],[14.41954,50.02827],[14.42555,50.02756],[14.4279,50.02763],[14.43125,50.03123],[14.43139,50.033],[14.42894,50.03295]]]}},{"type":"Feature","properties":{"cislo":4121,"mco":"Praha 4"},"geometry":{"type":"Polygon","coordinates":[[[14.42555,50.02756],[14.42152,50.02723],[14.42145,50.02552],[14.42333,50.0247],[14.42642,50.02469],[14.42874,50.02554],[14.42666,50.02577],[14.4279,50.02763],[14.42555,50.02756]]]}},{"type":"Feature","properties":{"cislo":4122,"mco":"Praha 4"},"geometry":{"type":"Polygon","coordinates":[[[14.43125,50.03123],[14.4279,50.02763],[14.42666,50.02577],[14.42874,50.02554],[14.43163,50.02559],[14.43295,50.02768],[14.43596,50.03115],[14.43125,50.03123]]]}},{"type":"Feature","properties":{"cislo":4123,"mco":"Praha 4"},"geometry":{"type":"Polygon","coordinates":[[[14.43596,50.03115],[14.43295,50.02768],[14.43655,50.02538],[14.44153,50.02409],[14.44309,50.02499],[14.43968,50.02657],[14.44143,50.02886],[14.43596,50.03115]]]}},{"type":"Feature","properties":{"cislo":4124,"mco":"Praha 4"},"geometry":{"type":"Polygon","coordinates":[[[14.43655,50.02538],[14.43607,50.02473],[14.44039,50.02313],[14.44153,50.02409],[14.43655,50.02538]]]}},{"type":"Feature","properties":{"cislo":4125,"mco":"Praha 4"},"geometry":{"type":"Polygon","coordinates":[[[14.43295,50.02768],[14.43163,50.02559],[14.43287,50.02512],[14.43607,50.02473],[14.43655,50.02538],[14.43295,50.02768]]]}},{"type":"Feature","properties":{"cislo":4126,"mco":"Praha 4"},"geometry":{"type":"Polygon","coordinates":[[[14.43163,50.02559],[14.42874,50.02554],[14.42642,50.02469],[14.43035,50.02248],[14.43287,50.02512],[14.43163,50.02559]]]}},{"type":"Feature","properties":{"cislo":4127,"mco":"Praha 4"},"geometry":{"type":"Polygon","coordinates":[[[14.42946,50.02126],[14.43035,50.02248],[14.42642,50.02469],[14.42333,50.0247],[14.42288,50.02151],[14.42946,50.02126]]]}},{"type":"Feature","properties":{"cislo":4128,"mco":"Praha 4"},"geometry":{"type":"Polygon","coordinates":[[[14.41819,50.02614],[14.41774,50.02487],[14.41889,50.02248],[14.41599,50.02175],[14.41736,50.01828],[14.42713,50.0196],[14.42946,50.02126],[14.42288,50.02151],[14.42333,50.0247],[14.42145,50.02552],[14.41819,50.02614]]]}},{"type":"Feature","properties":{"cislo":4129,"mco":"Praha 4"},"geometry":{"type":"Polygon","coordinates":[[[14.41599,50.02175],[14.41041,50.01985],[14.40929,50.02085],[14.40659,50.02004],[14.40802,50.01645],[14.41418,50.01703],[14.41736,50.01828],[14.41599,50.02175]]]}},{"type":"Feature","properties":{"cislo":4131,"mco":"Praha 4"},"geometry":{"type":"Polygon","coordinates":[[[14.39799,50.02853],[14.39594,50.01893],[14.40802,50.01645],[14.40659,50.02004],[14.40929,50.02085],[14.41774,50.02487],[14.41819,50.02614],[14.41018,50.02834],[14.40854,50.02941],[14.40528,50.02674],[14.39799,50.02853]]]}},{"type":"Feature","properties":{"cislo":4132,"mco":"Praha 4"},"geometry":{"type":"Polygon","coordinates":[[[14.44965,50.04283],[14.45015,50.04252],[14.45103,50.04312],[14.44965,50.04283]]]}},{"type":"Feature","properties":{"cislo":4130,"mco":"Praha 4"},"geometry":{"type":"Polygon","coordinates":[[[14.41774,50.02487],[14.40929,50.02085],[14.41041,50.01985],[14.41599,50.02175],[14.41889,50.02248],[14.41774,50.02487]]]}}]}