{"type":"FeatureCollection","features":[{"type":"Feature","properties":{"cislo":57001,"mco":"Praha-Zličín"},"geometry":{"type":"Polygon","coordinates":[[[14.29328,50.07759],[14.28941,50.07701],[14.29026,50.07326],[14.2825,50.07438],[14.27733,50.07307],[14.27862,50.071],[14.2793,50.06861],[14.27375,50.06697],[14.2742,50.05943],[14.27665,50.05915],[14.2786,50.05984],[14.28496,50.06021],[14.29046,50.06096],[14.2931,50.05954],[14.30019,50.06334],[14.29289,50.06739],[14.29137,50.0746],[14.29328,50.07759]]]}},{"type":"Feature","properties":{"cislo":57002,"mco":"Praha-Zličín"},"geometry":{"type":"Polygon","coordinates":[[[14.29046,50.06096],[14.28496,50.06021],[14.28777,50.05787],[14.2931,50.05954],[14.29046,50.06096]]]}},{"type":"Feature","properties":{"cislo":57003,"mco":"Praha-Zličín"},"geometry":{"type":"Polygon","coordinates":[[[14.2786,50.05984],[14.2819,50.05549],[14.28777,50.05787],[14.28496,50.06021],[14.2786,50.05984]]]}},{"type":"Feature","properties":{"cislo":57004,"mco":"Praha-Zličín"},"geometry":{"type":"Polygon","coordinates":[[[14.26683,50.07271],[14.25812,50.0716],[14.25879,50.0645],[14.24763,50.0623],[14.24825,50.05834],[14.25092,50.05685],[14.25567,50.05717],[14.2573,50.0545],[14.26237,50.05561],[14.26438,50.05241],[14.27164,50.05441],[14.27515,50.05587],[14.27327,50.05679],[14.27665,50.05915],[14.2742,50.05943],[14.27375,50.06697],[14.2793,50.06861],[14.27862,50.071],[14.27537,50.07317],[14.26683,50.07271]]]}},{"type":"Feature","properties":{"cislo":57005,"mco":"Praha-Zličín"},"geometry":{"type":"Polygon","coordinates":[[[14.30019,50.06334],[14.2931,50.05954],[14.28777,50.05787],[14.2819,50.05549],[14.2786,50.05984],[14.27665,50.05915],[14.27327,50.05679],[14.27515,50.05587],[14.27164,50.05441],[14.27271,50.05069],[14.27598,50.04941],[14.29833,50.05237],[14.29722,50.05506],[14.30477,50.05738],[14.30451,50.06093],[14.30418,50.06105],[14.30019,50.06334]]]}}]}