{"type":"FeatureCollection","features":[{"type":"Feature","properties":{"cislo":38001,"mco":"Praha-Libuš"},"geometry":{"type":"MultiPolygon","coordinates":[[[[14.45326,50.01334],[14.44882,50.01493],[14.4472,50.01347],[14.44513,50.01283],[14.44283,50.01202],[14.44765,50.01142],[14.45067,50.01135],[14.45289,50.01192],[14.45608,50.00888],[14.46184,50.00887],[14.46432,50.00472],[14.4631,50.00899],[14.4604,50.01179],[14.45793,50.01164],[14.45954,50.01306],[14.45652,50.0122],[14.45606,50.01315],[14.45869,50.0129],[14.45764,50.01467],[14.45665,50.01447],[14.45326,50.01334]]],[[[14.46333,50.00431],[14.46665,50.0011],[14.46709,49.99977],[14.4759,49.99842],[14.47357,50.0017],[14.47635,50.00191],[14.4759,50.00444],[14.4718,50.00385],[14.46333,50.00431]]]]}},{"type":"Feature","properties":{"cislo":38002,"mco":"Praha-Libuš"},"geometry":{"type":"Polygon","coordinates":[[[14.46471,50.00095],[14.46176,50.00072],[14.46208,49.99923],[14.45602,49.9994],[14.45832,49.99754],[14.45429,49.99362],[14.45718,49.9913],[14.46029,49.99199],[14.46127,49.99011],[14.46365,49.99086],[14.46297,49.98841],[14.46644,49.98687],[14.46163,49.98534],[14.46714,49.98496],[14.46637,49.98111],[14.47406,49.98048],[14.47377,49.98383],[14.48705,49.98576],[14.4871,49.98766],[14.48465,49.98749],[14.484,49.99249],[14.48315,49.99488],[14.47822,49.99539],[14.4759,49.99842],[14.46709,49.99977],[14.46665,50.0011],[14.46471,50.00095]]]}},{"type":"Feature","properties":{"cislo":38003,"mco":"Praha-Libuš"},"geometry":{"type":"Polygon","coordinates":[[[14.45308,50.00262],[14.4515,50.00039],[14.45602,49.9994],[14.46208,49.99923],[14.46176,50.00072],[14.46471,50.00095],[14.46415,50.0026],[14.46161,50.00253],[14.45308,50.00262]]]}},{"type":"Feature","properties":{"cislo":38004,"mco":"Praha-Libuš"},"geometry":{"type":"Polygon","coordinates":[[[14.46161,50.00253],[14.46415,50.0026],[14.46471,50.00095],[14.46665,50.0011],[14.46333,50.00431],[14.46108,50.0057],[14.46161,50.00253]]]}},{"type":"Feature","properties":{"cislo":38005,"mco":"Praha-Libuš"},"geometry":{"type":"Polygon","coordinates":[[[14.45608,50.00888],[14.45624,50.00849],[14.45643,50.00605],[14.44931,50.00636],[14.44693,50.0067],[14.44979,50.00622],[14.44891,50.00272],[14.45308,50.00262],[14.46161,50.00253],[14.46108,50.0057],[14.46333,50.00431],[14.4718,50.00385],[14.46953,50.00711],[14.46695,50.00697],[14.46629,50.0094],[14.4631,50.00899],[14.46432,50.00472],[14.46184,50.00887],[14.45608,50.00888]]]}},{"type":"Feature","properties":{"cislo":38006,"mco":"Praha-Libuš"},"geometry":{"type":"Polygon","coordinates":[[[14.46953,50.00711],[14.46443,50.01606],[14.46379,50.01585],[14.45764,50.01467],[14.45869,50.0129],[14.45606,50.01315],[14.45652,50.0122],[14.45954,50.01306],[14.45793,50.01164],[14.4604,50.01179],[14.4631,50.00899],[14.46629,50.0094],[14.46695,50.00697],[14.46953,50.00711]]]}}]}