{"type":"FeatureCollection","features":[{"type":"Feature","properties":{"cislo":31001,"mco":"Praha-Dubeč"},"geometry":{"type":"MultiPolygon","coordinates":[[[[14.58544,50.0826],[14.58561,50.08116],[14.57685,50.08059],[14.57732,50.07605],[14.56703,50.07437],[14.57166,50.06109],[14.57695,50.06185],[14.57977,50.06179],[14.58049,50.05723],[14.58683,50.05866],[14.58963,50.05472],[14.59603,50.05214],[14.59732,50.05393],[14.60297,50.05346],[14.60218,50.05528],[14.61578,50.05573],[14.6158,50.05761],[14.6213,50.05691],[14.61997,50.06295],[14.62213,50.06298],[14.62258,50.0644],[14.61915,50.06483],[14.61776,50.06796],[14.61355,50.06697],[14.61201,50.07258],[14.60975,50.07322],[14.60769,50.07729],[14.60286,50.07557],[14.59937,50.0663],[14.59393,50.06483],[14.59211,50.07175],[14.58557,50.08256],[14.58544,50.0826]]],[[[14.57838,50.05734],[14.5783,50.05736],[14.57804,50.05772],[14.57795,50.05731],[14.57838,50.05734]]]]}},{"type":"Feature","properties":{"cislo":31002,"mco":"Praha-Dubeč"},"geometry":{"type":"MultiPolygon","coordinates":[[[[14.59603,50.05214],[14.58963,50.05472],[14.58683,50.05866],[14.58049,50.05723],[14.57977,50.06179],[14.57695,50.06185],[14.57838,50.05734],[14.57795,50.05731],[14.57804,50.05772],[14.57591,50.05778],[14.57791,50.05562],[14.57552,50.05179],[14.58018,50.04939],[14.5834,50.04885],[14.58441,50.04707],[14.58726,50.04848],[14.59633,50.04855],[14.59603,50.05214]]],[[[14.60286,50.07557],[14.59781,50.07501],[14.59622,50.07265],[14.59211,50.07175],[14.59393,50.06483],[14.59937,50.0663],[14.60286,50.07557]]]]}}]}