{"type":"FeatureCollection","features":[{"type":"Feature","properties":{"cislo":6001,"mco":"Praha 6"},"geometry":{"type":"Polygon","coordinates":[[[14.40542,50.11394],[14.39503,50.12188],[14.39388,50.11629],[14.39474,50.11196],[14.3991,50.1094],[14.40664,50.10705],[14.40584,50.10846],[14.40844,50.11087],[14.40555,50.11147],[14.40542,50.11394]]]}},{"type":"Feature","properties":{"cislo":6002,"mco":"Praha 6"},"geometry":{"type":"Polygon","coordinates":[[[14.39388,50.11629],[14.39188,50.11539],[14.39283,50.11377],[14.3943,50.11034],[14.39526,50.10883],[14.3991,50.1094],[14.39474,50.11196],[14.39388,50.11629]]]}},{"type":"Feature","properties":{"cislo":6003,"mco":"Praha 6"},"geometry":{"type":"Polygon","coordinates":[[[14.3943,50.11034],[14.39488,50.10557],[14.39603,50.10568],[14.39526,50.10883],[14.3943,50.11034]]]}},{"type":"Feature","properties":{"cislo":6004,"mco":"Praha 6"},"geometry":{"type":"Polygon","coordinates":[[[14.3991,50.1094],[14.39526,50.10883],[14.39603,50.10568],[14.39841,50.10353],[14.40147,50.10428],[14.40597,50.10646],[14.40664,50.10705],[14.3991,50.1094]]]}},{"type":"Feature","properties":{"cislo":6005,"mco":"Praha 6"},"geometry":{"type":"Polygon","coordinates":[[[14.39488,50.10557],[14.39519,50.10309],[14.39841,50.10353],[14.39603,50.10568],[14.39488,50.10557]]]}},{"type":"Feature","properties":{"cislo":6006,"mco":"Praha 6"},"geometry":{"type":"Polygon","coordinates":[[[14.39841,50.10353],[14.39519,50.10309],[14.39549,50.10065],[14.39903,50.10248],[14.39841,50.10353]]]}},{"type":"Feature","properties":{"cislo":6007,"mco":"Praha 6"},"geometry":{"type":"Polygon","coordinates":[[[14.39549,50.10065],[14.3982,50.10079],[14.40038,50.10076],[14.39903,50.10248],[14.39549,50.10065]]]}},{"type":"Feature","properties":{"cislo":6008,"mco":"Praha 6"},"geometry":{"type":"Polygon","coordinates":[[[14.39903,50.10248],[14.40038,50.10076],[14.40258,50.10041],[14.40333,50.10251],[14.40245,50.10266],[14.39903,50.10248]]]}},{"type":"Feature","properties":{"cislo":6009,"mco":"Praha 6"},"geometry":{"type":"Polygon","coordinates":[[[14.39841,50.10353],[14.39903,50.10248],[14.40245,50.10266],[14.40147,50.10428],[14.39841,50.10353]]]}},{"type":"Feature","properties":{"cislo":6010,"mco":"Praha 6"},"geometry":{"type":"Polygon","coordinates":[[[14.40147,50.10428],[14.40245,50.10266],[14.40333,50.10251],[14.40553,50.10337],[14.40466,50.10109],[14.40536,50.09941],[14.40717,50.09958],[14.40766,50.09773],[14.41159,50.09832],[14.4152,50.10116],[14.41823,50.10322],[14.40754,50.10472],[14.40597,50.10646],[14.40147,50.10428]]]}},{"type":"Feature","properties":{"cislo":6011,"mco":"Praha 6"},"geometry":{"type":"Polygon","coordinates":[[[14.40466,50.10109],[14.40553,50.10337],[14.40333,50.10251],[14.40293,50.10137],[14.40466,50.10109]]]}},{"type":"Feature","properties":{"cislo":6012,"mco":"Praha 6"},"geometry":{"type":"Polygon","coordinates":[[[14.40258,50.10041],[14.40199,50.09893],[14.40536,50.09941],[14.40466,50.10109],[14.40293,50.10137],[14.40258,50.10041]]]}},{"type":"Feature","properties":{"cislo":6013,"mco":"Praha 6"},"geometry":{"type":"Polygon","coordinates":[[[14.40766,50.09773],[14.40717,50.09958],[14.40536,50.09941],[14.40417,50.09924],[14.40463,50.09802],[14.40504,50.09738],[14.40766,50.09773]]]}},{"type":"Feature","properties":{"cislo":6014,"mco":"Praha 6"},"geometry":{"type":"Polygon","coordinates":[[[14.3982,50.10079],[14.39964,50.09854],[14.40199,50.09893],[14.40258,50.10041],[14.40038,50.10076],[14.3982,50.10079]]]}},{"type":"Feature","properties":{"cislo":6015,"mco":"Praha 6"},"geometry":{"type":"Polygon","coordinates":[[[14.39964,50.09854],[14.3982,50.10079],[14.39549,50.10065],[14.39964,50.09854]]]}},{"type":"Feature","properties":{"cislo":6016,"mco":"Praha 6"},"geometry":{"type":"Polygon","coordinates":[[[14.39569,50.09898],[14.39598,50.0967],[14.39821,50.09836],[14.39569,50.09898]]]}},{"type":"Feature","properties":{"cislo":6017,"mco":"Praha 6"},"geometry":{"type":"Polygon","coordinates":[[[14.40417,50.09924],[14.39964,50.09854],[14.39984,50.09845],[14.40463,50.09802],[14.40417,50.09924]]]}},{"type":"Feature","properties":{"cislo":6018,"mco":"Praha 6"},"geometry":{"type":"Polygon","coordinates":[[[14.39569,50.09898],[14.39821,50.09836],[14.39984,50.09845],[14.39549,50.10065],[14.39569,50.09898]]]}},{"type":"Feature","properties":{"cislo":6019,"mco":"Praha 6"},"geometry":{"type":"Polygon","coordinates":[[[14.39984,50.09845],[14.39821,50.09836],[14.39598,50.0967],[14.39601,50.09637],[14.39687,50.09508],[14.40504,50.09738],[14.40463,50.09802],[14.39984,50.09845]]]}},{"type":"Feature","properties":{"cislo":6020,"mco":"Praha 6"},"geometry":{"type":"Polygon","coordinates":[[[14.40914,50.09523],[14.40766,50.09773],[14.40504,50.09738],[14.39687,50.09508],[14.39842,50.09338],[14.40577,50.09444],[14.40914,50.09523]]]}},{"type":"Feature","properties":{"cislo":6021,"mco":"Praha 6"},"geometry":{"type":"Polygon","coordinates":[[[14.38984,50.10581],[14.39499,50.10467],[14.39468,50.1071],[14.39123,50.10703],[14.38984,50.10581]]]}},{"type":"Feature","properties":{"cislo":6022,"mco":"Praha 6"},"geometry":{"type":"Polygon","coordinates":[[[14.39116,50.10872],[14.38931,50.10832],[14.38882,50.10636],[14.38984,50.10581],[14.39123,50.10703],[14.39116,50.10872]]]}},{"type":"Feature","properties":{"cislo":6023,"mco":"Praha 6"},"geometry":{"type":"Polygon","coordinates":[[[14.39123,50.10703],[14.39274,50.10706],[14.3937,50.10873],[14.39116,50.10872],[14.39123,50.10703]]]}},{"type":"Feature","properties":{"cislo":6024,"mco":"Praha 6"},"geometry":{"type":"Polygon","coordinates":[[[14.3886,50.11542],[14.38368,50.11291],[14.38568,50.11289],[14.38582,50.11127],[14.38931,50.10832],[14.39116,50.10872],[14.3937,50.10873],[14.39274,50.10706],[14.39468,50.1071],[14.3943,50.11034],[14.39283,50.11377],[14.3886,50.11542]]]}},{"type":"Feature","properties":{"cislo":6025,"mco":"Praha 6"},"geometry":{"type":"Polygon","coordinates":[[[14.38582,50.11127],[14.38289,50.1086],[14.38512,50.10371],[14.38659,50.10326],[14.38882,50.10636],[14.38931,50.10832],[14.38582,50.11127]]]}},{"type":"Feature","properties":{"cislo":6026,"mco":"Praha 6"},"geometry":{"type":"Polygon","coordinates":[[[14.37817,50.11145],[14.38368,50.11291],[14.3886,50.11542],[14.38832,50.11918],[14.3805,50.11674],[14.37555,50.11379],[14.37817,50.11145]]]}},{"type":"Feature","properties":{"cislo":6027,"mco":"Praha 6"},"geometry":{"type":"Polygon","coordinates":[[[14.38368,50.11291],[14.37817,50.11145],[14.37787,50.11066],[14.37974,50.10695],[14.38039,50.10507],[14.38512,50.10371],[14.38289,50.1086],[14.38582,50.11127],[14.38568,50.11289],[14.38368,50.11291]]]}},{"type":"Feature","properties":{"cislo":6028,"mco":"Praha 6"},"geometry":{"type":"Polygon","coordinates":[[[14.37338,50.10795],[14.37405,50.1069],[14.37974,50.10695],[14.37787,50.11066],[14.37338,50.10795]]]}},{"type":"Feature","properties":{"cislo":6029,"mco":"Praha 6"},"geometry":{"type":"Polygon","coordinates":[[[14.37405,50.1069],[14.3732,50.10352],[14.38122,50.10401],[14.38039,50.10507],[14.37974,50.10695],[14.37405,50.1069]]]}},{"type":"Feature","properties":{"cislo":6030,"mco":"Praha 6"},"geometry":{"type":"Polygon","coordinates":[[[14.367,50.10538],[14.37015,50.10305],[14.3732,50.10352],[14.37405,50.1069],[14.37338,50.10795],[14.36772,50.10705],[14.367,50.10538]]]}},{"type":"Feature","properties":{"cislo":6031,"mco":"Praha 6"},"geometry":{"type":"Polygon","coordinates":[[[14.3732,50.10352],[14.37015,50.10305],[14.367,50.10538],[14.36391,50.1038],[14.36508,50.10175],[14.36816,50.10248],[14.37113,50.09987],[14.3732,50.10352]]]}},{"type":"Feature","properties":{"cislo":6032,"mco":"Praha 6"},"geometry":{"type":"Polygon","coordinates":[[[14.36188,50.10189],[14.36402,50.09961],[14.36543,50.09875],[14.37012,50.09912],[14.37113,50.09987],[14.36816,50.10248],[14.36508,50.10175],[14.36391,50.1038],[14.36188,50.10189]]]}},{"type":"Feature","properties":{"cislo":6033,"mco":"Praha 6"},"geometry":{"type":"Polygon","coordinates":[[[14.38874,50.12462],[14.38471,50.12201],[14.37042,50.11904],[14.36698,50.11204],[14.36165,50.11632],[14.35427,50.11623],[14.35529,50.11508],[14.35194,50.11455],[14.35449,50.11236],[14.35269,50.1092],[14.33136,50.109],[14.33483,50.1039],[14.33565,50.10755],[14.3378,50.10846],[14.34838,50.10627],[14.35503,50.10264],[14.35893,50.10324],[14.36188,50.10189],[14.36391,50.1038],[14.367,50.10538],[14.36772,50.10705],[14.37338,50.10795],[14.37787,50.11066],[14.37817,50.11145],[14.37555,50.11379],[14.3805,50.11674],[14.38832,50.11918],[14.3886,50.11542],[14.39283,50.11377],[14.39188,50.11539],[14.39388,50.11629],[14.39503,50.12188],[14.39395,50.12274],[14.38874,50.12462]]]}},{"type":"Feature","properties":{"cislo":6034,"mco":"Praha 6"},"geometry":{"type":"Polygon","coordinates":[[[14.33169,50.09064],[14.32517,50.08983],[14.32339,50.08791],[14.32581,50.08711],[14.32091,50.08339],[14.32128,50.08155],[14.32546,50.08076],[14.33516,50.07867],[14.34189,50.08078],[14.34261,50.08285],[14.33805,50.08453],[14.33894,50.08579],[14.33516,50.08782],[14.33503,50.08955],[14.33169,50.09064]]]}},{"type":"Feature","properties":{"cislo":6035,"mco":"Praha 6"},"geometry":{"type":"Polygon","coordinates":[[[14.38882,50.10636],[14.38659,50.10326],[14.3857,50.10016],[14.39549,50.10065],[14.39499,50.10467],[14.38984,50.10581],[14.38882,50.10636]]]}},{"type":"Feature","properties":{"cislo":6036,"mco":"Praha 6"},"geometry":{"type":"Polygon","coordinates":[[[14.38512,50.10371],[14.38039,50.10507],[14.38122,50.10401],[14.37689,50.10375],[14.37807,50.09975],[14.3857,50.10016],[14.38659,50.10326],[14.38512,50.10371]]]}},{"type":"Feature","properties":{"cislo":6037,"mco":"Praha 6"},"geometry":{"type":"Polygon","coordinates":[[[14.37113,50.09987],[14.37012,50.09912],[14.37807,50.09975],[14.37689,50.10375],[14.3732,50.10352],[14.37113,50.09987]]]}},{"type":"Feature","properties":{"cislo":6038,"mco":"Praha 6"},"geometry":{"type":"Polygon","coordinates":[[[14.37012,50.09912],[14.37003,50.0973],[14.37248,50.09629],[14.37628,50.097],[14.37549,50.09956],[14.37012,50.09912]]]}},{"type":"Feature","properties":{"cislo":6039,"mco":"Praha 6"},"geometry":{"type":"Polygon","coordinates":[[[14.37807,50.09975],[14.37549,50.09956],[14.37628,50.097],[14.38786,50.0982],[14.38735,50.10025],[14.37807,50.09975]]]}},{"type":"Feature","properties":{"cislo":6040,"mco":"Praha 6"},"geometry":{"type":"Polygon","coordinates":[[[14.38735,50.10025],[14.38775,50.09858],[14.39304,50.09834],[14.39221,50.10049],[14.38735,50.10025]]]}},{"type":"Feature","properties":{"cislo":6041,"mco":"Praha 6"},"geometry":{"type":"Polygon","coordinates":[[[14.38775,50.09858],[14.38786,50.0982],[14.39601,50.09637],[14.39549,50.10065],[14.39221,50.10049],[14.39304,50.09834],[14.38775,50.09858]]]}},{"type":"Feature","properties":{"cislo":6042,"mco":"Praha 6"},"geometry":{"type":"Polygon","coordinates":[[[14.36761,50.09214],[14.35755,50.09145],[14.35989,50.0877],[14.36617,50.08856],[14.36962,50.08955],[14.36847,50.0917],[14.36844,50.0922],[14.36761,50.09214]]]}},{"type":"Feature","properties":{"cislo":6043,"mco":"Praha 6"},"geometry":{"type":"Polygon","coordinates":[[[14.36847,50.0917],[14.37022,50.08836],[14.37285,50.08874],[14.37872,50.09021],[14.36847,50.0917]]]}},{"type":"Feature","properties":{"cislo":6044,"mco":"Praha 6"},"geometry":{"type":"Polygon","coordinates":[[[14.38202,50.09293],[14.38315,50.09165],[14.37872,50.09021],[14.37285,50.08874],[14.37913,50.08895],[14.3805,50.08774],[14.38226,50.0886],[14.38616,50.09172],[14.38202,50.09293]]]}},{"type":"Feature","properties":{"cislo":6045,"mco":"Praha 6"},"geometry":{"type":"Polygon","coordinates":[[[14.37628,50.097],[14.37248,50.09629],[14.37249,50.09616],[14.38387,50.09515],[14.38202,50.09293],[14.38616,50.09172],[14.38908,50.09217],[14.39842,50.09338],[14.39687,50.09508],[14.39601,50.09637],[14.38786,50.0982],[14.37628,50.097]]]}},{"type":"Feature","properties":{"cislo":6046,"mco":"Praha 6"},"geometry":{"type":"Polygon","coordinates":[[[14.37249,50.09616],[14.37296,50.09305],[14.36844,50.0922],[14.36847,50.0917],[14.37872,50.09021],[14.38315,50.09165],[14.38202,50.09293],[14.38387,50.09515],[14.37249,50.09616]]]}},{"type":"Feature","properties":{"cislo":6047,"mco":"Praha 6"},"geometry":{"type":"Polygon","coordinates":[[[14.36609,50.09528],[14.36761,50.09214],[14.36844,50.0922],[14.37296,50.09305],[14.37248,50.09629],[14.36609,50.09528]]]}},{"type":"Feature","properties":{"cislo":6048,"mco":"Praha 6"},"geometry":{"type":"Polygon","coordinates":[[[14.36505,50.08552],[14.36472,50.08545],[14.35783,50.08317],[14.36637,50.08413],[14.37009,50.08402],[14.36505,50.08552]]]}},{"type":"Feature","properties":{"cislo":6049,"mco":"Praha 6"},"geometry":{"type":"Polygon","coordinates":[[[14.36036,50.08748],[14.35372,50.08859],[14.3519,50.08755],[14.35332,50.08666],[14.34927,50.08674],[14.34684,50.08338],[14.35579,50.08246],[14.36472,50.08545],[14.36504,50.08746],[14.36036,50.08748]]]}},{"type":"Feature","properties":{"cislo":6050,"mco":"Praha 6"},"geometry":{"type":"Polygon","coordinates":[[[14.36617,50.08856],[14.35989,50.0877],[14.36036,50.08748],[14.36504,50.08746],[14.36472,50.08545],[14.36856,50.08622],[14.37834,50.08739],[14.3805,50.08774],[14.37913,50.08895],[14.37285,50.08874],[14.37022,50.08836],[14.3654,50.08755],[14.36617,50.08856]]]}},{"type":"Feature","properties":{"cislo":6051,"mco":"Praha 6"},"geometry":{"type":"Polygon","coordinates":[[[14.36962,50.08955],[14.36617,50.08856],[14.3654,50.08755],[14.37022,50.08836],[14.36962,50.08955]]]}},{"type":"Feature","properties":{"cislo":6052,"mco":"Praha 6"},"geometry":{"type":"Polygon","coordinates":[[[14.37155,50.08656],[14.36856,50.08622],[14.37189,50.08496],[14.37155,50.08656]]]}},{"type":"Feature","properties":{"cislo":6053,"mco":"Praha 6"},"geometry":{"type":"Polygon","coordinates":[[[14.37363,50.08681],[14.37155,50.08656],[14.37197,50.0846],[14.37439,50.08495],[14.37409,50.08634],[14.37363,50.08681]]]}},{"type":"Feature","properties":{"cislo":6054,"mco":"Praha 6"},"geometry":{"type":"Polygon","coordinates":[[[14.37834,50.08739],[14.37363,50.08681],[14.37409,50.08634],[14.37864,50.08634],[14.37834,50.08739]]]}},{"type":"Feature","properties":{"cislo":6055,"mco":"Praha 6"},"geometry":{"type":"Polygon","coordinates":[[[14.3805,50.08774],[14.37834,50.08739],[14.37864,50.08634],[14.37409,50.08634],[14.37439,50.08495],[14.37197,50.0846],[14.3721,50.08402],[14.3821,50.08564],[14.3805,50.08774]]]}},{"type":"Feature","properties":{"cislo":6056,"mco":"Praha 6"},"geometry":{"type":"Polygon","coordinates":[[[14.38168,50.08557],[14.3721,50.08402],[14.37149,50.08397],[14.37173,50.08311],[14.38168,50.08557]]]}},{"type":"Feature","properties":{"cislo":6057,"mco":"Praha 6"},"geometry":{"type":"Polygon","coordinates":[[[14.38449,50.08622],[14.38168,50.08557],[14.37173,50.08311],[14.37061,50.08232],[14.37366,50.08219],[14.37356,50.07937],[14.37116,50.07812],[14.37722,50.07815],[14.37976,50.07945],[14.38484,50.0788],[14.39257,50.07816],[14.39765,50.08],[14.39259,50.08243],[14.38809,50.08305],[14.38563,50.08644],[14.38449,50.08622]]]}},{"type":"Feature","properties":{"cislo":6058,"mco":"Praha 6"},"geometry":{"type":"Polygon","coordinates":[[[14.36856,50.08622],[14.36505,50.08552],[14.37009,50.08402],[14.37149,50.08397],[14.3721,50.08402],[14.37189,50.08496],[14.36856,50.08622]]]}},{"type":"Feature","properties":{"cislo":6059,"mco":"Praha 6"},"geometry":{"type":"Polygon","coordinates":[[[14.3881,50.08878],[14.38304,50.08871],[14.38449,50.08622],[14.38563,50.08644],[14.38818,50.08723],[14.3881,50.08878]]]}},{"type":"Feature","properties":{"cislo":6060,"mco":"Praha 6"},"geometry":{"type":"Polygon","coordinates":[[[14.38226,50.0886],[14.3805,50.08774],[14.3821,50.08564],[14.38449,50.08622],[14.38304,50.08871],[14.38226,50.0886]]]}},{"type":"Feature","properties":{"cislo":6061,"mco":"Praha 6"},"geometry":{"type":"Polygon","coordinates":[[[14.38908,50.09217],[14.38616,50.09172],[14.38226,50.0886],[14.38304,50.08871],[14.3881,50.08878],[14.38908,50.09217]]]}},{"type":"Feature","properties":{"cislo":6062,"mco":"Praha 6"},"geometry":{"type":"Polygon","coordinates":[[[14.37009,50.08402],[14.36637,50.08413],[14.36559,50.08323],[14.36668,50.0814],[14.37061,50.08232],[14.37173,50.08311],[14.37149,50.08397],[14.37009,50.08402]]]}},{"type":"Feature","properties":{"cislo":6063,"mco":"Praha 6"},"geometry":{"type":"Polygon","coordinates":[[[14.37061,50.08232],[14.36668,50.0814],[14.36559,50.08323],[14.36077,50.0821],[14.36248,50.0817],[14.35965,50.08058],[14.36203,50.07861],[14.37356,50.07937],[14.37366,50.08219],[14.37061,50.08232]]]}},{"type":"Feature","properties":{"cislo":6064,"mco":"Praha 6"},"geometry":{"type":"Polygon","coordinates":[[[14.36637,50.08413],[14.35783,50.08317],[14.35579,50.08246],[14.36077,50.0821],[14.36559,50.08323],[14.36637,50.08413]]]}},{"type":"Feature","properties":{"cislo":6065,"mco":"Praha 6"},"geometry":{"type":"Polygon","coordinates":[[[14.34684,50.08338],[14.3448,50.08109],[14.3455,50.07605],[14.34664,50.07563],[14.35659,50.07712],[14.3569,50.07822],[14.36203,50.07861],[14.35965,50.08058],[14.36248,50.0817],[14.36077,50.0821],[14.35579,50.08246],[14.34684,50.08338]]]}},{"type":"Feature","properties":{"cislo":6066,"mco":"Praha 6"},"geometry":{"type":"Polygon","coordinates":[[[14.3448,50.08109],[14.34368,50.08207],[14.34189,50.08078],[14.33516,50.07867],[14.333,50.07705],[14.32577,50.07629],[14.32546,50.07455],[14.3455,50.07605],[14.3448,50.08109]]]}},{"type":"Feature","properties":{"cislo":6067,"mco":"Praha 6"},"geometry":{"type":"Polygon","coordinates":[[[14.32377,50.07623],[14.32577,50.07629],[14.333,50.07705],[14.33516,50.07867],[14.32546,50.08076],[14.32377,50.07623]]]}},{"type":"Feature","properties":{"cislo":6068,"mco":"Praha 6"},"geometry":{"type":"Polygon","coordinates":[[[14.2739,50.11766],[14.26012,50.11352],[14.25724,50.11464],[14.25615,50.11262],[14.25011,50.11087],[14.24519,50.11006],[14.24075,50.11136],[14.23713,50.11059],[14.23932,50.10732],[14.22455,50.10292],[14.2266,50.10047],[14.23296,50.10234],[14.23703,50.10111],[14.24505,50.10288],[14.24991,50.10355],[14.25842,50.09946],[14.2541,50.09772],[14.26107,50.09637],[14.26117,50.08718],[14.26522,50.08737],[14.26834,50.08583],[14.27342,50.0877],[14.27533,50.08115],[14.30999,50.08398],[14.30804,50.08545],[14.30086,50.09046],[14.30415,50.09351],[14.29871,50.09401],[14.29628,50.0957],[14.29504,50.10181],[14.29925,50.10424],[14.29525,50.10693],[14.2937,50.10635],[14.28535,50.11575],[14.27891,50.11916],[14.2739,50.11766]]]}},{"type":"Feature","properties":{"cislo":6069,"mco":"Praha 6"},"geometry":{"type":"Polygon","coordinates":[[[14.30999,50.08398],[14.28198,50.08172],[14.28541,50.08129],[14.28508,50.07834],[14.28941,50.07701],[14.29328,50.07759],[14.3102,50.07645],[14.32377,50.07623],[14.32546,50.08076],[14.32128,50.08155],[14.31587,50.07971],[14.31509,50.0777],[14.31246,50.07773],[14.31267,50.07931],[14.31015,50.07892],[14.30999,50.08398]]]}},{"type":"Feature","properties":{"cislo":6070,"mco":"Praha 6"},"geometry":{"type":"Polygon","coordinates":[[[14.32128,50.08155],[14.32091,50.08339],[14.32581,50.08711],[14.32339,50.08791],[14.31978,50.0859],[14.31565,50.08673],[14.30804,50.08545],[14.30999,50.08398],[14.31015,50.07892],[14.31267,50.07931],[14.31246,50.07773],[14.31509,50.0777],[14.31587,50.07971],[14.32128,50.08155]]]}},{"type":"Feature","properties":{"cislo":6071,"mco":"Praha 6"},"geometry":{"type":"Polygon","coordinates":[[[14.30648,50.08924],[14.30431,50.08939],[14.30327,50.08877],[14.30562,50.08715],[14.30648,50.08924]]]}},{"type":"Feature","properties":{"cislo":6072,"mco":"Praha 6"},"geometry":{"type":"Polygon","coordinates":[[[14.31041,50.09019],[14.30648,50.08924],[14.30562,50.08715],[14.30804,50.08545],[14.31565,50.08673],[14.31412,50.09086],[14.31041,50.09019]]]}},{"type":"Feature","properties":{"cislo":6073,"mco":"Praha 6"},"geometry":{"type":"Polygon","coordinates":[[[14.31028,50.09126],[14.30894,50.09224],[14.30366,50.09076],[14.30431,50.08939],[14.30648,50.08924],[14.31041,50.09019],[14.31028,50.09126]]]}},{"type":"Feature","properties":{"cislo":6074,"mco":"Praha 6"},"geometry":{"type":"Polygon","coordinates":[[[14.30415,50.09351],[14.30086,50.09046],[14.30327,50.08877],[14.30431,50.08939],[14.30366,50.09076],[14.30894,50.09224],[14.31028,50.09126],[14.31358,50.09199],[14.31294,50.09311],[14.30415,50.09351]]]}},{"type":"Feature","properties":{"cislo":6075,"mco":"Praha 6"},"geometry":{"type":"Polygon","coordinates":[[[14.32168,50.10659],[14.30558,50.10319],[14.30112,50.10291],[14.29925,50.10424],[14.29504,50.10181],[14.29628,50.0957],[14.29871,50.09401],[14.30415,50.09351],[14.31294,50.09311],[14.31358,50.09199],[14.31028,50.09126],[14.31041,50.09019],[14.32418,50.0927],[14.32013,50.09379],[14.32337,50.0944],[14.31637,50.09644],[14.31865,50.09942],[14.31551,50.10361],[14.32064,50.10491],[14.32168,50.10659]]]}},{"type":"Feature","properties":{"cislo":6076,"mco":"Praha 6"},"geometry":{"type":"Polygon","coordinates":[[[14.31412,50.09086],[14.31565,50.08673],[14.31978,50.0859],[14.32339,50.08791],[14.32517,50.08983],[14.32418,50.0927],[14.31412,50.09086]]]}},{"type":"Feature","properties":{"cislo":6077,"mco":"Praha 6"},"geometry":{"type":"Polygon","coordinates":[[[14.32469,50.10667],[14.32168,50.10659],[14.32064,50.10491],[14.31551,50.10361],[14.31865,50.09942],[14.31637,50.09644],[14.32337,50.0944],[14.32013,50.09379],[14.32418,50.0927],[14.32517,50.08983],[14.33169,50.09064],[14.33112,50.09315],[14.32522,50.09402],[14.32806,50.09699],[14.32599,50.0977],[14.32785,50.10012],[14.32469,50.10667]]]}},{"type":"Feature","properties":{"cislo":6078,"mco":"Praha 6"},"geometry":{"type":"Polygon","coordinates":[[[14.33112,50.09315],[14.33169,50.09064],[14.33503,50.08955],[14.34519,50.0948],[14.35305,50.09457],[14.35312,50.09503],[14.34561,50.09565],[14.33525,50.09378],[14.33462,50.09477],[14.33112,50.09315]]]}},{"type":"Feature","properties":{"cislo":6079,"mco":"Praha 6"},"geometry":{"type":"Polygon","coordinates":[[[14.33136,50.109],[14.32916,50.10835],[14.32469,50.10667],[14.32785,50.10012],[14.32599,50.0977],[14.32806,50.09699],[14.32522,50.09402],[14.33112,50.09315],[14.33462,50.09477],[14.33525,50.09378],[14.35099,50.09661],[14.35066,50.09769],[14.34411,50.09752],[14.33825,50.09954],[14.3341,50.10257],[14.33483,50.1039],[14.33136,50.109]]]}},{"type":"Feature","properties":{"cislo":6080,"mco":"Praha 6"},"geometry":{"type":"Polygon","coordinates":[[[14.33483,50.1039],[14.3341,50.10257],[14.33825,50.09954],[14.34411,50.09752],[14.3511,50.09772],[14.35021,50.09919],[14.35503,50.10264],[14.34838,50.10627],[14.3378,50.10846],[14.33565,50.10755],[14.33483,50.1039]]]}},{"type":"Feature","properties":{"cislo":6081,"mco":"Praha 6"},"geometry":{"type":"Polygon","coordinates":[[[14.35503,50.10264],[14.35021,50.09919],[14.3511,50.09772],[14.35485,50.09731],[14.35892,50.09804],[14.358,50.10023],[14.36007,50.10099],[14.35893,50.10324],[14.35503,50.10264]]]}},{"type":"Feature","properties":{"cislo":6082,"mco":"Praha 6"},"geometry":{"type":"Polygon","coordinates":[[[14.35893,50.10324],[14.36007,50.10099],[14.36402,50.09961],[14.36188,50.10189],[14.35893,50.10324]]]}},{"type":"Feature","properties":{"cislo":6083,"mco":"Praha 6"},"geometry":{"type":"Polygon","coordinates":[[[14.36007,50.10099],[14.358,50.10023],[14.35892,50.09804],[14.36543,50.09875],[14.36402,50.09961],[14.36007,50.10099]]]}},{"type":"Feature","properties":{"cislo":6084,"mco":"Praha 6"},"geometry":{"type":"Polygon","coordinates":[[[14.35485,50.09731],[14.3511,50.09772],[14.35066,50.09769],[14.35099,50.09661],[14.34561,50.09565],[14.35312,50.09503],[14.35557,50.09533],[14.35522,50.09646],[14.35485,50.09731]]]}},{"type":"Feature","properties":{"cislo":6085,"mco":"Praha 6"},"geometry":{"type":"Polygon","coordinates":[[[14.35827,50.09792],[14.35485,50.09731],[14.35522,50.09646],[14.35874,50.09695],[14.35827,50.09792]]]}},{"type":"Feature","properties":{"cislo":6086,"mco":"Praha 6"},"geometry":{"type":"Polygon","coordinates":[[[14.36418,50.09864],[14.35892,50.09804],[14.35827,50.09792],[14.35874,50.09695],[14.36418,50.09864]]]}},{"type":"Feature","properties":{"cislo":6087,"mco":"Praha 6"},"geometry":{"type":"Polygon","coordinates":[[[14.36418,50.09864],[14.35874,50.09695],[14.35522,50.09646],[14.35557,50.09533],[14.36528,50.0977],[14.37012,50.09912],[14.36418,50.09864]]]}},{"type":"Feature","properties":{"cislo":6088,"mco":"Praha 6"},"geometry":{"type":"Polygon","coordinates":[[[14.37012,50.09912],[14.36528,50.0977],[14.36609,50.09528],[14.37248,50.09629],[14.37003,50.0973],[14.37012,50.09912]]]}},{"type":"Feature","properties":{"cislo":6089,"mco":"Praha 6"},"geometry":{"type":"Polygon","coordinates":[[[14.36609,50.09528],[14.36528,50.0977],[14.35978,50.09638],[14.36034,50.09376],[14.36609,50.09528]]]}},{"type":"Feature","properties":{"cislo":6090,"mco":"Praha 6"},"geometry":{"type":"Polygon","coordinates":[[[14.36034,50.09376],[14.35978,50.09638],[14.35557,50.09533],[14.35312,50.09503],[14.35305,50.09457],[14.35619,50.09317],[14.36034,50.09376]]]}},{"type":"Feature","properties":{"cislo":6091,"mco":"Praha 6"},"geometry":{"type":"Polygon","coordinates":[[[14.33503,50.08955],[14.33516,50.08782],[14.33956,50.08915],[14.34596,50.09356],[14.35138,50.09126],[14.35755,50.09145],[14.36761,50.09214],[14.36609,50.09528],[14.36034,50.09376],[14.35619,50.09317],[14.35305,50.09457],[14.34519,50.0948],[14.33503,50.08955]]]}},{"type":"Feature","properties":{"cislo":6092,"mco":"Praha 6"},"geometry":{"type":"Polygon","coordinates":[[[14.35138,50.09126],[14.34596,50.09356],[14.33956,50.08915],[14.3438,50.0901],[14.34601,50.09066],[14.34798,50.09093],[14.35138,50.09126]]]}},{"type":"Feature","properties":{"cislo":6093,"mco":"Praha 6"},"geometry":{"type":"Polygon","coordinates":[[[14.35755,50.09145],[14.35138,50.09126],[14.34798,50.09093],[14.34873,50.08922],[14.35755,50.09145]]]}},{"type":"Feature","properties":{"cislo":6094,"mco":"Praha 6"},"geometry":{"type":"Polygon","coordinates":[[[14.34601,50.09066],[14.34712,50.08882],[14.34873,50.08922],[14.34798,50.09093],[14.34601,50.09066]]]}},{"type":"Feature","properties":{"cislo":6095,"mco":"Praha 6"},"geometry":{"type":"Polygon","coordinates":[[[14.34601,50.09066],[14.3438,50.0901],[14.3449,50.08826],[14.34712,50.08882],[14.34601,50.09066]]]}},{"type":"Feature","properties":{"cislo":6096,"mco":"Praha 6"},"geometry":{"type":"Polygon","coordinates":[[[14.33956,50.08915],[14.33516,50.08782],[14.33894,50.08579],[14.34098,50.08726],[14.3449,50.08826],[14.3438,50.0901],[14.33956,50.08915]]]}},{"type":"Feature","properties":{"cislo":6097,"mco":"Praha 6"},"geometry":{"type":"Polygon","coordinates":[[[14.33894,50.08579],[14.33805,50.08453],[14.34261,50.08285],[14.34189,50.08078],[14.34368,50.08207],[14.3448,50.08109],[14.3468,50.08333],[14.34222,50.08524],[14.34098,50.08726],[14.33894,50.08579]]]}},{"type":"Feature","properties":{"cislo":6098,"mco":"Praha 6"},"geometry":{"type":"Polygon","coordinates":[[[14.34098,50.08726],[14.34222,50.08524],[14.34551,50.08605],[14.34427,50.0881],[14.34098,50.08726]]]}},{"type":"Feature","properties":{"cislo":6099,"mco":"Praha 6"},"geometry":{"type":"Polygon","coordinates":[[[14.3449,50.08826],[14.34427,50.0881],[14.34551,50.08605],[14.34698,50.08666],[14.34712,50.08882],[14.3449,50.08826]]]}},{"type":"Feature","properties":{"cislo":6100,"mco":"Praha 6"},"geometry":{"type":"Polygon","coordinates":[[[14.34927,50.08674],[14.35162,50.08995],[14.34712,50.08882],[14.34698,50.08666],[14.34909,50.08649],[14.34927,50.08674]]]}},{"type":"Feature","properties":{"cislo":6101,"mco":"Praha 6"},"geometry":{"type":"Polygon","coordinates":[[[14.35162,50.08995],[14.34927,50.08674],[14.35332,50.08666],[14.3519,50.08755],[14.35372,50.08859],[14.36036,50.08748],[14.35989,50.0877],[14.35755,50.09145],[14.35162,50.08995]]]}},{"type":"Feature","properties":{"cislo":6102,"mco":"Praha 6"},"geometry":{"type":"Polygon","coordinates":[[[14.34698,50.08666],[14.34551,50.08605],[14.34702,50.0836],[14.34909,50.08649],[14.34698,50.08666]]]}},{"type":"Feature","properties":{"cislo":6103,"mco":"Praha 6"},"geometry":{"type":"Polygon","coordinates":[[[14.34222,50.08524],[14.3468,50.08333],[14.34702,50.0836],[14.34551,50.08605],[14.34222,50.08524]]]}},{"type":"Feature","properties":{"cislo":6104,"mco":"Praha 6"},"geometry":{"type":"Polygon","coordinates":[[[14.39386,50.13835],[14.39162,50.13847],[14.38846,50.13511],[14.3923,50.12899],[14.39541,50.12826],[14.39651,50.1248],[14.39395,50.12274],[14.39503,50.12188],[14.40086,50.12722],[14.40095,50.12946],[14.40057,50.13053],[14.39257,50.13556],[14.39386,50.13835]]]}}]}