{"type":"FeatureCollection","features":[{"type":"Feature","properties":{"cislo":50001,"mco":"Praha-Šeberov"},"geometry":{"type":"Polygon","coordinates":[[[14.51399,50.02031],[14.50886,50.02084],[14.50037,50.02024],[14.50296,50.01281],[14.50068,50.0058],[14.52942,50.00052],[14.52106,50.0078],[14.52754,50.01091],[14.53555,50.01182],[14.52964,50.01418],[14.51399,50.02031]]]}},{"type":"Feature","properties":{"cislo":50002,"mco":"Praha-Šeberov"},"geometry":{"type":"Polygon","coordinates":[[[14.50068,50.0058],[14.4991,50.00282],[14.49443,50.00116],[14.49774,50.00112],[14.49701,49.99913],[14.49698,49.99534],[14.50732,49.99755],[14.50942,49.99393],[14.50758,49.99355],[14.50825,49.99221],[14.51381,49.99266],[14.51351,49.99423],[14.51802,49.99449],[14.5192,49.99717],[14.52439,49.99751],[14.52833,49.99991],[14.52942,50.00052],[14.50068,50.0058]]]}}]}