{"type":"FeatureCollection","features":[{"type":"Feature","properties":{"cislo":17001,"mco":"Praha 17"},"geometry":{"type":"Polygon","coordinates":[[[14.3218,50.07357],[14.31638,50.07126],[14.31581,50.07389],[14.31009,50.07315],[14.30995,50.07254],[14.31003,50.07107],[14.30995,50.06852],[14.31212,50.0686],[14.31532,50.06828],[14.31591,50.07094],[14.31717,50.06778],[14.32251,50.06857],[14.3218,50.07357]]]}},{"type":"Feature","properties":{"cislo":17002,"mco":"Praha 17"},"geometry":{"type":"Polygon","coordinates":[[[14.3102,50.07645],[14.29328,50.07759],[14.29137,50.0746],[14.29289,50.06739],[14.29864,50.06551],[14.2987,50.06634],[14.29833,50.06857],[14.30439,50.06874],[14.30365,50.06979],[14.30546,50.0725],[14.30995,50.07254],[14.31009,50.07315],[14.3102,50.07645]]]}},{"type":"Feature","properties":{"cislo":17003,"mco":"Praha 17"},"geometry":{"type":"Polygon","coordinates":[[[14.31212,50.0686],[14.31274,50.06609],[14.31676,50.06628],[14.31559,50.06771],[14.31717,50.06778],[14.31591,50.07094],[14.31532,50.06828],[14.31212,50.0686]]]}},{"type":"Feature","properties":{"cislo":17004,"mco":"Praha 17"},"geometry":{"type":"Polygon","coordinates":[[[14.2987,50.06634],[14.29864,50.06551],[14.30064,50.06584],[14.30598,50.06572],[14.30743,50.06712],[14.30424,50.06676],[14.3006,50.06699],[14.2987,50.06634]]]}},{"type":"Feature","properties":{"cislo":17005,"mco":"Praha 17"},"geometry":{"type":"Polygon","coordinates":[[[14.30979,50.06456],[14.30998,50.06189],[14.31876,50.06476],[14.31799,50.06589],[14.31433,50.06476],[14.31269,50.06574],[14.30979,50.06456]]]}},{"type":"Feature","properties":{"cislo":17006,"mco":"Praha 17"},"geometry":{"type":"Polygon","coordinates":[[[14.31269,50.06574],[14.31433,50.06476],[14.31799,50.06589],[14.31676,50.06628],[14.31274,50.06609],[14.31269,50.06574]]]}},{"type":"Feature","properties":{"cislo":17007,"mco":"Praha 17"},"geometry":{"type":"Polygon","coordinates":[[[14.30995,50.06852],[14.30979,50.06456],[14.31269,50.06574],[14.31274,50.06609],[14.31212,50.0686],[14.30995,50.06852]]]}},{"type":"Feature","properties":{"cislo":17008,"mco":"Praha 17"},"geometry":{"type":"Polygon","coordinates":[[[14.32251,50.06857],[14.31717,50.06778],[14.31559,50.06771],[14.31676,50.06628],[14.31799,50.06589],[14.31876,50.06476],[14.32232,50.06522],[14.32251,50.06857]]]}},{"type":"Feature","properties":{"cislo":17009,"mco":"Praha 17"},"geometry":{"type":"Polygon","coordinates":[[[14.30365,50.06979],[14.30439,50.06874],[14.30424,50.06676],[14.30743,50.06712],[14.30994,50.06812],[14.31003,50.07107],[14.30852,50.07133],[14.30872,50.06983],[14.30365,50.06979]]]}},{"type":"Feature","properties":{"cislo":17010,"mco":"Praha 17"},"geometry":{"type":"Polygon","coordinates":[[[14.30994,50.06812],[14.30743,50.06712],[14.30598,50.06572],[14.30979,50.06457],[14.30994,50.06812]]]}},{"type":"Feature","properties":{"cislo":17011,"mco":"Praha 17"},"geometry":{"type":"Polygon","coordinates":[[[14.30473,50.06369],[14.30738,50.06143],[14.30998,50.06189],[14.30979,50.06457],[14.30598,50.06572],[14.30473,50.06369]]]}},{"type":"Feature","properties":{"cislo":17012,"mco":"Praha 17"},"geometry":{"type":"Polygon","coordinates":[[[14.30322,50.06396],[14.30034,50.06325],[14.30418,50.06105],[14.30451,50.06093],[14.30738,50.06143],[14.30473,50.06369],[14.30322,50.06396]]]}},{"type":"Feature","properties":{"cislo":17013,"mco":"Praha 17"},"geometry":{"type":"Polygon","coordinates":[[[14.30034,50.06325],[14.30322,50.06396],[14.30064,50.06584],[14.29864,50.06551],[14.29289,50.06739],[14.30034,50.06325]]]}},{"type":"Feature","properties":{"cislo":17014,"mco":"Praha 17"},"geometry":{"type":"Polygon","coordinates":[[[14.3006,50.06699],[14.29833,50.06857],[14.2987,50.06634],[14.3006,50.06699]]]}},{"type":"Feature","properties":{"cislo":17015,"mco":"Praha 17"},"geometry":{"type":"Polygon","coordinates":[[[14.30995,50.07254],[14.30546,50.0725],[14.30365,50.06979],[14.30872,50.06983],[14.30852,50.07133],[14.31003,50.07107],[14.30995,50.07254]]]}},{"type":"Feature","properties":{"cislo":17016,"mco":"Praha 17"},"geometry":{"type":"Polygon","coordinates":[[[14.29833,50.06857],[14.3006,50.06699],[14.30424,50.06676],[14.30439,50.06874],[14.29833,50.06857]]]}},{"type":"Feature","properties":{"cislo":17017,"mco":"Praha 17"},"geometry":{"type":"Polygon","coordinates":[[[14.30598,50.06572],[14.30064,50.06584],[14.30322,50.06396],[14.30473,50.06369],[14.30598,50.06572]]]}},{"type":"Feature","properties":{"cislo":17018,"mco":"Praha 17"},"geometry":{"type":"Polygon","coordinates":[[[14.31009,50.07315],[14.31581,50.07389],[14.31638,50.07126],[14.3218,50.07357],[14.32546,50.07455],[14.32577,50.07629],[14.32377,50.07623],[14.3102,50.07645],[14.31009,50.07315]]]}}]}