{"type":"FeatureCollection","features":[{"type":"Feature","properties":{"cislo":10001,"mco":"Praha 10"},"geometry":{"type":"Polygon","coordinates":[[[14.45303,50.07449],[14.44935,50.07424],[14.44928,50.07276],[14.44402,50.07271],[14.44306,50.07264],[14.44287,50.07221],[14.44373,50.07153],[14.45095,50.0721],[14.45315,50.07223],[14.45303,50.07449]]]}},{"type":"Feature","properties":{"cislo":10002,"mco":"Praha 10"},"geometry":{"type":"Polygon","coordinates":[[[14.44913,50.07543],[14.44863,50.07543],[14.44935,50.07424],[14.45303,50.07449],[14.45434,50.07549],[14.44913,50.07543]]]}},{"type":"Feature","properties":{"cislo":10003,"mco":"Praha 10"},"geometry":{"type":"Polygon","coordinates":[[[14.45303,50.07449],[14.45315,50.07223],[14.45833,50.07264],[14.45811,50.07555],[14.45434,50.07549],[14.45303,50.07449]]]}},{"type":"Feature","properties":{"cislo":10004,"mco":"Praha 10"},"geometry":{"type":"Polygon","coordinates":[[[14.45811,50.07555],[14.45833,50.07264],[14.46912,50.07351],[14.47014,50.07614],[14.45811,50.07555]]]}},{"type":"Feature","properties":{"cislo":10005,"mco":"Praha 10"},"geometry":{"type":"Polygon","coordinates":[[[14.4788,50.07792],[14.47842,50.07635],[14.47014,50.07614],[14.46912,50.07351],[14.47526,50.07387],[14.4849,50.07252],[14.4866,50.07272],[14.48588,50.07428],[14.48597,50.07716],[14.4831,50.07752],[14.4788,50.07792]]]}},{"type":"Feature","properties":{"cislo":10006,"mco":"Praha 10"},"geometry":{"type":"Polygon","coordinates":[[[14.49634,50.0828],[14.49395,50.08162],[14.49411,50.08047],[14.49708,50.08083],[14.49762,50.08162],[14.49634,50.0828]]]}},{"type":"Feature","properties":{"cislo":10007,"mco":"Praha 10"},"geometry":{"type":"Polygon","coordinates":[[[14.49199,50.08706],[14.49318,50.08365],[14.49395,50.08162],[14.49634,50.0828],[14.49919,50.0832],[14.50306,50.08522],[14.50185,50.08777],[14.49959,50.0859],[14.49199,50.08706]]]}},{"type":"Feature","properties":{"cislo":10008,"mco":"Praha 10"},"geometry":{"type":"Polygon","coordinates":[[[14.50078,50.08341],[14.49634,50.0828],[14.49762,50.08162],[14.50346,50.08244],[14.50078,50.08341]]]}},{"type":"Feature","properties":{"cislo":10009,"mco":"Praha 10"},"geometry":{"type":"Polygon","coordinates":[[[14.49762,50.08162],[14.49708,50.08083],[14.49761,50.07908],[14.49917,50.07913],[14.50415,50.0798],[14.50572,50.0801],[14.50535,50.08104],[14.50287,50.0807],[14.50231,50.08227],[14.49762,50.08162]]]}},{"type":"Feature","properties":{"cislo":10010,"mco":"Praha 10"},"geometry":{"type":"Polygon","coordinates":[[[14.50477,50.08258],[14.50231,50.08227],[14.50287,50.0807],[14.50535,50.08104],[14.50477,50.08258]]]}},{"type":"Feature","properties":{"cislo":10011,"mco":"Praha 10"},"geometry":{"type":"Polygon","coordinates":[[[14.50078,50.08341],[14.50346,50.08244],[14.50565,50.08271],[14.5052,50.08394],[14.50078,50.08341]]]}},{"type":"Feature","properties":{"cislo":10012,"mco":"Praha 10"},"geometry":{"type":"Polygon","coordinates":[[[14.50306,50.08522],[14.49919,50.0832],[14.5052,50.08394],[14.50565,50.08271],[14.51073,50.0834],[14.51035,50.08462],[14.50306,50.08522]]]}},{"type":"Feature","properties":{"cislo":10013,"mco":"Praha 10"},"geometry":{"type":"Polygon","coordinates":[[[14.51073,50.0834],[14.50477,50.08258],[14.50572,50.0801],[14.51163,50.08106],[14.51233,50.07794],[14.51443,50.07788],[14.5168,50.08483],[14.5139,50.0855],[14.51073,50.0834]]]}},{"type":"Feature","properties":{"cislo":10014,"mco":"Praha 10"},"geometry":{"type":"Polygon","coordinates":[[[14.50388,50.08784],[14.50481,50.08599],[14.50701,50.08735],[14.50388,50.08784]]]}},{"type":"Feature","properties":{"cislo":10015,"mco":"Praha 10"},"geometry":{"type":"Polygon","coordinates":[[[14.50338,50.08974],[14.49341,50.08779],[14.49174,50.08742],[14.49199,50.08706],[14.49959,50.0859],[14.50185,50.08777],[14.50306,50.08522],[14.51035,50.08462],[14.51073,50.0834],[14.5139,50.0855],[14.5168,50.08483],[14.51443,50.07788],[14.52118,50.07758],[14.52295,50.07377],[14.52824,50.07495],[14.53139,50.07231],[14.53592,50.07341],[14.53767,50.07238],[14.53823,50.07463],[14.53425,50.07548],[14.53564,50.07746],[14.53942,50.07681],[14.53909,50.08103],[14.5376,50.085],[14.53206,50.08455],[14.53022,50.0878],[14.53406,50.08864],[14.53307,50.09061],[14.51846,50.08658],[14.51338,50.08881],[14.50338,50.08974]],[[14.50388,50.08784],[14.50701,50.08735],[14.50481,50.08599],[14.50388,50.08784]]]}},{"type":"Feature","properties":{"cislo":10016,"mco":"Praha 10"},"geometry":{"type":"Polygon","coordinates":[[[14.49199,50.08706],[14.48215,50.0835],[14.4827,50.08232],[14.48053,50.08193],[14.48263,50.08054],[14.47638,50.07947],[14.47653,50.07813],[14.4831,50.07752],[14.48735,50.08155],[14.49318,50.08365],[14.49199,50.08706]]]}},{"type":"Feature","properties":{"cislo":10017,"mco":"Praha 10"},"geometry":{"type":"Polygon","coordinates":[[[14.4831,50.07752],[14.48597,50.07716],[14.48781,50.07787],[14.4881,50.07916],[14.49215,50.079],[14.4919,50.08082],[14.49411,50.08047],[14.49395,50.08162],[14.49318,50.08365],[14.48735,50.08155],[14.4831,50.07752]]]}},{"type":"Feature","properties":{"cislo":10018,"mco":"Praha 10"},"geometry":{"type":"Polygon","coordinates":[[[14.48597,50.07716],[14.48588,50.07428],[14.49022,50.07488],[14.48912,50.07696],[14.48814,50.07702],[14.48835,50.07782],[14.48781,50.07787],[14.48597,50.07716]]]}},{"type":"Feature","properties":{"cislo":10019,"mco":"Praha 10"},"geometry":{"type":"Polygon","coordinates":[[[14.48781,50.07787],[14.48835,50.07782],[14.48907,50.07755],[14.48913,50.07694],[14.49241,50.07686],[14.49476,50.077],[14.4947,50.07733],[14.49761,50.07908],[14.49708,50.08083],[14.49411,50.08047],[14.4919,50.08082],[14.49215,50.079],[14.4881,50.07916],[14.48781,50.07787]]]}},{"type":"Feature","properties":{"cislo":10020,"mco":"Praha 10"},"geometry":{"type":"Polygon","coordinates":[[[14.49917,50.07913],[14.49761,50.07908],[14.4947,50.07733],[14.49948,50.07837],[14.49917,50.07913]]]}},{"type":"Feature","properties":{"cislo":10021,"mco":"Praha 10"},"geometry":{"type":"Polygon","coordinates":[[[14.4947,50.07733],[14.49476,50.077],[14.50303,50.07752],[14.49948,50.07837],[14.4947,50.07733]]]}},{"type":"Feature","properties":{"cislo":10022,"mco":"Praha 10"},"geometry":{"type":"Polygon","coordinates":[[[14.49917,50.07913],[14.49948,50.07837],[14.50303,50.07752],[14.50612,50.07772],[14.50415,50.0798],[14.49917,50.07913]]]}},{"type":"Feature","properties":{"cislo":10023,"mco":"Praha 10"},"geometry":{"type":"Polygon","coordinates":[[[14.51163,50.08106],[14.50572,50.0801],[14.50415,50.0798],[14.50612,50.07772],[14.51233,50.07794],[14.51163,50.08106]]]}},{"type":"Feature","properties":{"cislo":10024,"mco":"Praha 10"},"geometry":{"type":"Polygon","coordinates":[[[14.50026,50.07734],[14.50182,50.07602],[14.51183,50.07625],[14.51203,50.07794],[14.50612,50.07772],[14.50026,50.07734]]]}},{"type":"Feature","properties":{"cislo":10025,"mco":"Praha 10"},"geometry":{"type":"Polygon","coordinates":[[[14.49458,50.07699],[14.49529,50.07518],[14.49955,50.07496],[14.49916,50.07727],[14.49458,50.07699]]]}},{"type":"Feature","properties":{"cislo":10026,"mco":"Praha 10"},"geometry":{"type":"Polygon","coordinates":[[[14.49241,50.07686],[14.48981,50.07562],[14.49022,50.07488],[14.49355,50.07501],[14.49529,50.07518],[14.49458,50.07699],[14.49241,50.07686]]]}},{"type":"Feature","properties":{"cislo":10027,"mco":"Praha 10"},"geometry":{"type":"Polygon","coordinates":[[[14.48913,50.07694],[14.48981,50.07562],[14.49241,50.07686],[14.48913,50.07694]]]}},{"type":"Feature","properties":{"cislo":10028,"mco":"Praha 10"},"geometry":{"type":"Polygon","coordinates":[[[14.49022,50.07488],[14.48588,50.07428],[14.4866,50.07272],[14.4849,50.07252],[14.48522,50.07141],[14.49051,50.07233],[14.49022,50.07488]]]}},{"type":"Feature","properties":{"cislo":10029,"mco":"Praha 10"},"geometry":{"type":"Polygon","coordinates":[[[14.49022,50.07488],[14.49051,50.07233],[14.49395,50.07274],[14.49355,50.07501],[14.49022,50.07488]]]}},{"type":"Feature","properties":{"cislo":10030,"mco":"Praha 10"},"geometry":{"type":"Polygon","coordinates":[[[14.49355,50.07501],[14.49395,50.07274],[14.49761,50.07294],[14.49978,50.07356],[14.49955,50.07496],[14.49529,50.07518],[14.49355,50.07501]]]}},{"type":"Feature","properties":{"cislo":10031,"mco":"Praha 10"},"geometry":{"type":"Polygon","coordinates":[[[14.49916,50.07727],[14.49978,50.07356],[14.51314,50.07524],[14.51183,50.07625],[14.50182,50.07602],[14.50026,50.07734],[14.49916,50.07727]]]}},{"type":"Feature","properties":{"cislo":10032,"mco":"Praha 10"},"geometry":{"type":"Polygon","coordinates":[[[14.50774,50.06799],[14.51428,50.06642],[14.51623,50.06469],[14.51839,50.0646],[14.52106,50.06746],[14.50865,50.07056],[14.50774,50.06799]]]}},{"type":"Feature","properties":{"cislo":10033,"mco":"Praha 10"},"geometry":{"type":"Polygon","coordinates":[[[14.51203,50.07794],[14.51183,50.07625],[14.51314,50.07524],[14.50656,50.0744],[14.50494,50.07188],[14.50522,50.0701],[14.50865,50.07056],[14.52106,50.06746],[14.52331,50.06709],[14.52295,50.07377],[14.52118,50.07758],[14.51443,50.07788],[14.51203,50.07794]]]}},{"type":"Feature","properties":{"cislo":10034,"mco":"Praha 10"},"geometry":{"type":"Polygon","coordinates":[[[14.49978,50.07356],[14.49761,50.07294],[14.49823,50.07166],[14.50494,50.07188],[14.50656,50.0744],[14.49978,50.07356]]]}},{"type":"Feature","properties":{"cislo":10035,"mco":"Praha 10"},"geometry":{"type":"Polygon","coordinates":[[[14.49395,50.07274],[14.49369,50.07049],[14.49486,50.06934],[14.49786,50.0699],[14.49823,50.07166],[14.49761,50.07294],[14.49395,50.07274]]]}},{"type":"Feature","properties":{"cislo":10036,"mco":"Praha 10"},"geometry":{"type":"Polygon","coordinates":[[[14.49395,50.07274],[14.49051,50.07233],[14.48486,50.07132],[14.48504,50.07034],[14.48809,50.07081],[14.48661,50.06991],[14.49057,50.07059],[14.49369,50.07049],[14.49395,50.07274]]]}},{"type":"Feature","properties":{"cislo":10037,"mco":"Praha 10"},"geometry":{"type":"Polygon","coordinates":[[[14.47992,50.07101],[14.48167,50.06998],[14.48504,50.07034],[14.48486,50.07132],[14.47992,50.07101]]]}},{"type":"Feature","properties":{"cislo":10038,"mco":"Praha 10"},"geometry":{"type":"Polygon","coordinates":[[[14.48504,50.07034],[14.48167,50.06998],[14.482,50.06885],[14.48661,50.06991],[14.48809,50.07081],[14.48504,50.07034]]]}},{"type":"Feature","properties":{"cislo":10039,"mco":"Praha 10"},"geometry":{"type":"Polygon","coordinates":[[[14.49057,50.07059],[14.48661,50.06991],[14.482,50.06885],[14.48281,50.06708],[14.4776,50.06585],[14.47644,50.06481],[14.48679,50.06342],[14.50051,50.0624],[14.50417,50.06201],[14.50422,50.06236],[14.49008,50.06784],[14.49057,50.07059]]]}},{"type":"Feature","properties":{"cislo":10040,"mco":"Praha 10"},"geometry":{"type":"Polygon","coordinates":[[[14.49057,50.07059],[14.49008,50.06784],[14.50422,50.06236],[14.50467,50.06411],[14.50174,50.06558],[14.49932,50.06609],[14.49492,50.06634],[14.49386,50.06768],[14.49264,50.07053],[14.49057,50.07059]]]}},{"type":"Feature","properties":{"cislo":10041,"mco":"Praha 10"},"geometry":{"type":"Polygon","coordinates":[[[14.49386,50.06768],[14.49516,50.06856],[14.49486,50.06934],[14.49369,50.07049],[14.49264,50.07053],[14.49386,50.06768]]]}},{"type":"Feature","properties":{"cislo":10042,"mco":"Praha 10"},"geometry":{"type":"Polygon","coordinates":[[[14.49486,50.06934],[14.49516,50.06856],[14.49902,50.06709],[14.49835,50.06963],[14.49786,50.0699],[14.49486,50.06934]]]}},{"type":"Feature","properties":{"cislo":10043,"mco":"Praha 10"},"geometry":{"type":"Polygon","coordinates":[[[14.49823,50.07166],[14.49786,50.0699],[14.49835,50.06963],[14.5035,50.07011],[14.50522,50.0701],[14.50494,50.07188],[14.49823,50.07166]]]}},{"type":"Feature","properties":{"cislo":10044,"mco":"Praha 10"},"geometry":{"type":"Polygon","coordinates":[[[14.49835,50.06963],[14.49932,50.06609],[14.50174,50.06558],[14.50547,50.06626],[14.50392,50.06733],[14.5035,50.07011],[14.49835,50.06963]]]}},{"type":"Feature","properties":{"cislo":10045,"mco":"Praha 10"},"geometry":{"type":"Polygon","coordinates":[[[14.50522,50.0701],[14.5035,50.07011],[14.50392,50.06733],[14.50754,50.06772],[14.50774,50.06799],[14.50865,50.07056],[14.50522,50.0701]]]}},{"type":"Feature","properties":{"cislo":10046,"mco":"Praha 10"},"geometry":{"type":"Polygon","coordinates":[[[14.50392,50.06733],[14.50547,50.06626],[14.50174,50.06558],[14.50467,50.06411],[14.5072,50.06573],[14.5077,50.06678],[14.50754,50.06772],[14.50392,50.06733]]]}},{"type":"Feature","properties":{"cislo":10047,"mco":"Praha 10"},"geometry":{"type":"Polygon","coordinates":[[[14.50774,50.06799],[14.50754,50.06772],[14.5077,50.06678],[14.51428,50.06642],[14.50774,50.06799]]]}},{"type":"Feature","properties":{"cislo":10048,"mco":"Praha 10"},"geometry":{"type":"Polygon","coordinates":[[[14.5077,50.06678],[14.5072,50.06573],[14.51623,50.06469],[14.51428,50.06642],[14.5077,50.06678]]]}},{"type":"Feature","properties":{"cislo":10049,"mco":"Praha 10"},"geometry":{"type":"Polygon","coordinates":[[[14.5072,50.06573],[14.50467,50.06411],[14.50422,50.06236],[14.50417,50.06201],[14.51484,50.06102],[14.51768,50.06132],[14.51839,50.0646],[14.51623,50.06469],[14.5072,50.06573]]]}},{"type":"Feature","properties":{"cislo":10050,"mco":"Praha 10"},"geometry":{"type":"Polygon","coordinates":[[[14.49386,50.06768],[14.49492,50.06634],[14.49932,50.06609],[14.49902,50.06709],[14.49516,50.06856],[14.49386,50.06768]]]}},{"type":"Feature","properties":{"cislo":10051,"mco":"Praha 10"},"geometry":{"type":"Polygon","coordinates":[[[14.50051,50.0624],[14.48679,50.06342],[14.48555,50.05961],[14.49129,50.06075],[14.49358,50.05949],[14.49933,50.06003],[14.50051,50.0624]]]}},{"type":"Feature","properties":{"cislo":10052,"mco":"Praha 10"},"geometry":{"type":"Polygon","coordinates":[[[14.49933,50.06003],[14.49723,50.05757],[14.49816,50.05726],[14.50252,50.05781],[14.50417,50.06201],[14.50051,50.0624],[14.49933,50.06003]]]}},{"type":"Feature","properties":{"cislo":10053,"mco":"Praha 10"},"geometry":{"type":"Polygon","coordinates":[[[14.50417,50.06201],[14.50252,50.05781],[14.50706,50.05761],[14.51491,50.059],[14.51484,50.06102],[14.50417,50.06201]]]}},{"type":"Feature","properties":{"cislo":10054,"mco":"Praha 10"},"geometry":{"type":"Polygon","coordinates":[[[14.51491,50.059],[14.50706,50.05761],[14.50695,50.05634],[14.50703,50.05598],[14.5143,50.05584],[14.51539,50.05592],[14.51491,50.059]]]}},{"type":"Feature","properties":{"cislo":10055,"mco":"Praha 10"},"geometry":{"type":"Polygon","coordinates":[[[14.50714,50.05537],[14.50771,50.05397],[14.51296,50.05525],[14.5143,50.05584],[14.50703,50.05598],[14.50714,50.05537]]]}},{"type":"Feature","properties":{"cislo":10056,"mco":"Praha 10"},"geometry":{"type":"Polygon","coordinates":[[[14.5143,50.05584],[14.51296,50.05525],[14.51331,50.05409],[14.51543,50.05428],[14.51539,50.05592],[14.5143,50.05584]]]}},{"type":"Feature","properties":{"cislo":10057,"mco":"Praha 10"},"geometry":{"type":"Polygon","coordinates":[[[14.51331,50.05409],[14.51033,50.05376],[14.50988,50.05105],[14.51272,50.05006],[14.51564,50.05113],[14.51543,50.05428],[14.51331,50.05409]]]}},{"type":"Feature","properties":{"cislo":10058,"mco":"Praha 10"},"geometry":{"type":"Polygon","coordinates":[[[14.51296,50.05525],[14.50771,50.05397],[14.50797,50.05346],[14.51331,50.05409],[14.51296,50.05525]]]}},{"type":"Feature","properties":{"cislo":10059,"mco":"Praha 10"},"geometry":{"type":"Polygon","coordinates":[[[14.50328,50.05429],[14.49674,50.05318],[14.49976,50.05182],[14.50234,50.04518],[14.50626,50.04623],[14.50733,50.05058],[14.50988,50.05105],[14.51033,50.05376],[14.50797,50.05346],[14.50328,50.05429]]]}},{"type":"Feature","properties":{"cislo":10060,"mco":"Praha 10"},"geometry":{"type":"Polygon","coordinates":[[[14.50329,50.05646],[14.50328,50.05429],[14.50797,50.05346],[14.50771,50.05397],[14.50714,50.05537],[14.50379,50.05543],[14.50389,50.05644],[14.50329,50.05646]]]}},{"type":"Feature","properties":{"cislo":10061,"mco":"Praha 10"},"geometry":{"type":"Polygon","coordinates":[[[14.50389,50.05644],[14.50379,50.05543],[14.50714,50.05537],[14.50695,50.05634],[14.50389,50.05644]]]}},{"type":"Feature","properties":{"cislo":10062,"mco":"Praha 10"},"geometry":{"type":"Polygon","coordinates":[[[14.50252,50.05781],[14.49816,50.05726],[14.4981,50.05653],[14.50329,50.05646],[14.50695,50.05634],[14.50706,50.05761],[14.50252,50.05781]]]}},{"type":"Feature","properties":{"cislo":10063,"mco":"Praha 10"},"geometry":{"type":"Polygon","coordinates":[[[14.49584,50.05311],[14.49674,50.05318],[14.50328,50.05429],[14.50329,50.05646],[14.4981,50.05653],[14.49567,50.05592],[14.49584,50.05311]]]}},{"type":"Feature","properties":{"cislo":10064,"mco":"Praha 10"},"geometry":{"type":"Polygon","coordinates":[[[14.49362,50.056],[14.48884,50.05409],[14.49389,50.05189],[14.49228,50.05001],[14.49631,50.0463],[14.4937,50.04391],[14.49794,50.044],[14.50271,50.04453],[14.50234,50.04518],[14.49976,50.05182],[14.49674,50.05318],[14.49584,50.05311],[14.49362,50.056]]]}},{"type":"Feature","properties":{"cislo":10065,"mco":"Praha 10"},"geometry":{"type":"Polygon","coordinates":[[[14.49463,50.05815],[14.49362,50.056],[14.49584,50.05311],[14.49567,50.05592],[14.4981,50.05653],[14.49816,50.05726],[14.49723,50.05757],[14.49463,50.05815]]]}},{"type":"Feature","properties":{"cislo":10066,"mco":"Praha 10"},"geometry":{"type":"Polygon","coordinates":[[[14.49358,50.05949],[14.49463,50.05815],[14.49723,50.05757],[14.49933,50.06003],[14.49358,50.05949]]]}},{"type":"Feature","properties":{"cislo":10067,"mco":"Praha 10"},"geometry":{"type":"Polygon","coordinates":[[[14.48555,50.05961],[14.48,50.05948],[14.47727,50.05641],[14.4892,50.0553],[14.49368,50.05618],[14.49463,50.05815],[14.49358,50.05949],[14.49129,50.06075],[14.48555,50.05961]]]}},{"type":"Feature","properties":{"cislo":10068,"mco":"Praha 10"},"geometry":{"type":"Polygon","coordinates":[[[14.47727,50.05641],[14.47692,50.05507],[14.48024,50.05565],[14.48373,50.05392],[14.48534,50.05159],[14.48244,50.05109],[14.49228,50.05001],[14.49389,50.05189],[14.48884,50.05409],[14.49362,50.056],[14.49368,50.05618],[14.4892,50.0553],[14.47727,50.05641]]]}},{"type":"Feature","properties":{"cislo":10069,"mco":"Praha 10"},"geometry":{"type":"Polygon","coordinates":[[[14.46917,50.06924],[14.46233,50.06778],[14.46325,50.06602],[14.46589,50.06654],[14.46425,50.06559],[14.4695,50.06149],[14.46978,50.06661],[14.46758,50.06787],[14.46917,50.06924]]]}},{"type":"Feature","properties":{"cislo":10070,"mco":"Praha 10"},"geometry":{"type":"Polygon","coordinates":[[[14.46325,50.06602],[14.46253,50.06738],[14.46138,50.06589],[14.46387,50.05982],[14.4695,50.06149],[14.46425,50.06559],[14.46589,50.06654],[14.46325,50.06602]]]}},{"type":"Feature","properties":{"cislo":10071,"mco":"Praha 10"},"geometry":{"type":"Polygon","coordinates":[[[14.46233,50.06778],[14.45897,50.06708],[14.45983,50.06553],[14.46138,50.06589],[14.46253,50.06738],[14.46233,50.06778]]]}},{"type":"Feature","properties":{"cislo":10072,"mco":"Praha 10"},"geometry":{"type":"Polygon","coordinates":[[[14.45897,50.06708],[14.4575,50.06675],[14.45792,50.06521],[14.45983,50.06553],[14.45897,50.06708]]]}},{"type":"Feature","properties":{"cislo":10073,"mco":"Praha 10"},"geometry":{"type":"Polygon","coordinates":[[[14.45657,50.06658],[14.45535,50.06635],[14.4546,50.06248],[14.45911,50.05661],[14.46358,50.05848],[14.46387,50.05982],[14.46138,50.06589],[14.45983,50.06553],[14.45792,50.06521],[14.4575,50.06675],[14.45657,50.06658]]]}},{"type":"Feature","properties":{"cislo":10074,"mco":"Praha 10"},"geometry":{"type":"Polygon","coordinates":[[[14.4522,50.0661],[14.45181,50.06607],[14.4499,50.06294],[14.45147,50.06247],[14.45327,50.06213],[14.4546,50.06248],[14.45535,50.06635],[14.4522,50.0661]]]}},{"type":"Feature","properties":{"cislo":10075,"mco":"Praha 10"},"geometry":{"type":"Polygon","coordinates":[[[14.45181,50.06607],[14.44194,50.06614],[14.44421,50.06524],[14.44573,50.06445],[14.44773,50.06364],[14.4499,50.06294],[14.45181,50.06607]]]}},{"type":"Feature","properties":{"cislo":10076,"mco":"Praha 10"},"geometry":{"type":"Polygon","coordinates":[[[14.44521,50.06794],[14.44094,50.06649],[14.44194,50.06614],[14.45181,50.06607],[14.4522,50.0661],[14.45182,50.06715],[14.44521,50.06794]]]}},{"type":"Feature","properties":{"cislo":10077,"mco":"Praha 10"},"geometry":{"type":"Polygon","coordinates":[[[14.44865,50.06832],[14.44521,50.06794],[14.45182,50.06715],[14.45458,50.06784],[14.453,50.06934],[14.45156,50.0693],[14.44865,50.06832]]]}},{"type":"Feature","properties":{"cislo":10078,"mco":"Praha 10"},"geometry":{"type":"Polygon","coordinates":[[[14.4508,50.07089],[14.44711,50.0701],[14.44865,50.06832],[14.45156,50.0693],[14.4508,50.07089]]]}},{"type":"Feature","properties":{"cislo":10079,"mco":"Praha 10"},"geometry":{"type":"Polygon","coordinates":[[[14.44373,50.07153],[14.44711,50.0701],[14.44763,50.07022],[14.44918,50.07152],[14.44694,50.07176],[14.44373,50.07153]]]}},{"type":"Feature","properties":{"cislo":10080,"mco":"Praha 10"},"geometry":{"type":"Polygon","coordinates":[[[14.44694,50.07176],[14.44918,50.07152],[14.44763,50.07022],[14.4508,50.07089],[14.45095,50.0721],[14.44694,50.07176]]]}},{"type":"Feature","properties":{"cislo":10081,"mco":"Praha 10"},"geometry":{"type":"Polygon","coordinates":[[[14.45095,50.0721],[14.4508,50.07089],[14.45156,50.0693],[14.453,50.06934],[14.45362,50.06922],[14.45485,50.07133],[14.45491,50.07236],[14.45095,50.0721]]]}},{"type":"Feature","properties":{"cislo":10082,"mco":"Praha 10"},"geometry":{"type":"Polygon","coordinates":[[[14.45491,50.07236],[14.45485,50.07133],[14.45647,50.07121],[14.45731,50.07256],[14.45491,50.07236]]]}},{"type":"Feature","properties":{"cislo":10083,"mco":"Praha 10"},"geometry":{"type":"Polygon","coordinates":[[[14.45485,50.07133],[14.45362,50.06922],[14.45604,50.06909],[14.45757,50.07019],[14.45786,50.07104],[14.45647,50.07121],[14.45485,50.07133]]]}},{"type":"Feature","properties":{"cislo":10084,"mco":"Praha 10"},"geometry":{"type":"Polygon","coordinates":[[[14.45362,50.06922],[14.453,50.06934],[14.45458,50.06784],[14.45182,50.06715],[14.4522,50.0661],[14.45535,50.06635],[14.45657,50.06658],[14.45635,50.06692],[14.45604,50.06909],[14.45362,50.06922]]]}},{"type":"Feature","properties":{"cislo":10085,"mco":"Praha 10"},"geometry":{"type":"Polygon","coordinates":[[[14.45635,50.06692],[14.4574,50.06861],[14.45604,50.06909],[14.45635,50.06692]]]}},{"type":"Feature","properties":{"cislo":10086,"mco":"Praha 10"},"geometry":{"type":"Polygon","coordinates":[[[14.4574,50.06861],[14.45635,50.06692],[14.45657,50.06658],[14.46037,50.06738],[14.45994,50.06819],[14.45805,50.0684],[14.4574,50.06861]]]}},{"type":"Feature","properties":{"cislo":10087,"mco":"Praha 10"},"geometry":{"type":"Polygon","coordinates":[[[14.45604,50.06909],[14.45805,50.0684],[14.45757,50.07019],[14.45604,50.06909]]]}},{"type":"Feature","properties":{"cislo":10088,"mco":"Praha 10"},"geometry":{"type":"Polygon","coordinates":[[[14.45757,50.07019],[14.45805,50.0684],[14.45994,50.06819],[14.46052,50.06924],[14.45998,50.07074],[14.45786,50.07104],[14.45757,50.07019]]]}},{"type":"Feature","properties":{"cislo":10089,"mco":"Praha 10"},"geometry":{"type":"Polygon","coordinates":[[[14.45647,50.07121],[14.45885,50.0709],[14.45994,50.07278],[14.45731,50.07256],[14.45647,50.07121]]]}},{"type":"Feature","properties":{"cislo":10090,"mco":"Praha 10"},"geometry":{"type":"Polygon","coordinates":[[[14.46054,50.07283],[14.45994,50.07278],[14.45885,50.0709],[14.46043,50.07068],[14.46077,50.07175],[14.46054,50.07283]]]}},{"type":"Feature","properties":{"cislo":10091,"mco":"Praha 10"},"geometry":{"type":"Polygon","coordinates":[[[14.46077,50.07175],[14.46364,50.07208],[14.46467,50.07317],[14.46054,50.07283],[14.46077,50.07175]]]}},{"type":"Feature","properties":{"cislo":10092,"mco":"Praha 10"},"geometry":{"type":"Polygon","coordinates":[[[14.46364,50.07208],[14.46077,50.07175],[14.46043,50.07068],[14.46428,50.07119],[14.46364,50.07208]]]}},{"type":"Feature","properties":{"cislo":10093,"mco":"Praha 10"},"geometry":{"type":"Polygon","coordinates":[[[14.45998,50.07074],[14.46052,50.06924],[14.46241,50.07034],[14.46261,50.07097],[14.46043,50.07068],[14.45998,50.07074]]]}},{"type":"Feature","properties":{"cislo":10094,"mco":"Praha 10"},"geometry":{"type":"Polygon","coordinates":[[[14.46052,50.06924],[14.45994,50.06819],[14.46037,50.06738],[14.46909,50.06922],[14.4678,50.07024],[14.46241,50.07034],[14.46052,50.06924]]]}},{"type":"Feature","properties":{"cislo":10095,"mco":"Praha 10"},"geometry":{"type":"Polygon","coordinates":[[[14.46822,50.07176],[14.46261,50.07097],[14.46241,50.07034],[14.4678,50.07024],[14.46822,50.07176]]]}},{"type":"Feature","properties":{"cislo":10096,"mco":"Praha 10"},"geometry":{"type":"Polygon","coordinates":[[[14.46467,50.07317],[14.46364,50.07208],[14.46428,50.07119],[14.47088,50.07214],[14.47076,50.07243],[14.46912,50.07351],[14.46467,50.07317]]]}},{"type":"Feature","properties":{"cislo":10097,"mco":"Praha 10"},"geometry":{"type":"Polygon","coordinates":[[[14.47088,50.07214],[14.46822,50.07176],[14.4678,50.07024],[14.46909,50.06922],[14.47079,50.06956],[14.47088,50.07214]]]}},{"type":"Feature","properties":{"cislo":10098,"mco":"Praha 10"},"geometry":{"type":"Polygon","coordinates":[[[14.46912,50.07351],[14.47076,50.07243],[14.47556,50.07275],[14.47526,50.07387],[14.46912,50.07351]]]}},{"type":"Feature","properties":{"cislo":10099,"mco":"Praha 10"},"geometry":{"type":"Polygon","coordinates":[[[14.47076,50.07243],[14.47088,50.07214],[14.47079,50.06956],[14.47145,50.0697],[14.47376,50.07123],[14.47584,50.07166],[14.47556,50.07275],[14.47076,50.07243]]]}},{"type":"Feature","properties":{"cislo":10100,"mco":"Praha 10"},"geometry":{"type":"Polygon","coordinates":[[[14.47145,50.0697],[14.47558,50.07058],[14.47376,50.07123],[14.47145,50.0697]]]}},{"type":"Feature","properties":{"cislo":10101,"mco":"Praha 10"},"geometry":{"type":"Polygon","coordinates":[[[14.47333,50.07011],[14.46917,50.06924],[14.46758,50.06787],[14.46978,50.06661],[14.47294,50.06613],[14.47333,50.07011]]]}},{"type":"Feature","properties":{"cislo":10102,"mco":"Praha 10"},"geometry":{"type":"Polygon","coordinates":[[[14.4797,50.07189],[14.47584,50.07166],[14.47376,50.07123],[14.47558,50.07058],[14.47671,50.07079],[14.4797,50.07189]]]}},{"type":"Feature","properties":{"cislo":10103,"mco":"Praha 10"},"geometry":{"type":"Polygon","coordinates":[[[14.47556,50.07275],[14.47584,50.07166],[14.4797,50.07189],[14.48208,50.07291],[14.47526,50.07387],[14.47556,50.07275]]]}},{"type":"Feature","properties":{"cislo":10104,"mco":"Praha 10"},"geometry":{"type":"Polygon","coordinates":[[[14.48208,50.07291],[14.4797,50.07189],[14.47992,50.07101],[14.48486,50.07132],[14.48522,50.07141],[14.4849,50.07252],[14.48208,50.07291]]]}},{"type":"Feature","properties":{"cislo":10105,"mco":"Praha 10"},"geometry":{"type":"Polygon","coordinates":[[[14.4797,50.07189],[14.47671,50.07079],[14.4776,50.06585],[14.48281,50.06708],[14.482,50.06885],[14.48167,50.06998],[14.47992,50.07101],[14.4797,50.07189]]]}},{"type":"Feature","properties":{"cislo":10106,"mco":"Praha 10"},"geometry":{"type":"Polygon","coordinates":[[[14.47671,50.07079],[14.47333,50.07011],[14.47294,50.06613],[14.4776,50.06585],[14.47671,50.07079]]]}},{"type":"Feature","properties":{"cislo":10107,"mco":"Praha 10"},"geometry":{"type":"Polygon","coordinates":[[[14.4695,50.06149],[14.46387,50.05982],[14.46358,50.05848],[14.46376,50.05808],[14.46892,50.05945],[14.47032,50.05746],[14.47308,50.05765],[14.47136,50.05706],[14.47232,50.05501],[14.47692,50.05507],[14.47727,50.05641],[14.48,50.05948],[14.48555,50.05961],[14.48679,50.06342],[14.47644,50.06481],[14.4776,50.06585],[14.47294,50.06613],[14.46978,50.06661],[14.4695,50.06149]]]}},{"type":"Feature","properties":{"cislo":10108,"mco":"Praha 10"},"geometry":{"type":"Polygon","coordinates":[[[14.47136,50.05706],[14.47308,50.05765],[14.47032,50.05746],[14.46892,50.05945],[14.46376,50.05808],[14.46704,50.05837],[14.46719,50.05688],[14.47136,50.05706]]]}},{"type":"Feature","properties":{"cislo":10109,"mco":"Praha 10"},"geometry":{"type":"Polygon","coordinates":[[[14.48835,50.07782],[14.48814,50.07702],[14.48912,50.07696],[14.48907,50.07755],[14.48835,50.07782]]]}}]}