{"type":"FeatureCollection","features":[{"type":"Feature","properties":{"cislo":11001,"mco":"Praha 11"},"geometry":{"type":"Polygon","coordinates":[[[14.51871,50.03913],[14.51132,50.04064],[14.51081,50.04007],[14.51334,50.03782],[14.51875,50.03912],[14.51871,50.03913]]]}},{"type":"Feature","properties":{"cislo":11002,"mco":"Praha 11"},"geometry":{"type":"Polygon","coordinates":[[[14.51334,50.03782],[14.51476,50.03603],[14.51863,50.03873],[14.51952,50.03891],[14.51875,50.03912],[14.51334,50.03782]]]}},{"type":"Feature","properties":{"cislo":11003,"mco":"Praha 11"},"geometry":{"type":"Polygon","coordinates":[[[14.51917,50.03571],[14.51863,50.03873],[14.51476,50.03603],[14.51537,50.03515],[14.51807,50.03566],[14.51917,50.03571]]]}},{"type":"Feature","properties":{"cislo":11004,"mco":"Praha 11"},"geometry":{"type":"Polygon","coordinates":[[[14.51863,50.03873],[14.51917,50.03571],[14.52066,50.0357],[14.52515,50.03499],[14.5255,50.03754],[14.51952,50.03891],[14.51863,50.03873]]]}},{"type":"Feature","properties":{"cislo":11005,"mco":"Praha 11"},"geometry":{"type":"Polygon","coordinates":[[[14.53092,50.0383],[14.5255,50.03754],[14.52515,50.03499],[14.52066,50.0357],[14.52273,50.03253],[14.52964,50.03447],[14.53179,50.03551],[14.52645,50.03636],[14.53144,50.0373],[14.53092,50.0383]]]}},{"type":"Feature","properties":{"cislo":11006,"mco":"Praha 11"},"geometry":{"type":"Polygon","coordinates":[[[14.53366,50.03969],[14.53092,50.0383],[14.53144,50.0373],[14.52645,50.03636],[14.53179,50.03551],[14.5327,50.03361],[14.53395,50.03501],[14.53366,50.03969]]]}},{"type":"Feature","properties":{"cislo":11007,"mco":"Praha 11"},"geometry":{"type":"Polygon","coordinates":[[[14.52273,50.03253],[14.52572,50.02925],[14.52963,50.03082],[14.53249,50.03121],[14.53063,50.03142],[14.52617,50.0335],[14.52273,50.03253]]]}},{"type":"Feature","properties":{"cislo":11008,"mco":"Praha 11"},"geometry":{"type":"Polygon","coordinates":[[[14.53063,50.03142],[14.52964,50.03447],[14.52617,50.0335],[14.53063,50.03142]]]}},{"type":"Feature","properties":{"cislo":11009,"mco":"Praha 11"},"geometry":{"type":"Polygon","coordinates":[[[14.52964,50.03447],[14.53063,50.03142],[14.53249,50.03121],[14.53352,50.03159],[14.5327,50.03361],[14.53179,50.03551],[14.52964,50.03447]]]}},{"type":"Feature","properties":{"cislo":11010,"mco":"Praha 11"},"geometry":{"type":"Polygon","coordinates":[[[14.5327,50.03361],[14.53352,50.03159],[14.53585,50.03318],[14.53395,50.03501],[14.5327,50.03361]]]}},{"type":"Feature","properties":{"cislo":11011,"mco":"Praha 11"},"geometry":{"type":"Polygon","coordinates":[[[14.54362,50.03626],[14.54364,50.03811],[14.53966,50.03828],[14.53883,50.04009],[14.53366,50.03969],[14.53395,50.03501],[14.5368,50.03222],[14.53839,50.03093],[14.5403,50.03135],[14.53971,50.03351],[14.54234,50.03344],[14.54362,50.03626]]]}},{"type":"Feature","properties":{"cislo":11012,"mco":"Praha 11"},"geometry":{"type":"Polygon","coordinates":[[[14.53839,50.03093],[14.53776,50.02877],[14.54057,50.02775],[14.5434,50.02681],[14.54745,50.02939],[14.54886,50.0285],[14.54962,50.02951],[14.54533,50.03042],[14.54234,50.03344],[14.53971,50.03351],[14.5403,50.03135],[14.53839,50.03093]]]}},{"type":"Feature","properties":{"cislo":11013,"mco":"Praha 11"},"geometry":{"type":"Polygon","coordinates":[[[14.53529,50.02946],[14.53776,50.02877],[14.53839,50.03093],[14.5368,50.03222],[14.53472,50.0316],[14.53529,50.02946]]]}},{"type":"Feature","properties":{"cislo":11014,"mco":"Praha 11"},"geometry":{"type":"Polygon","coordinates":[[[14.53585,50.03318],[14.53352,50.03159],[14.53529,50.02946],[14.53472,50.0316],[14.5368,50.03222],[14.53585,50.03318]]]}},{"type":"Feature","properties":{"cislo":11015,"mco":"Praha 11"},"geometry":{"type":"Polygon","coordinates":[[[14.53352,50.03159],[14.53249,50.03121],[14.53156,50.03107],[14.53151,50.02797],[14.53308,50.02594],[14.54057,50.02775],[14.53776,50.02877],[14.53529,50.02946],[14.53352,50.03159]]]}},{"type":"Feature","properties":{"cislo":11016,"mco":"Praha 11"},"geometry":{"type":"Polygon","coordinates":[[[14.53151,50.02797],[14.52641,50.02819],[14.528,50.02645],[14.52372,50.02343],[14.52701,50.02406],[14.53308,50.02594],[14.53151,50.02797]]]}},{"type":"Feature","properties":{"cislo":11017,"mco":"Praha 11"},"geometry":{"type":"Polygon","coordinates":[[[14.53156,50.03107],[14.52963,50.03082],[14.52912,50.02903],[14.52588,50.02863],[14.52641,50.02819],[14.53151,50.02797],[14.53156,50.03107]]]}},{"type":"Feature","properties":{"cislo":11018,"mco":"Praha 11"},"geometry":{"type":"Polygon","coordinates":[[[14.52963,50.03082],[14.52572,50.02925],[14.52533,50.02898],[14.52588,50.02863],[14.52912,50.02903],[14.52963,50.03082]]]}},{"type":"Feature","properties":{"cislo":11019,"mco":"Praha 11"},"geometry":{"type":"Polygon","coordinates":[[[14.52436,50.02826],[14.52617,50.02513],[14.528,50.02645],[14.52641,50.02819],[14.52588,50.02863],[14.52533,50.02898],[14.52436,50.02826]]]}},{"type":"Feature","properties":{"cislo":11020,"mco":"Praha 11"},"geometry":{"type":"Polygon","coordinates":[[[14.52382,50.02789],[14.52196,50.02658],[14.52264,50.02528],[14.52375,50.02344],[14.52617,50.02513],[14.52436,50.02826],[14.52382,50.02789]]]}},{"type":"Feature","properties":{"cislo":11021,"mco":"Praha 11"},"geometry":{"type":"Polygon","coordinates":[[[14.52375,50.02344],[14.52264,50.02528],[14.52088,50.02508],[14.52163,50.02265],[14.52375,50.02344]]]}},{"type":"Feature","properties":{"cislo":11022,"mco":"Praha 11"},"geometry":{"type":"Polygon","coordinates":[[[14.52195,50.02657],[14.51722,50.02556],[14.51462,50.02527],[14.5148,50.02466],[14.51841,50.02482],[14.51923,50.02188],[14.52163,50.02265],[14.52088,50.02508],[14.52264,50.02528],[14.52195,50.02657]]]}},{"type":"Feature","properties":{"cislo":11023,"mco":"Praha 11"},"geometry":{"type":"Polygon","coordinates":[[[14.51923,50.02188],[14.51841,50.02482],[14.5148,50.02466],[14.51528,50.023],[14.51682,50.02318],[14.51736,50.02121],[14.51923,50.02188]]]}},{"type":"Feature","properties":{"cislo":11024,"mco":"Praha 11"},"geometry":{"type":"Polygon","coordinates":[[[14.51528,50.023],[14.51354,50.02281],[14.51423,50.02036],[14.51736,50.02121],[14.51682,50.02318],[14.51528,50.023]]]}},{"type":"Feature","properties":{"cislo":11025,"mco":"Praha 11"},"geometry":{"type":"Polygon","coordinates":[[[14.50889,50.02398],[14.50882,50.02256],[14.50886,50.02084],[14.51399,50.02031],[14.51423,50.02036],[14.51354,50.02281],[14.51528,50.023],[14.51501,50.02393],[14.51317,50.02499],[14.50889,50.02398]]]}},{"type":"Feature","properties":{"cislo":11026,"mco":"Praha 11"},"geometry":{"type":"Polygon","coordinates":[[[14.51462,50.02527],[14.5121,50.02803],[14.50808,50.02758],[14.50889,50.02398],[14.51317,50.02499],[14.51501,50.02393],[14.51462,50.02527]]]}},{"type":"Feature","properties":{"cislo":11027,"mco":"Praha 11"},"geometry":{"type":"Polygon","coordinates":[[[14.51403,50.02825],[14.5121,50.02803],[14.51462,50.02527],[14.51559,50.02538],[14.51443,50.02828],[14.51403,50.02825]]]}},{"type":"Feature","properties":{"cislo":11028,"mco":"Praha 11"},"geometry":{"type":"Polygon","coordinates":[[[14.51443,50.02828],[14.51559,50.02538],[14.51722,50.02556],[14.51771,50.02697],[14.51728,50.0286],[14.51443,50.02828]]]}},{"type":"Feature","properties":{"cislo":11029,"mco":"Praha 11"},"geometry":{"type":"Polygon","coordinates":[[[14.51771,50.02697],[14.51722,50.02556],[14.52195,50.02657],[14.51771,50.02697]]]}},{"type":"Feature","properties":{"cislo":11030,"mco":"Praha 11"},"geometry":{"type":"Polygon","coordinates":[[[14.52045,50.02925],[14.51811,50.02894],[14.51728,50.0286],[14.51771,50.02697],[14.52195,50.02657],[14.52382,50.02789],[14.52318,50.02927],[14.52045,50.02925]]]}},{"type":"Feature","properties":{"cislo":11031,"mco":"Praha 11"},"geometry":{"type":"Polygon","coordinates":[[[14.52572,50.02925],[14.52388,50.03128],[14.52045,50.02925],[14.52318,50.02927],[14.52382,50.02789],[14.52572,50.02925]]]}},{"type":"Feature","properties":{"cislo":11032,"mco":"Praha 11"},"geometry":{"type":"Polygon","coordinates":[[[14.5188,50.03247],[14.52027,50.02922],[14.52045,50.02925],[14.52388,50.03128],[14.52273,50.03253],[14.5188,50.03247]]]}},{"type":"Feature","properties":{"cislo":11033,"mco":"Praha 11"},"geometry":{"type":"Polygon","coordinates":[[[14.51695,50.03226],[14.51811,50.02894],[14.52027,50.02922],[14.5188,50.03247],[14.51695,50.03226]]]}},{"type":"Feature","properties":{"cislo":11034,"mco":"Praha 11"},"geometry":{"type":"Polygon","coordinates":[[[14.51695,50.03226],[14.51313,50.03184],[14.51403,50.02825],[14.51728,50.0286],[14.51811,50.02894],[14.51695,50.03226]]]}},{"type":"Feature","properties":{"cislo":11035,"mco":"Praha 11"},"geometry":{"type":"Polygon","coordinates":[[[14.51313,50.03184],[14.5075,50.03221],[14.50711,50.03123],[14.50808,50.02758],[14.51403,50.02825],[14.51313,50.03184]]]}},{"type":"Feature","properties":{"cislo":11036,"mco":"Praha 11"},"geometry":{"type":"Polygon","coordinates":[[[14.51297,50.03247],[14.51242,50.03443],[14.50771,50.03269],[14.5075,50.03221],[14.51313,50.03184],[14.51297,50.03247]]]}},{"type":"Feature","properties":{"cislo":11037,"mco":"Praha 11"},"geometry":{"type":"Polygon","coordinates":[[[14.51242,50.03443],[14.51297,50.03247],[14.51579,50.03335],[14.51529,50.03513],[14.51242,50.03443]]]}},{"type":"Feature","properties":{"cislo":11038,"mco":"Praha 11"},"geometry":{"type":"Polygon","coordinates":[[[14.51537,50.03515],[14.51529,50.03513],[14.51579,50.03335],[14.51297,50.03247],[14.51313,50.03184],[14.51907,50.03249],[14.51876,50.03364],[14.51807,50.03566],[14.51537,50.03515]]]}},{"type":"Feature","properties":{"cislo":11039,"mco":"Praha 11"},"geometry":{"type":"Polygon","coordinates":[[[14.52156,50.03433],[14.51876,50.03364],[14.51907,50.03249],[14.52273,50.03253],[14.52156,50.03433]]]}},{"type":"Feature","properties":{"cislo":11040,"mco":"Praha 11"},"geometry":{"type":"Polygon","coordinates":[[[14.51807,50.03566],[14.51876,50.03364],[14.52156,50.03433],[14.52066,50.0357],[14.51917,50.03571],[14.51807,50.03566]]]}},{"type":"Feature","properties":{"cislo":11041,"mco":"Praha 11"},"geometry":{"type":"Polygon","coordinates":[[[14.50771,50.03269],[14.50845,50.03617],[14.50153,50.03518],[14.50178,50.03266],[14.50298,50.03231],[14.50534,50.03274],[14.50711,50.03123],[14.50771,50.03269]]]}},{"type":"Feature","properties":{"cislo":11042,"mco":"Praha 11"},"geometry":{"type":"Polygon","coordinates":[[[14.50433,50.03898],[14.50423,50.03667],[14.50096,50.03622],[14.50153,50.03518],[14.50845,50.03617],[14.50872,50.03689],[14.50621,50.0369],[14.50503,50.03926],[14.50433,50.03898]]]}},{"type":"Feature","properties":{"cislo":11043,"mco":"Praha 11"},"geometry":{"type":"Polygon","coordinates":[[[14.50605,50.03966],[14.50958,50.03832],[14.50872,50.03689],[14.50845,50.03617],[14.50771,50.03269],[14.51242,50.03443],[14.51537,50.03515],[14.51476,50.03603],[14.51334,50.03782],[14.51081,50.04007],[14.50605,50.03966]]]}},{"type":"Feature","properties":{"cislo":11044,"mco":"Praha 11"},"geometry":{"type":"Polygon","coordinates":[[[14.50503,50.03926],[14.50621,50.0369],[14.50872,50.03689],[14.50958,50.03832],[14.50605,50.03966],[14.50503,50.03926]]]}},{"type":"Feature","properties":{"cislo":11045,"mco":"Praha 11"},"geometry":{"type":"Polygon","coordinates":[[[14.50711,50.03123],[14.50534,50.03274],[14.50298,50.03231],[14.49941,50.03087],[14.50318,50.02643],[14.50075,50.02574],[14.50882,50.02256],[14.50889,50.02398],[14.50808,50.02758],[14.50711,50.03123]]]}},{"type":"Feature","properties":{"cislo":11046,"mco":"Praha 11"},"geometry":{"type":"Polygon","coordinates":[[[14.4951,50.03635],[14.49213,50.0345],[14.49485,50.02947],[14.50075,50.02574],[14.50318,50.02643],[14.49941,50.03087],[14.50298,50.03231],[14.50178,50.03266],[14.49757,50.03472],[14.4951,50.03635]]]}},{"type":"Feature","properties":{"cislo":11047,"mco":"Praha 11"},"geometry":{"type":"Polygon","coordinates":[[[14.49757,50.03472],[14.50178,50.03266],[14.50153,50.03518],[14.50096,50.03622],[14.49757,50.03472]]]}},{"type":"Feature","properties":{"cislo":11048,"mco":"Praha 11"},"geometry":{"type":"Polygon","coordinates":[[[14.4979,50.03777],[14.4951,50.03635],[14.49757,50.03472],[14.50096,50.03622],[14.50423,50.03667],[14.50433,50.03898],[14.4979,50.03777]]]}},{"type":"Feature","properties":{"cislo":11049,"mco":"Praha 11"},"geometry":{"type":"Polygon","coordinates":[[[14.48884,50.04477],[14.48639,50.0446],[14.48815,50.04279],[14.48682,50.04131],[14.48874,50.03915],[14.49212,50.0345],[14.4951,50.03635],[14.4979,50.03777],[14.49613,50.04019],[14.49985,50.04172],[14.49794,50.044],[14.4937,50.04391],[14.49041,50.04275],[14.48863,50.04301],[14.48884,50.04477]]]}},{"type":"Feature","properties":{"cislo":11050,"mco":"Praha 11"},"geometry":{"type":"Polygon","coordinates":[[[14.51132,50.04064],[14.51358,50.04246],[14.51258,50.04392],[14.51243,50.04565],[14.49794,50.044],[14.49985,50.04172],[14.49613,50.04019],[14.4979,50.03777],[14.50433,50.03898],[14.50605,50.03966],[14.51081,50.04007],[14.51132,50.04064]]]}},{"type":"Feature","properties":{"cislo":11051,"mco":"Praha 11"},"geometry":{"type":"Polygon","coordinates":[[[14.50075,50.02574],[14.49898,50.02498],[14.49597,50.02338],[14.49607,50.02125],[14.50037,50.02024],[14.50886,50.02084],[14.50882,50.02256],[14.50075,50.02574]]]}},{"type":"Feature","properties":{"cislo":11052,"mco":"Praha 11"},"geometry":{"type":"Polygon","coordinates":[[[14.49898,50.02498],[14.49612,50.02608],[14.49312,50.02158],[14.49607,50.02125],[14.49597,50.02338],[14.49898,50.02498]]]}},{"type":"Feature","properties":{"cislo":11053,"mco":"Praha 11"},"geometry":{"type":"Polygon","coordinates":[[[14.49612,50.02608],[14.49225,50.02652],[14.48898,50.0228],[14.48912,50.02268],[14.49312,50.02158],[14.49612,50.02608]]]}},{"type":"Feature","properties":{"cislo":11054,"mco":"Praha 11"},"geometry":{"type":"Polygon","coordinates":[[[14.48802,50.02617],[14.48898,50.0228],[14.49225,50.02652],[14.48802,50.02617]]]}},{"type":"Feature","properties":{"cislo":11055,"mco":"Praha 11"},"geometry":{"type":"Polygon","coordinates":[[[14.48839,50.03272],[14.48769,50.03097],[14.48776,50.02902],[14.48802,50.02617],[14.49225,50.02652],[14.49612,50.02608],[14.49898,50.02498],[14.50075,50.02574],[14.49485,50.02947],[14.49213,50.0345],[14.48839,50.03272]]]}},{"type":"Feature","properties":{"cislo":11056,"mco":"Praha 11"},"geometry":{"type":"Polygon","coordinates":[[[14.48769,50.03097],[14.48548,50.03096],[14.48556,50.02891],[14.48776,50.02902],[14.48769,50.03097]]]}},{"type":"Feature","properties":{"cislo":11057,"mco":"Praha 11"},"geometry":{"type":"Polygon","coordinates":[[[14.48457,50.02885],[14.48556,50.02891],[14.48548,50.03096],[14.48769,50.03097],[14.48839,50.03272],[14.48568,50.03344],[14.48341,50.03041],[14.48457,50.02885]]]}},{"type":"Feature","properties":{"cislo":11058,"mco":"Praha 11"},"geometry":{"type":"Polygon","coordinates":[[[14.48183,50.03371],[14.48236,50.03348],[14.48047,50.03153],[14.48106,50.02912],[14.48457,50.02885],[14.48341,50.03041],[14.48568,50.03344],[14.48249,50.03427],[14.48183,50.03371]]]}},{"type":"Feature","properties":{"cislo":11059,"mco":"Praha 11"},"geometry":{"type":"Polygon","coordinates":[[[14.48047,50.03153],[14.48236,50.03348],[14.48183,50.03371],[14.47856,50.03233],[14.48047,50.03153]]]}},{"type":"Feature","properties":{"cislo":11060,"mco":"Praha 11"},"geometry":{"type":"Polygon","coordinates":[[[14.48135,50.04059],[14.46959,50.03903],[14.4702,50.03361],[14.4773,50.02983],[14.48106,50.02912],[14.48047,50.03153],[14.47856,50.03233],[14.48183,50.03371],[14.48249,50.03427],[14.47905,50.03766],[14.48296,50.04083],[14.48135,50.04059]]]}},{"type":"Feature","properties":{"cislo":11061,"mco":"Praha 11"},"geometry":{"type":"Polygon","coordinates":[[[14.48874,50.03915],[14.48249,50.03426],[14.48839,50.03272],[14.49212,50.0345],[14.48874,50.03915]]]}},{"type":"Feature","properties":{"cislo":11062,"mco":"Praha 11"},"geometry":{"type":"Polygon","coordinates":[[[14.48682,50.04131],[14.48296,50.04083],[14.47905,50.03766],[14.48249,50.03426],[14.48874,50.03915],[14.48682,50.04131]]]}}]}